Name,Type,Region,Address,City,Postal Code,State,Longitude,Latitude,ID
Anesis S.R.L.,RIA,Abruzzo,,,,Italy,,,FGO712
Ass. Focolare Maria Regina Onu,RIA,Abruzzo,,,,Italy,,,ONO874
Cdc S.Camilla-C.Ria.Villa Pini,RIA,Abruzzo,,,,Italy,,,FOJ220
Cento Riabilitazione S.Agnese,RIA,Abruzzo,,,,Italy,,,UVK827
Centro Ex Art 26 Pizzoli,RIA,Abruzzo,,,,Italy,,,XVA968
Centro Fisiot.Riab.Medical Mar,RIA,Abruzzo,,,,Italy,,,AHU248
Centro Medisalus S.R.L.,RIA,Abruzzo,,,,Italy,,,QAG408
Centro Riab Collemaggio,RIA,Abruzzo,,,,Italy,,,QIO206
Centro Riab Dsbaq San Demetrio,RIA,Abruzzo,,,,Italy,,,CLX705
Centro Riab Villa Dorotea,RIA,Abruzzo,,,,Italy,,,VVG107
Centro Riabilitazione  Sanex,RIA,Abruzzo,,,,Italy,,,YUY372
Centro San Venanzio,RIA,Abruzzo,,,,Italy,,,VOD325
Centro Vaccinale Città Sant'Angelo Outlet Village,STS,Abruzzo,,,,Italy,,,OJB756
Centro Vaccinale Covid  Castel Di Sangro,STS,Abruzzo,,,,Italy,,,OTB643
Centro Vaccinale Covid Aq Bazzano Ex Tribunale,STS,Abruzzo,,,,Italy,,,IVT830
Centro Vaccinale Covid Sulmona Pal. Sport,STS,Abruzzo,,,,Italy,,,ZEK485
Centro Vaccinale Covid Tagliacozzo,STS,Abruzzo,,,,Italy,,,RUZ205
Centro Vaccinale Dsb Pescina,STS,Abruzzo,,,,Italy,,,GQH998
Centro Vaccinale Ex Scuola Elementare Via Fucino,STS,Abruzzo,,,,Italy,,,VDE107
Centro Vaccinale Montesilvano,STS,Abruzzo,,,,Italy,,,CEI945
Centro Vaccinale Penne,STS,Abruzzo,,,,Italy,,,PNC107
Centro Vaccinale Pescara Palefiere,STS,Abruzzo,,,,Italy,,,IIJ935
Centro Vaccinale Pescara Stazione Portanuova,STS,Abruzzo,,,,Italy,,,QVC465
Centro Vaccinale San Vittorino,STS,Abruzzo,,,,Italy,,,QEG898
Centro Vaccinale Spoltore,STS,Abruzzo,,,,Italy,,,PJQ609
Centro Vaccinale Val Pescara,STS,Abruzzo,,,,Italy,,,PBJ735
Conc S. Stefano Teramo,RIA,Abruzzo,,,,Italy,,,ACY401
Cons. S. Stefano Atri,RIA,Abruzzo,,,,Italy,,,WSY154
Cons. S.Stefano Alba Adriatica,RIA,Abruzzo,,,,Italy,,,UYC786
Cons. S.Stefano Roseto,RIA,Abruzzo,,,,Italy,,,WGU956
Cons. S.Stefano S.Egidio,RIA,Abruzzo,,,,Italy,,,WGH316
Consorzio San Stef.Ar.,RIA,Abruzzo,,,,Italy,,,NFU992
Consultorio San Vito Chietino,STS,Abruzzo,,,,Italy,,,NPR430
Don Orione,RIA,Abruzzo,,,,Italy,,,LMQ179
Dsb Chieti Centro,STS,Abruzzo,,,,Italy,,,FCN713
Dsb Francavilla - Sede Erog. San Giovanni Teatino,STS,Abruzzo,,,,Italy,,,ZBV379
Dsb Francavilla Al Mare,STS,Abruzzo,,,,Italy,,,PZW758
Dsb Lanciano,STS,Abruzzo,,,,Italy,,,QVV248
Dsb San Salvo,STS,Abruzzo,,,,Italy,,,DKZ131
Dsb San Salvo - Sede Erog. Castiglione M.M.,STS,Abruzzo,,,,Italy,,,TJN643
Dsb Vasto,STS,Abruzzo,,,,Italy,,,NLJ258
Dsb Villa Santa Maria,STS,Abruzzo,,,,Italy,,,WPC593
Fond. Il Cireneo Onlus Per Aut,RIA,Abruzzo,,,,Italy,,,APD508
Fond. Ist. Santa Caterina,RIA,Abruzzo,,,,Italy,,,OCR674
Fond. P. A. Mileno Gissi,RIA,Abruzzo,,,,Italy,,,YKS841
Fond. P. A. Mileno Lanciano,RIA,Abruzzo,,,,Italy,,,CPZ285
Fond. P. A. Mileno Vasto Dalm.,RIA,Abruzzo,,,,Italy,,,YBH544
Fond. P. A. Mileno Vasto Lebba,RIA,Abruzzo,,,,Italy,,,HMF494
Fond. P. A. Mileno Vasto Plato,RIA,Abruzzo,,,,Italy,,,TYV200
Fond. P. A. Mileno Vasto S.Tom,RIA,Abruzzo,,,,Italy,,,QCG475
Fond. Papa Paolo Vi-S.Agostino,RIA,Abruzzo,,,,Italy,,,LVL332
Fond. Piccola Opera Caritas,RIA,Abruzzo,,,,Italy,,,HYM140
Fond.P.Alberto Mileno Onlus,RIA,Abruzzo,,,,Italy,,,UXO769
Hub Maria Ss Splendore Giulianova,STS,Abruzzo,,,,Italy,,,MNA634
Hub Ospedale Mazzini Teramo,STS,Abruzzo,,,,Italy,,,YLB960
Hub P.O. Val Vibrata  Sant'Omero,STS,Abruzzo,,,,Italy,,,JDC792
Hub Parco Della Scienza,STS,Abruzzo,,,,Italy,,,CRN852
Hub San Liberatore Atri,STS,Abruzzo,,,,Italy,,,IUS704
Il Piccolo Principe,RIA,Abruzzo,,,,Italy,,,ZKI333
Ist. Riab. San Rocco - Atessa,RIA,Abruzzo,,,,Italy,,,IQD768
Ist. Riab. San Rocco - Casoli,RIA,Abruzzo,,,,Italy,,,VDO412
Istit. Villa Giulia,RIA,Abruzzo,,,,Italy,,,WRD632
Nova Salus Srl,RIA,Abruzzo,,,,Italy,,,FAM895
P.O. Atessa,STS,Abruzzo,,,,Italy,,,PBW661
P.O. Clinicizz. 'Ss. Annunziata' Chieti,STS,Abruzzo,,,,Italy,,,TTK285
P.O. Lanciano,STS,Abruzzo,,,,Italy,,,AZR993
P.O. Ortona,STS,Abruzzo,,,,Italy,,,HFM580
P.O. Vasto,STS,Abruzzo,,,,Italy,,,XUX128
P.T.A. Casoli,STS,Abruzzo,,,,Italy,,,BPC863
P.T.A. Gissi,STS,Abruzzo,,,,Italy,,,YXB504
P.T.A. Guardiagrele,STS,Abruzzo,,,,Italy,,,UBY241
Paolo Vi  Madonna Del Monte,RIA,Abruzzo,,,,Italy,,,EKS180
Paolo Vi Centro,RIA,Abruzzo,,,,Italy,,,SCN226
Paolo Vi Centro Adriatico,RIA,Abruzzo,,,,Italy,,,PJU399
Paolo Vi Centro Tabor,RIA,Abruzzo,,,,Italy,,,GUP408
Paolo Vi Civitaquana,RIA,Abruzzo,,,,Italy,,,TXT639
Paolo Vi San Clemente,RIA,Abruzzo,,,,Italy,,,PEE609
Paolo Vi San Massimo,RIA,Abruzzo,,,,Italy,,,JCB127
Piccola Opera Charitas,RIA,Abruzzo,,,,Italy,,,LYU764
Poliambulatorio Pe,STS,Abruzzo,,,,Italy,,,FEH214
Riab. Anffas-Onulus Teramo,RIA,Abruzzo,,,,Italy,,,HUE146
Riabilitazione Wellness&C.,RIA,Abruzzo,,,,Italy,,,NKH905
San Raffaele Spa,RIA,Abruzzo,,,,Italy,,,HGY323
San Ste Far Montesilvano,RIA,Abruzzo,,,,Italy,,,PUV281
San Ste Far Pescara,RIA,Abruzzo,,,,Italy,,,UWX446
San Stef. Ar. Abruzzo-Chs,RIA,Abruzzo,,,,Italy,,,PCF125
San Stef. Ar. Abruzzo-Cht,RIA,Abruzzo,,,,Italy,,,SQX429
San Stef. Ar. Abruzzo-Csb,RIA,Abruzzo,,,,Italy,,,HEZ611
San Stef. Ar. Abruzzo-Lnc,RIA,Abruzzo,,,,Italy,,,NLP517
San Stef. Ar. Abruzzo-Ssl,RIA,Abruzzo,,,,Italy,,,LAP197
San Stef. Ar. Abruzzo-Vsm,RIA,Abruzzo,,,,Italy,,,ZBT392
San Stef. Ar. Abruzzo-Vst,RIA,Abruzzo,,,,Italy,,,VLG939
Serv Riab Avezzano,RIA,Abruzzo,,,,Italy,,,JEZ988
Serv Riab Sulmona,RIA,Abruzzo,,,,Italy,,,KVB717
Aias,RIA,Basilicata,,,,Italy,,,EZX647
Aias-Sez.Melfi - Sede Matera,RIA,Basilicata,,,,Italy,,,AJN648
C.T.R. Srl,RIA,Basilicata,,,,Italy,,,RGF958
Centro   R. H. A. M.,RIA,Basilicata,,,,Italy,,,LDP472
Centro A.I.A.S. Di Lauria,RIA,Basilicata,,,,Italy,,,VQF711
Centro Aias F. Bagnale,RIA,Basilicata,,,,Italy,,,RFL341
Centro Di Riabilitazione Aias,RIA,Basilicata,,,,Italy,,,XIB282
Centro Policenter S.R.L.,RIA,Basilicata,,,,Italy,,,EGH974
Centro San Paolo Servizi,RIA,Basilicata,,,,Italy,,,WQP288
Centro Tavolaro S.R.L,RIA,Basilicata,,,,Italy,,,EHK790
Centro Vaccinale  -Complesso Sportivo Rocco Mazzola,STS,Basilicata,,,,Italy,,,NDG415
Centro Vaccinale Confapi Pz,STS,Basilicata,,,,Italy,,,QKC584
Centro Vaccinale Covid Enel,STS,Basilicata,,,,Italy,,,JRK333
Centro Vaccinale Covid-19 Lavello,STS,Basilicata,,,,Italy,,,QTH226
Centro Vaccinale Covid-19 Melfi,STS,Basilicata,,,,Italy,,,AQO130
Centro Vaccinale Covid-19 Mmg Asp,STS,Basilicata,,,,Italy,,,DIS699
Centro Vaccinale Domiciliare Asp,STS,Basilicata,,,,Italy,,,QKH438
Centro Vaccinale Farmacie Asp,STS,Basilicata,,,,Italy,,,NPG878
Centro Vaccinale Ferrero,STS,Basilicata,,,,Italy,,,SSB144
Centro Vaccinale Total,STS,Basilicata,,,,Italy,,,YHO142
Fisiokinesiterapia Melandro,RIA,Basilicata,,,,Italy,,,GOF795
Fondazione Don Gnocchi Onlus,RIA,Basilicata,,,,Italy,,,VBI587
Genovese Camillo S.R.L,RIA,Basilicata,,,,Italy,,,JJE515
Istituto Padri Trinitari,RIA,Basilicata,,,,Italy,,,ZKU525
Polo Riab Fdg Asm,RIA,Basilicata,,,,Italy,,,NLW200
Punto Vaccinale M.M.G. Asm,STS,Basilicata,,,,Italy,,,NGY572
Punto Vaccinale Matera,STS,Basilicata,,,,Italy,,,LDG804
Punto Vaccinale Pisticci,STS,Basilicata,,,,Italy,,,UQY228
Punto Vaccinale Policoro,STS,Basilicata,,,,Italy,,,USO622
Punto Vaccinale Stigliano,STS,Basilicata,,,,Italy,,,KBR796
Punto Vaccinale Tricarico,STS,Basilicata,,,,Italy,,,BPQ632
Ressana S.R.L.,RIA,Basilicata,,,,Italy,,,IKA718
Universo Salute Srl Cssr Pz,RIA,Basilicata,,,,Italy,,,VCM273
Aias Vadue  Di Carolei,RIA,Calabria,,,,Italy,,,UBV271
Anmi Siss - Rossano,RIA,Calabria,,,,Italy,,,FEB345
Anmi Siss Srl - Cosenza,RIA,Calabria,,,,Italy,,,HPY160
Ass. Comunita' Progetto Sud,RIA,Calabria,,,,Italy,,,HXR787
Ass. Mutua Benevolentia,RIA,Calabria,,,,Italy,,,IPG104
C.I.F. Casa Serena S.G.Bosco,RIA,Calabria,,,,Italy,,,WWK951
Case Della Salute Mormanno,RIA,Calabria,,,,Italy,,,TZL892
Cenro Riab. Don Milani Lungro,RIA,Calabria,,,,Italy,,,MIH243
Centro Carlo Pizzi,RIA,Calabria,,,,Italy,,,CVU863
Centro Clinico San Vitaliano,RIA,Calabria,,,,Italy,,,IHB590
Centro Di Riab.Ne Nova Salus,RIA,Calabria,,,,Italy,,,VNF731
Centro Di Riabilitazione Amnic,RIA,Calabria,,,,Italy,,,HVX259
Centro Di Riabilitazione S. G.,RIA,Calabria,,,,Italy,,,AUX571
Centro Emmanuele,RIA,Calabria,,,,Italy,,,INA724
Centro Nadia Vadala',RIA,Calabria,,,,Italy,,,SUV993
Centro Riab Estensiv Aquasalus,RIA,Calabria,,,,Italy,,,XVB899
Centro Riabil. Anmic S. G.,RIA,Calabria,,,,Italy,,,IXX330
Centro Riabilitativo Lucrezia,RIA,Calabria,,,,Italy,,,YFH107
Centro Riabilitazione S.Chiara,RIA,Calabria,,,,Italy,,,GMW270
Centro Sophia,RIA,Calabria,,,,Italy,,,BRI545
Centro Tripepi Mariotti,RIA,Calabria,,,,Italy,,,XPD273
Clinica Service Center,RIA,Calabria,,,,Italy,,,GDH960
Coop. Soc.Le Skinner Srl Onlus,RIA,Calabria,,,,Italy,,,ZGY286
Costruire Il Domani Onlus,RIA,Calabria,,,,Italy,,,EDH547
Cre San Domenico,RIA,Calabria,,,,Italy,,,EMN601
Cre-San Vito Hospital,RIA,Calabria,,,,Italy,,,GXH985
Ctr Med. E Fkt Dott. P. Crupi,RIA,Calabria,,,,Italy,,,ANB584
Ente Morale F. Germano,RIA,Calabria,,,,Italy,,,UVR255
Fiosenter S.R.L.,RIA,Calabria,,,,Italy,,,XCF101
Fkt Bagnarese Srl,RIA,Calabria,,,,Italy,,,IZL759
Fond. Marino Per L'Autismo Onl,RIA,Calabria,,,,Italy,,,QFS889
"Fondazione ""Casa Della Carita'",RIA,Calabria,,,,Italy,,,RWM544
Fondazione Betania Onlus,RIA,Calabria,,,,Italy,,,DKZ489
Ist. Cura Medical & Psychology,RIA,Calabria,,,,Italy,,,MDW573
Ist. Psico-Ped. Villa Betania,RIA,Calabria,,,,Italy,,,HSR416
Istituto Di Riab.Villa S.Agata,RIA,Calabria,,,,Italy,,,CDJ923
Onlus - Cetraro,RIA,Calabria,,,,Italy,,,DKU159
Pres. Di Riab. Centro San Gius,RIA,Calabria,,,,Italy,,,WBW293
Residenza Ad Alto Trattamento,RIA,Calabria,,,,Italy,,,PFA817
Riabil. Madonna Della Catena,RIA,Calabria,,,,Italy,,,KPB949
Riabilia Di L. Barillaro Sas,RIA,Calabria,,,,Italy,,,FFK588
"Riabilit.Est. ""Biolife"" Srl",RIA,Calabria,,,,Italy,,,FFP215
Riabilitazione Castrovillari,RIA,Calabria,,,,Italy,,,DGM652
Salus Spa,RIA,Calabria,,,,Italy,,,JMA441
Santa Chiara Srl,RIA,Calabria,,,,Italy,,,NRU673
Sasa' Martino,RIA,Calabria,,,,Italy,,,BFF299
Starbene  Srl,RIA,Calabria,,,,Italy,,,YZC291
Studio Medico Pol. F.K.T. Alfa,RIA,Calabria,,,,Italy,,,DCU197
Terme Sibarite S.P.A.,RIA,Calabria,,,,Italy,,,QSJ478
Turano C.&.C. Srl,RIA,Calabria,,,,Italy,,,SVF477
Unita Operativa Recupero Neuro,RIA,Calabria,,,,Italy,,,LKX838
Villa Adelchi - Riace S.R.L.,RIA,Calabria,,,,Italy,,,FQH389
Villa San Giuseppe,RIA,Calabria,,,,Italy,,,GBA599
Villa San Pio Dipignano,RIA,Calabria,,,,Italy,,,JXM215
Villa Torano,RIA,Calabria,,,,Italy,,,LQK843
Aias  Calitri,RIA,Campania,,,,Italy,,,SUM494
Aias Afragola,RIA,Campania,,,,Italy,,,ZFF355
Aias Casoria,RIA,Campania,,,,Italy,,,FLC148
Aias Nusco,RIA,Campania,,,,Italy,,,RSR947
Aias Onlus C.R.M. Marechiaro,RIA,Campania,,,,Italy,,,IIY122
Aias Penisola Sorrentina,RIA,Campania,,,,Italy,,,DFQ404
Aias Peppino Scoppa,RIA,Campania,,,,Italy,,,ZLM399
Aias Sez.Di Nola - Cicciano,RIA,Campania,,,,Italy,,,CUK358
Aias Vico E.Arco Felice,RIA,Campania,,,,Italy,,,XOJ652
Anffas Onlus,RIA,Campania,,,,Italy,,,UOM787
Anffas Onlus Capri,RIA,Campania,,,,Italy,,,BJU686
Antares Centro Riabilitazione,RIA,Campania,,,,Italy,,,QKS286
Ass. La Nostra Famiglia,RIA,Campania,,,,Italy,,,RUR846
Associazione Meta Felix,RIA,Campania,,,,Italy,,,NOG272
Azienda Ospedaliera Dei Colli,RIA,Campania,,,,Italy,,,WRG992
C. Soc. Na. Anffas Cdr C. Ursi,RIA,Campania,,,,Italy,,,NFE823
C.D.Spettro Autistico,RIA,Campania,,,,Italy,,,LEM337
C.F.R. Istit. Di Riabilit. Srl,RIA,Campania,,,,Italy,,,VZF662
C.G.M. San Luca S.R.L.,RIA,Campania,,,,Italy,,,GBJ230
C.T.A. Srl,RIA,Campania,,,,Italy,,,AIH135
C.T.F. Centro  Terapia Fisica,RIA,Campania,,,,Italy,,,ZYG893
C.Tro La Primula  Srl,RIA,Campania,,,,Italy,,,WTV691
Casa Di Cura S M Del Pozzo Cem,RIA,Campania,,,,Italy,,,OFU318
Cedif Srl,RIA,Campania,,,,Italy,,,TMC503
Cefim S.N.C.,RIA,Campania,,,,Italy,,,FOF819
Centro  Fisiovesuviano  S.R.L.,RIA,Campania,,,,Italy,,,XPD843
Centro  Moscati Srl,RIA,Campania,,,,Italy,,,PRU156
Centro  Vaccinale - Agropoli-Ds70,STS,Campania,,,,Italy,,,ZIH323
Centro  Vaccinale - Pellezzano-Ds66,STS,Campania,,,,Italy,,,QWD327
Centro  Vaccinale Castelnuovo Cilento-Ds70,STS,Campania,,,,Italy,,,IBZ935
Centro A.I.R.R.I.,RIA,Campania,,,,Italy,,,MQP447
Centro A.T.H.E.N.A. S.N.C.,RIA,Campania,,,,Italy,,,KFJ241
Centro Agroaversano,RIA,Campania,,,,Italy,,,YIT306
Centro Anna Rita Buonincontro,RIA,Campania,,,,Italy,,,ESN950
Centro Campano,RIA,Campania,,,,Italy,,,PYX340
Centro Cron,RIA,Campania,,,,Italy,,,PPA449
Centro Di Ginn. Med. Santulli,RIA,Campania,,,,Italy,,,MBY715
Centro Di Radiologia Ginolfi,RIA,Campania,,,,Italy,,,CNH360
Centro Di Riabilitazione,RIA,Campania,,,,Italy,,,AWZ886
Centro Don Orione,RIA,Campania,,,,Italy,,,WJD615
Centro Fisiokinesit.Cilento,RIA,Campania,,,,Italy,,,QDX836
Centro Flegreo Srl,RIA,Campania,,,,Italy,,,QAX309
Centro Futura Srl,RIA,Campania,,,,Italy,,,ZDU620
Centro G.Torre,RIA,Campania,,,,Italy,,,MIK970
Centro Horizon Srl,RIA,Campania,,,,Italy,,,BCC355
Centro Juvenia Srl,RIA,Campania,,,,Italy,,,WRY154
Centro Juventus Vibonati S.R.L,RIA,Campania,,,,Italy,,,MHC596
Centro Lars,RIA,Campania,,,,Italy,,,OED212
Centro Manzoni Srl,RIA,Campania,,,,Italy,,,MSK883
Centro Med.Psicosomatica,RIA,Campania,,,,Italy,,,ZXO305
Centro Med.Riabil.S.Marco Srl,RIA,Campania,,,,Italy,,,KVC474
Centro Medico Riabilit. Pompei,RIA,Campania,,,,Italy,,,CHX585
Centro Minerva    Srl,RIA,Campania,,,,Italy,,,NBK573
Centro Panda Srl,RIA,Campania,,,,Italy,,,FKT187
Centro Plinio Srl,RIA,Campania,,,,Italy,,,UJC454
Centro Prif S.R.L.,RIA,Campania,,,,Italy,,,BIE272
Centro Pro-Juventute Minerva,RIA,Campania,,,,Italy,,,WIU527
Centro Relax S.P.A.,RIA,Campania,,,,Italy,,,MJP372
Centro Relax Spa R.L.Caporaso,RIA,Campania,,,,Italy,,,PSJ462
Centro Riab. E Rec. H. Abatese,RIA,Campania,,,,Italy,,,VKC216
Centro Riabilitazione Motoria,RIA,Campania,,,,Italy,,,FAF997
Centro Riabilitazione Procida,RIA,Campania,,,,Italy,,,YOP618
Centro Rodi Srl,RIA,Campania,,,,Italy,,,MCL246
Centro S. Ciro,RIA,Campania,,,,Italy,,,MYL916
Centro S. Paolo,RIA,Campania,,,,Italy,,,VLX439
Centro Salus S.R.L.,RIA,Campania,,,,Italy,,,TIR566
Centro San Vincenzo,RIA,Campania,,,,Italy,,,YTO370
Centro Serena Sas,RIA,Campania,,,,Italy,,,GVB627
Centro Studi Dell Scoliosi Srl,RIA,Campania,,,,Italy,,,JMX535
Centro Terap. Riab.De Nicola,RIA,Campania,,,,Italy,,,OQZ921
Centro Tivan Srl,RIA,Campania,,,,Italy,,,YZP773
Centro Vaccinale  Anticovid  Iiss S. Caterina Ds66,STS,Campania,,,,Italy,,,YIL857
Centro Vaccinale  Baronissi C/O Palairno-Ds67,STS,Campania,,,,Italy,,,ORU428
Centro Vaccinale  Di Siano-Ds67,STS,Campania,,,,Italy,,,OAV807
Centro Vaccinale - San Marzano Sul Sarno-Ds62,STS,Campania,,,,Italy,,,FAH121
Centro Vaccinale Acerra,STS,Campania,,,,Italy,,,FLD621
Centro Vaccinale Afragola,STS,Campania,,,,Italy,,,OPL469
Centro Vaccinale Agerola,STS,Campania,,,,Italy,,,ICO223
Centro Vaccinale Altavilla Irpina,STS,Campania,,,,Italy,,,CVE124
Centro Vaccinale -Angri-Ds61,STS,Campania,,,,Italy,,,WMB858
Centro Vaccinale Anti Covid Ds61,STS,Campania,,,,Italy,,,KFI476
Centro Vaccinale Anti Covid Ds63,STS,Campania,,,,Italy,,,EWN905
Centro Vaccinale Anti Covid Teatro Augusteo Ds66,STS,Campania,,,,Italy,,,KGS223
Centro Vaccinale Anti Covid-Pagani-Ds62,STS,Campania,,,,Italy,,,MTN646
Centro Vaccinale Anticovid-Sala Consilina-Ds72,STS,Campania,,,,Italy,,,OJT657
Centro Vaccinale Ariano Irpino,STS,Campania,,,,Italy,,,EKA345
Centro Vaccinale Avellino,STS,Campania,,,,Italy,,,WYN350
Centro Vaccinale Bacoli,STS,Campania,,,,Italy,,,ZSA924
Centro Vaccinale Bisaccia,STS,Campania,,,,Italy,,,FCK104
Centro Vaccinale Boscotrecase,STS,Campania,,,,Italy,,,SPS360
Centro Vaccinale C/O Centro Sociale-Ds66,STS,Campania,,,,Italy,,,ZYH649
Centro Vaccinale C/O Teatro De Lise-Ds62,STS,Campania,,,,Italy,,,ZGR937
Centro Vaccinale Cardito,STS,Campania,,,,Italy,,,ATQ858
Centro Vaccinale Casalnuovo,STS,Campania,,,,Italy,,,RQN425
Centro Vaccinale Casavatore,STS,Campania,,,,Italy,,,ZQY981
Centro Vaccinale Castellammare Di Stabia,STS,Campania,,,,Italy,,,JUF917
Centro Vaccinale -Cava Dei Tirreni-Ds63,STS,Campania,,,,Italy,,,ONC755
Centro Vaccinale Cercola,STS,Campania,,,,Italy,,,PWK221
Centro Vaccinale Cervinara,STS,Campania,,,,Italy,,,OSJ668
Centro Vaccinale Di  Fisciano-Ds67,STS,Campania,,,,Italy,,,GED647
Centro Vaccinale Di Sassano- Ds72,STS,Campania,,,,Italy,,,KTM154
Centro Vaccinale Ercolano,STS,Campania,,,,Italy,,,AFO205
Centro Vaccinale Fagianeria Real Bosco Di Capodimonte,STS,Campania,,,,Italy,,,KQI939
Centro Vaccinale Flumeri,STS,Campania,,,,Italy,,,QKO275
Centro Vaccinale Forio,STS,Campania,,,,Italy,,,OKI207
Centro Vaccinale Frattamaggiore,STS,Campania,,,,Italy,,,AQI553
Centro Vaccinale Frattaminore,STS,Campania,,,,Italy,,,WVE938
Centro Vaccinale Giugliano,STS,Campania,,,,Italy,,,NMN102
Centro Vaccinale Grottaminarda,STS,Campania,,,,Italy,,,ATR518
Centro Vaccinale Hangar Atitech,STS,Campania,,,,Italy,,,IMV683
Centro Vaccinale Hub Capodichino,STS,Campania,,,,Italy,,,MRM330
Centro Vaccinale Ischia,STS,Campania,,,,Italy,,,WXQ739
Centro Vaccinale Lioni,STS,Campania,,,,Italy,,,BGQ164
Centro Vaccinale M.S.Severino C/O Palestra Scuola Elem.-Ds67,STS,Campania,,,,Italy,,,JHB219
Centro Vaccinale Marigliano,STS,Campania,,,,Italy,,,PBX697
Centro Vaccinale Massa Lubrense,STS,Campania,,,,Italy,,,FUF614
Centro Vaccinale Mercogliano,STS,Campania,,,,Italy,,,OJF194
Centro Vaccinale Mirabella Eclanum,STS,Campania,,,,Italy,,,EVP377
Centro Vaccinale Montefalcione,STS,Campania,,,,Italy,,,ENF558
Centro Vaccinale Monteforte Irpino,STS,Campania,,,,Italy,,,IPF709
Centro Vaccinale Montella,STS,Campania,,,,Italy,,,THP262
Centro Vaccinale Montemarano,STS,Campania,,,,Italy,,,IAD151
Centro Vaccinale Montoro,STS,Campania,,,,Italy,,,HIY906
Centro Vaccinale Moschiano,STS,Campania,,,,Italy,,,UNR165
Centro Vaccinale Mugnano Del Cardinale,STS,Campania,,,,Italy,,,LQB839
Centro Vaccinale Mugnano Di Napoli,STS,Campania,,,,Italy,,,LNR734
Centro Vaccinale Museo Madre,STS,Campania,,,,Italy,,,CWK168
Centro Vaccinale Nola,STS,Campania,,,,Italy,,,ZEE174
Centro Vaccinale Ottaviano,STS,Campania,,,,Italy,,,VNL120
Centro Vaccinale Palma Campania,STS,Campania,,,,Italy,,,IZN472
Centro Vaccinale Piano Di Sorrento,STS,Campania,,,,Italy,,,YMB825
Centro Vaccinale Poggiomarino,STS,Campania,,,,Italy,,,TZA241
Centro Vaccinale Pomigliano D' Arco,STS,Campania,,,,Italy,,,CQS602
Centro Vaccinale Pompei,STS,Campania,,,,Italy,,,CVC139
Centro Vaccinale Portici,STS,Campania,,,,Italy,,,EYZ650
Centro Vaccinale Pozzuoli,STS,Campania,,,,Italy,,,NIW179
Centro Vaccinale Quarto,STS,Campania,,,,Italy,,,BFO113
Centro Vaccinale S.Giorgio A Cremano,STS,Campania,,,,Italy,,,JML424
Centro Vaccinale S.M. Di Castellabate-Ds70,STS,Campania,,,,Italy,,,GHW344
Centro Vaccinale S.Maria La Carita',STS,Campania,,,,Italy,,,STV303
Centro Vaccinale S.Paolo Bel Sito,STS,Campania,,,,Italy,,,CVT546
Centro Vaccinale San Valentino Torio- Ds62,STS,Campania,,,,Italy,,,GBO356
Centro Vaccinale Sant' Anastasia,STS,Campania,,,,Italy,,,DUZ358
Centro Vaccinale Sant'Angelo Dei Lombardi,STS,Campania,,,,Italy,,,TGJ226
Centro Vaccinale Sant'Antimo,STS,Campania,,,,Italy,,,JAI528
Centro Vaccinale Solofra,STS,Campania,,,,Italy,,,TUL510
Centro Vaccinale Somma Vesuviana,STS,Campania,,,,Italy,,,WBQ679
Centro Vaccinale Terzigno,STS,Campania,,,,Italy,,,YZV458
Centro Vaccinale Torre Del Greco,STS,Campania,,,,Italy,,,NHV972
Centro Vaccinale Vallata,STS,Campania,,,,Italy,,,WQV350
Centro Vaccinale Villaricca,STS,Campania,,,,Italy,,,VBU583
Centro Vaccinale_Vietri S/M - Ds63,STS,Campania,,,,Italy,,,KKN417
Centro Vaccinale-Matierno-Ds66,STS,Campania,,,,Italy,,,PVL839
Centro Villa Fraticelli,RIA,Campania,,,,Italy,,,DDJ274
Cinetic,RIA,Campania,,,,Italy,,,QFI385
Civitas Srl,RIA,Campania,,,,Italy,,,XQQ993
Cmr S.P.A.,RIA,Campania,,,,Italy,,,RBD185
Congr. Picc. Apostole Redenz.,RIA,Campania,,,,Italy,,,DXG716
Covid Vaccine Center,STS,Campania,,,,Italy,,,JUE187
Crs C.Riabilit Sanitaria Spa,RIA,Campania,,,,Italy,,,AIF696
Csa Tre Torri Di G.Salzano Sas,RIA,Campania,,,,Italy,,,AWJ269
Dhc-Day H Cavour,RIA,Campania,,,,Italy,,,ZPX307
Diarad Snc,RIA,Campania,,,,Italy,,,BGA418
Dimensione Azzurra Srl,RIA,Campania,,,,Italy,,,JPX292
Dinastar Srl,RIA,Campania,,,,Italy,,,YPE709
Femas Centro Riabilitazione,RIA,Campania,,,,Italy,,,FPC829
Fkt Fisiot  Riabilitazione Srl,RIA,Campania,,,,Italy,,,HUK888
Fond.F.Gambardella - Onlus-,RIA,Campania,,,,Italy,,,FIS771
Fond.F.Gambardella - Onlus -Sa,RIA,Campania,,,,Italy,,,OIC641
Fond.F.Gambardella-Onlus,RIA,Campania,,,,Italy,,,PKA775
Fondaz F.Gambardella Nocera In,RIA,Campania,,,,Italy,,,SMF141
Fondazione Don Carlo Gnocchi,RIA,Campania,,,,Italy,,,XBZ539
Fondazione Istituto Antoniano,RIA,Campania,,,,Italy,,,FTK559
Gabinetto Fisiot.Te.Ri,RIA,Campania,,,,Italy,,,KML334
Gerovit S.R.L.,RIA,Campania,,,,Italy,,,KGC297
Giffas Ente Morale Onlus,RIA,Campania,,,,Italy,,,PFV601
Gifoa Srl,RIA,Campania,,,,Italy,,,FUB416
I.Fl.Han.   S.R.L.,RIA,Campania,,,,Italy,,,SOP905
I.R.F.R.I.,RIA,Campania,,,,Italy,,,ZZM298
I.R.M.I    S.R.L.,RIA,Campania,,,,Italy,,,YFZ796
Insieme S.R.L.,RIA,Campania,,,,Italy,,,VSW637
Ipar Srl,RIA,Campania,,,,Italy,,,IQB650
Iprha Di Pazzanese,RIA,Campania,,,,Italy,,,CNQ490
Istituto Antoniano,RIA,Campania,,,,Italy,,,QGD686
Istituto Filippo Smaldone,RIA,Campania,,,,Italy,,,XEG418
Istituto Iuventus Srl,RIA,Campania,,,,Italy,,,ZEG324
Istituto Jean Piaget Srl,RIA,Campania,,,,Italy,,,AXW476
Istituto Juventus Srl,RIA,Campania,,,,Italy,,,IIJ711
Istituto M.S.S. Annunziata,RIA,Campania,,,,Italy,,,IPL259
L`Incontro Centro Di Fisiokine,RIA,Campania,,,,Italy,,,YNQ351
L`Oasi -Res Di Riab.Motoria,RIA,Campania,,,,Italy,,,AMF876
La  Rinascita,RIA,Campania,,,,Italy,,,VPG916
La Pinetina G.A.F.,RIA,Campania,,,,Italy,,,LKK883
Linea Medica Srl,RIA,Campania,,,,Italy,,,FZB928
Madre Claudia Soc Coop A R.L,RIA,Campania,,,,Italy,,,WQS696
Me.Di.Ca. Sud Srl,RIA,Campania,,,,Italy,,,LUY181
Medh Center Srl,RIA,Campania,,,,Italy,,,RTF795
Medical Center S.R.L.,RIA,Campania,,,,Italy,,,AXP969
Medical R. S.R.L.,RIA,Campania,,,,Italy,,,MDV342
Neapolisanit  S.R.L.,RIA,Campania,,,,Italy,,,WAR727
Nuovo Centro Fkt Srl,RIA,Campania,,,,Italy,,,WTQ855
Opera Giovanile Juventus,RIA,Campania,,,,Italy,,,VBT209
Ortokinesis,RIA,Campania,,,,Italy,,,NKA971
Piccolo Cottolengo Don Orione,RIA,Campania,,,,Italy,,,GKK824
Pres  Riab Diocleziano Srl,RIA,Campania,,,,Italy,,,PEG390
Prov.Rel. Ss.Ap.Pietro E Paolo,RIA,Campania,,,,Italy,,,PHE450
Punto Vaccinale Cetara -Ds63,STS,Campania,,,,Italy,,,KOV982
Punto Vaccinale Oliveto Citra-Ds64,STS,Campania,,,,Italy,,,LDR540
Punto Vaccinale-Caggiano-Ds72,STS,Campania,,,,Italy,,,DRX781
Relax S.P.A.,RIA,Campania,,,,Italy,,,ZAT232
Riabilitazione Pompeiana,RIA,Campania,,,,Italy,,,UQT946
Salus   S.R.L.,RIA,Campania,,,,Italy,,,MDI556
Sanatrix Nuovo Elaion,RIA,Campania,,,,Italy,,,SHC777
Serapide - Monte Di Procida,RIA,Campania,,,,Italy,,,WXG785
Serapide - Mugnano,RIA,Campania,,,,Italy,,,HRH386
Serapide - Pozzuoli,RIA,Campania,,,,Italy,,,DSX619
Servizi Sanitari Srl,RIA,Campania,,,,Italy,,,UEW870
Silba Spa- Villa Silvia,RIA,Campania,,,,Italy,,,EYR331
Silba Spa-Villa Alba,RIA,Campania,,,,Italy,,,KBS203
Silenziosi Operai Della Croce,RIA,Campania,,,,Italy,,,CNT111
So.Ge.Sa.Srl,RIA,Campania,,,,Italy,,,IAX446
Stud Polid Persico Primi Srl,RIA,Campania,,,,Italy,,,UVE512
Studio Cieffemme,RIA,Campania,,,,Italy,,,CYD344
Studio Ter.Fis. Cdt G.De Masi,RIA,Campania,,,,Italy,,,FRK650
Teoreo,RIA,Campania,,,,Italy,,,EHE613
Therapic Center Srl,RIA,Campania,,,,Italy,,,VTK785
Villa Dei Cedri S.R.L.,RIA,Campania,,,,Italy,,,ZGJ997
Villa Dei Fiori,RIA,Campania,,,,Italy,,,ZDQ280
Villa Dei Fiori Ex Gieffe Srl,RIA,Campania,,,,Italy,,,TUO276
Villa Delle Ginestre  S.R.L.,RIA,Campania,,,,Italy,,,WKI670
Amb. Vacc. Covid Calderara Di Reno Via Armaroli (Hub Az. Bonfiglioli),STS,Emilia-Romagna,,,,Italy,,,OVE653
Amb. Vaccinale Ausl Bologna C/O Ior Bologna,STS,Emilia-Romagna,,,,Italy,,,SIX300
Amb. Vaccinale Covid Anzola Via F. Santi (Hub Le Notti Di Cabiria),STS,Emilia-Romagna,,,,Italy,,,IOJ435
Amb. Vaccinale Covid Argelato Via Centese,STS,Emilia-Romagna,,,,Italy,,,ZIN711
Amb. Vaccinale Covid Bologna (Unibo) Via San Donato,STS,Emilia-Romagna,,,,Italy,,,RQJ562
Amb. Vaccinale Covid Bologna Autostazione Piazza Xx Settembre,STS,Emilia-Romagna,,,,Italy,,,PDA217
Amb. Vaccinale Covid Bologna Roncati Via S Isaia,STS,Emilia-Romagna,,,,Italy,,,NGQ628
Amb. Vaccinale Covid Budrio La Magnolia Via Bianchi,STS,Emilia-Romagna,,,,Italy,,,UGV814
Amb. Vaccinale Covid Budrio Piazzale Gioventu',STS,Emilia-Romagna,,,,Italy,,,OVN922
Amb. Vaccinale Covid Calderara Di R. Via Garibaldi,STS,Emilia-Romagna,,,,Italy,,,DGO199
Amb. Vaccinale Covid Camugnano Piazza Kennedy,STS,Emilia-Romagna,,,,Italy,,,DBG739
Amb. Vaccinale Covid Casalecchio Di Reno Via Gino Cervi,STS,Emilia-Romagna,,,,Italy,,,LPW205
Amb. Vaccinale Covid Casalecchio Parco Rodari,STS,Emilia-Romagna,,,,Italy,,,SJF259
Amb. Vaccinale Covid Casalecchio Via Porrettana,STS,Emilia-Romagna,,,,Italy,,,JJE368
Amb. Vaccinale Covid Castel D'Aiano Sede Cri Via Val D'Aneva,STS,Emilia-Romagna,,,,Italy,,,TIW262
Amb. Vaccinale Covid Castel Di Casio Via Torre Nuova,STS,Emilia-Romagna,,,,Italy,,,JWJ599
Amb. Vaccinale Covid Castel Maggiore Sala Pp Pasolini Piazza Amendola,STS,Emilia-Romagna,,,,Italy,,,APC277
Amb. Vaccinale Covid Castello D'Argile Via Del Mincio,STS,Emilia-Romagna,,,,Italy,,,CUX480
Amb. Vaccinale Covid Castenaso Cs Airone Via Marconi,STS,Emilia-Romagna,,,,Italy,,,QOE968
Amb. Vaccinale Covid Castiglione Dei Pepoli Piazza Mercato,STS,Emilia-Romagna,,,,Italy,,,CFU599
Amb. Vaccinale Covid Crevalcore Viale Italia,STS,Emilia-Romagna,,,,Italy,,,QEA380
Amb. Vaccinale Covid Gaggio Montano Sede Cri Via Cavalieri Di V. Veneto,STS,Emilia-Romagna,,,,Italy,,,LUX791
Amb. Vaccinale Covid Gaggio Montano Via Giovanni Xxiii,STS,Emilia-Romagna,,,,Italy,,,JCD320
Amb. Vaccinale Covid Galliera Via Della Pace,STS,Emilia-Romagna,,,,Italy,,,HEO316
Amb. Vaccinale Covid Grizzana M. Loc. Le Casiline,STS,Emilia-Romagna,,,,Italy,,,ZIG129
Amb. Vaccinale Covid Lizzano In B. Sede Cri Via Azzali,STS,Emilia-Romagna,,,,Italy,,,ELL137
Amb. Vaccinale Covid Minerbio Via Roma,STS,Emilia-Romagna,,,,Italy,,,WJD193
Amb. Vaccinale Covid Monte S Pietro Via Gullini,STS,Emilia-Romagna,,,,Italy,,,COU752
Amb. Vaccinale Covid Monzuno Ex Scuole Via Val Di Sambro,STS,Emilia-Romagna,,,,Italy,,,PVA864
Amb. Vaccinale Covid Pianoro Via Resistenza,STS,Emilia-Romagna,,,,Italy,,,VIE567
Amb. Vaccinale Covid S Agata B. Via Sibirani,STS,Emilia-Romagna,,,,Italy,,,KPD296
Amb. Vaccinale Covid S Benedetto Val Di Sambro Via Resistenza,STS,Emilia-Romagna,,,,Italy,,,XYD248
Amb. Vaccinale Covid S Giovanni In P. Via Newton,STS,Emilia-Romagna,,,,Italy,,,DNV270
Amb. Vaccinale Covid S. Giorgio Di P. Via Pirotti,STS,Emilia-Romagna,,,,Italy,,,QEP445
Amb. Vaccinale Covid Sala Bolognese Padulle Via Marconi,STS,Emilia-Romagna,,,,Italy,,,WZW637
Amb. Vaccinale Covid San Lazzaro Di S. Via Della Repubblica,STS,Emilia-Romagna,,,,Italy,,,PCH565
Amb. Vaccinale Covid Sasso Marconi Via Bertacchi,STS,Emilia-Romagna,,,,Italy,,,CET671
Amb. Vaccinale Covid Sg In Persiceto Sm Della Decima Via Cento,STS,Emilia-Romagna,,,,Italy,,,NTB606
Amb. Vaccinale Covid Sl Di Savena Officine Via Emilia 253,STS,Emilia-Romagna,,,,Italy,,,SSC950
Amb. Vaccinale Covid Sp In Casale Via Conta,STS,Emilia-Romagna,,,,Italy,,,LGL984
Amb. Vaccinale Covid Sp In Casale Via Galliera,STS,Emilia-Romagna,,,,Italy,,,QXA857
Amb. Vaccinale Covid Tole' Via Basabue,STS,Emilia-Romagna,,,,Italy,,,MJR498
Amb. Vaccinale Covid Vado Via Crisalidi,STS,Emilia-Romagna,,,,Italy,,,EQJ987
Amb. Vaccinale Covid Valsamoggia Viale Martiri,STS,Emilia-Romagna,,,,Italy,,,AOS574
Amb. Vaccinale Fiera Di Bologna Padiglione Polivalente,STS,Emilia-Romagna,,,,Italy,,,DQS660
Centro Vaccinale Covid Cmp,STS,Emilia-Romagna,,,,Italy,,,FCY176
Centro Vaccinale Covid Esp,STS,Emilia-Romagna,,,,Italy,,,MGX578
Centro Vaccinale Di Bomporto,STS,Emilia-Romagna,,,,Italy,,,KHW973
Centro Vaccinale Di Carpi,STS,Emilia-Romagna,,,,Italy,,,PYO953
Centro Vaccinale Di Castelfranco Emilia Presso Palasport,STS,Emilia-Romagna,,,,Italy,,,YVU774
Centro Vaccinale Di Fanano,STS,Emilia-Romagna,,,,Italy,,,USQ275
Centro Vaccinale Di Mirandola Presso Centro Prelievi,STS,Emilia-Romagna,,,,Italy,,,UHR396
Centro Vaccinale Di Mirandola Presso Comune,STS,Emilia-Romagna,,,,Italy,,,QMV444
Centro Vaccinale Di Modena Presso Hangar 3 Caserma Setti,STS,Emilia-Romagna,,,,Italy,,,LWD437
Centro Vaccinale Di Montefiorino,STS,Emilia-Romagna,,,,Italy,,,KJA501
Centro Vaccinale Di Montese,STS,Emilia-Romagna,,,,Italy,,,ALD111
Centro Vaccinale Di Palagano,STS,Emilia-Romagna,,,,Italy,,,NPI930
Centro Vaccinale Di Pavullo Presso Centro La Campanella,STS,Emilia-Romagna,,,,Italy,,,ZIF106
Centro Vaccinale Di Polinago,STS,Emilia-Romagna,,,,Italy,,,PJA889
Centro Vaccinale Di Prignano Sulla Secchia,STS,Emilia-Romagna,,,,Italy,,,HME368
Centro Vaccinale Di San Felice Sul Panaro Presso Comune,STS,Emilia-Romagna,,,,Italy,,,JLA433
Centro Vaccinale Di Sassuolo Presso Ferrari Spa,STS,Emilia-Romagna,,,,Italy,,,YIU974
Centro Vaccinale Di Vignola Presso Oratorio  Chiesa Parrocchiale Di Brodano,STS,Emilia-Romagna,,,,Italy,,,RGM586
Centro Vaccinale Di Zocca,STS,Emilia-Romagna,,,,Italy,,,GHV755
Centro Vaccinale Fiumalbo,STS,Emilia-Romagna,,,,Italy,,,MHF516
Centro Vaccinale Provinciale Rimini,STS,Emilia-Romagna,,,,Italy,,,CVI632
Covid Vaccinazione Anti Covid - Centro Sociale Torre Del Primaro Argenta,STS,Emilia-Romagna,,,,Italy,,,RXP563
Covid Vaccinazione Anti Covid - Centro Vaccinale Cento,STS,Emilia-Romagna,,,,Italy,,,QQD948
Covid Vaccinazione Anti Covid - Cittadella Dello Sport Di Comacchio,STS,Emilia-Romagna,,,,Italy,,,XDX400
Covid Vaccinazione Anti Covid - Fiera Congressi Di Ferrara,STS,Emilia-Romagna,,,,Italy,,,UNN823
Covid Vaccinazione Anti Covid - Palazzetto Centro Studi Di Codigoro,STS,Emilia-Romagna,,,,Italy,,,IZM730
Covid Vaccinazione Anti Covid Sede Prov - Fiera,STS,Emilia-Romagna,,,,Italy,,,WDK272
Covid Vaccinazione Anti Covid Sede Prov - Fiera Di Cesena,STS,Emilia-Romagna,,,,Italy,,,JYN196
Covid Vaccinazione Anti Covid Sede Prov - Fiera Forli',STS,Emilia-Romagna,,,,Italy,,,EIH610
Covid Vaccinazione Anti Covid Sede Prov - Pala De Andre,STS,Emilia-Romagna,,,,Italy,,,QWR760
Fondazione Don Carlo Gnocchi,RIA,Emilia-Romagna,,,,Italy,,,GYW275
Hub Bonfiglioli Vacc.Covid 19,STS,Emilia-Romagna,,,,Italy,,,XPM446
Hub Ima Vacc.Covid 19,STS,Emilia-Romagna,,,,Italy,,,BGB530
Hub Unisalute Vacc.Covid 19,STS,Emilia-Romagna,,,,Italy,,,BXP816
Igiene Pubblica Borgo Val Di Taro,STS,Emilia-Romagna,,,,Italy,,,VPJ756
Igiene Pubblica Borgo Val Di Taro Distaccato Vaccinazioni,STS,Emilia-Romagna,,,,Italy,,,IMN672
Igiene Pubblica Fidenza,STS,Emilia-Romagna,,,,Italy,,,ZBE374
Igiene Pubblica Langhirano,STS,Emilia-Romagna,,,,Italy,,,EIB422
Igiene Pubblica Parma,STS,Emilia-Romagna,,,,Italy,,,HEH886
Inail-Centro Di Vigorso,RIA,Emilia-Romagna,,,,Italy,,,TZO684
Luce Sul Mare,RIA,Emilia-Romagna,,,,Italy,,,ZOD838
Punto Adi Vaccinazione Anti Covid 19 - Casa Della Salute Di Cspt,STS,Emilia-Romagna,,,,Italy,,,TZQ900
Punto Adi Vaccinazione Anti Covid 19 - Casa Della Salute Di Medicina,STS,Emilia-Romagna,,,,Italy,,,BQD477
Punto Adi Vaccinazione Anti Covid 19 - Casa Della Salute Vallata Del Santerno,STS,Emilia-Romagna,,,,Italy,,,KBU929
"Punto Adi Vaccinazione Anti Covid 19 - Teatro ""L. Lolli""",STS,Emilia-Romagna,,,,Italy,,,NSY207
Punto Unico Provinciale Vaccinale Anti Sars-Cov-2,STS,Emilia-Romagna,,,,Italy,,,BPC586
Punto Vaccinale Ambulatorio Ospedale Carpi,STS,Emilia-Romagna,,,,Italy,,,PZX666
Punto Vaccinale Ambulatorio Presso Ospedale Vignola,STS,Emilia-Romagna,,,,Italy,,,YEB297
Punto Vaccinale Anticovid C/O Ospedale Forli',STS,Emilia-Romagna,,,,Italy,,,DSE735
Punto Vaccinale Anticovid Temporaneo - Alfonsine,STS,Emilia-Romagna,,,,Italy,,,VWN648
Punto Vaccinale Anticovid Temporaneo - Bagno Di Romagna,STS,Emilia-Romagna,,,,Italy,,,QOR465
Punto Vaccinale Anticovid Temporaneo - Bellaria-Igea Marina,STS,Emilia-Romagna,,,,Italy,,,PIH592
Punto Vaccinale Anticovid Temporaneo - Casola Valsenio,STS,Emilia-Romagna,,,,Italy,,,WSZ918
Punto Vaccinale Anticovid Temporaneo - Castelbolognese,STS,Emilia-Romagna,,,,Italy,,,PMO114
Punto Vaccinale Anticovid Temporaneo - Cattolica,STS,Emilia-Romagna,,,,Italy,,,FMK894
Punto Vaccinale Anticovid Temporaneo - Cervia,STS,Emilia-Romagna,,,,Italy,,,KLT282
Punto Vaccinale Anticovid Temporaneo - Cesenatico,STS,Emilia-Romagna,,,,Italy,,,IWB923
Punto Vaccinale Anticovid Temporaneo - Conselice,STS,Emilia-Romagna,,,,Italy,,,GJO530
Punto Vaccinale Anticovid Temporaneo - Faenza Fiera,STS,Emilia-Romagna,,,,Italy,,,CGF621
Punto Vaccinale Anticovid Temporaneo - Forli' Via Colombo,STS,Emilia-Romagna,,,,Italy,,,MGD424
Punto Vaccinale Anticovid Temporaneo - Lugo,STS,Emilia-Romagna,,,,Italy,,,YEG382
Punto Vaccinale Anticovid Temporaneo - Massa Lombarda,STS,Emilia-Romagna,,,,Italy,,,QEO315
Punto Vaccinale Anticovid Temporaneo - Mercato Saraceno,STS,Emilia-Romagna,,,,Italy,,,UET415
Punto Vaccinale Anticovid Temporaneo - Modigliana,STS,Emilia-Romagna,,,,Italy,,,VDK449
Punto Vaccinale Anticovid Temporaneo - Morciano Di Romagna,STS,Emilia-Romagna,,,,Italy,,,UHB264
Punto Vaccinale Anticovid Temporaneo - Novafeltria,STS,Emilia-Romagna,,,,Italy,,,RGM123
Punto Vaccinale Anticovid Temporaneo - Poggio Torriana,STS,Emilia-Romagna,,,,Italy,,,AVC912
Punto Vaccinale Anticovid Temporaneo - Predappio,STS,Emilia-Romagna,,,,Italy,,,SII578
Punto Vaccinale Anticovid Temporaneo - Riccione,STS,Emilia-Romagna,,,,Italy,,,AYP816
Punto Vaccinale Anticovid Temporaneo - Rocca San Casciano,STS,Emilia-Romagna,,,,Italy,,,CKG891
Punto Vaccinale Anticovid Temporaneo - Russi,STS,Emilia-Romagna,,,,Italy,,,UMF351
Punto Vaccinale Anticovid Temporaneo - Santa Sofia,STS,Emilia-Romagna,,,,Italy,,,IFV159
Punto Vaccinale Anticovid Temporaneo - Savignano,STS,Emilia-Romagna,,,,Italy,,,TNA315
Punto Vaccinale Anticovid Temporaneo - Spv Ravenna,STS,Emilia-Romagna,,,,Italy,,,DOS913
Punto Vaccinale Anticovid Temporaneo Clinica Mobile Ravenna,STS,Emilia-Romagna,,,,Italy,,,LTU423
Punto Vaccinale Anticovid Temporaneo Clinica Mobile Rimini,STS,Emilia-Romagna,,,,Italy,,,HAN111
Punto Vaccinale Bobbio,STS,Emilia-Romagna,,,,Italy,,,LNV405
Punto Vaccinale Fiorenzuola D'Arda,STS,Emilia-Romagna,,,,Italy,,,GMS859
Punto Vaccinale Palacastello,STS,Emilia-Romagna,,,,Italy,,,TPC187
Punto Vaccinale Parma - Gazzetta Di Parma,STS,Emilia-Romagna,,,,Italy,,,ARE514
Punto Vaccinale Parma - Hub Aziendale,STS,Emilia-Romagna,,,,Italy,,,NXJ296
Punto Vaccinale Parma - Pala Ponti,STS,Emilia-Romagna,,,,Italy,,,BQP707
Punto Vaccinale Parma - Via Quasimodo,STS,Emilia-Romagna,,,,Italy,,,MUN928
Punto Vaccinale Polivalente,STS,Emilia-Romagna,,,,Italy,,,CRK146
Punto Vaccinale Presso Ambulatorio Azienda Ospedaliera Modena,STS,Emilia-Romagna,,,,Italy,,,VTT293
Punto Vaccinale Presso Ambulatorio Ospedale Baggiovara,STS,Emilia-Romagna,,,,Italy,,,ADV660
Punto Vaccinale Presso Ambulatorio Ospedale Di Comunita Castelfranco Emilia,STS,Emilia-Romagna,,,,Italy,,,ARH997
Punto Vaccinale Presso Ambulatorio Ospedale Mirandola,STS,Emilia-Romagna,,,,Italy,,,FXL642
Punto Vaccinale Presso Ambulatorio Ospedale Pavullo,STS,Emilia-Romagna,,,,Italy,,,MTQ464
Punto Vaccinale Presso Ambulatorio Ospedale Sassuolo,STS,Emilia-Romagna,,,,Italy,,,TLS642
Punto Vaccinale Presso Ambulatorio Protetto Ospedale Baggiovara,STS,Emilia-Romagna,,,,Italy,,,CSK251
Punto Vaccinale Presso Azienda Ospedaliera Policlinico,STS,Emilia-Romagna,,,,Italy,,,ANO160
Punto Vaccinale Presso Centro Antidiabetico Di Carpi,STS,Emilia-Romagna,,,,Italy,,,ZJG683
Punto Vaccinale Presso Centro Antidiabetico Di Castelfranco Emilia,STS,Emilia-Romagna,,,,Italy,,,BIS381
Punto Vaccinale Presso Centro Antidiabetico Di Mirandola,STS,Emilia-Romagna,,,,Italy,,,QUV752
Punto Vaccinale Presso Centro Antidiabetico Di Modena,STS,Emilia-Romagna,,,,Italy,,,STN943
Punto Vaccinale Presso Centro Antidiabetico Di Pavullo,STS,Emilia-Romagna,,,,Italy,,,ZLZ610
Punto Vaccinale Presso Centro Antidiabetico Di Sassuolo,STS,Emilia-Romagna,,,,Italy,,,RHU384
Punto Vaccinale Presso Centro Antidiabetico Di Vignola,STS,Emilia-Romagna,,,,Italy,,,ZAW453
Punto Vaccinale Presso Dialisi Casa Della Salute Di Castelfranco Emilia,STS,Emilia-Romagna,,,,Italy,,,VHZ925
Punto Vaccinale Presso Dialisi Ospedale Di Carpi,STS,Emilia-Romagna,,,,Italy,,,QPU370
Punto Vaccinale Presso Dialisi Ospedale Di Mirandola,STS,Emilia-Romagna,,,,Italy,,,IOJ349
Punto Vaccinale Presso Dialisi Ospedale Di Pavullo,STS,Emilia-Romagna,,,,Italy,,,MJZ154
Punto Vaccinale Presso Dialisi Ospedale Di Vignola,STS,Emilia-Romagna,,,,Italy,,,SQL794
Punto Vaccinale Territoriale - Alta Val Nure,STS,Emilia-Romagna,,,,Italy,,,GEB697
Punto Vaccinale Territoriale - Levante,STS,Emilia-Romagna,,,,Italy,,,KFC427
Punto Vaccinale Territoriale Arsenale,STS,Emilia-Romagna,,,,Italy,,,BFQ486
Punto Vaccinale Territoriale Piacenza Expo,STS,Emilia-Romagna,,,,Italy,,,ZAU802
Punto Vaccinazione Anti Covid 19 - Auditorium Ex Chiesa Osservanza,STS,Emilia-Romagna,,,,Italy,,,NSN932
Servizio Profilassi Malattie Infettive,STS,Emilia-Romagna,,,,Italy,,,NXB913
Vaccinazione Covid - Ambulatorio Percorso Protetto  - Reggio Emilia,STS,Emilia-Romagna,,,,Italy,,,YUQ780
Vaccinazione Covid - Ex Ospedale Lazzaro Spallanzani,STS,Emilia-Romagna,,,,Italy,,,LJM832
Vaccinazione Covid C/O Distretto Di Correggio,STS,Emilia-Romagna,,,,Italy,,,JEI251
Vaccinazione Covid C/O Fiera Di Scandiano,STS,Emilia-Romagna,,,,Italy,,,TWY771
Vaccinazione Covid C/O Ospedale Di Castelnovo Ne' Monti,STS,Emilia-Romagna,,,,Italy,,,MIA318
Vaccinazione Covid C/O Ospedale Di Guastalla,STS,Emilia-Romagna,,,,Italy,,,VDI141
Vaccinazione Covid C/O Ospedale Di Montecchio,STS,Emilia-Romagna,,,,Italy,,,NFJ466
Vaccinazioni Covid Fiera Cup,STS,Emilia-Romagna,,,,Italy,,,JST820
Villa Salus,RIA,Emilia-Romagna,,,,Italy,,,JMX583
Associaz. 'La Nostra Famiglia',RIA,Friuli-Venezia Giulia,,,,Italy,,,DUE789
Bambini E Autismo,RIA,Friuli-Venezia Giulia,,,,Italy,,,PIA108
Centro Progetto Spilimbergo,RIA,Friuli-Venezia Giulia,,,,Italy,,,GMR257
Centro Vaccinale Anti Covid 19  Gorizia Fiera,STS,Friuli-Venezia Giulia,,,,Italy,,,SBM645
Centro Vaccinale Anti Covid 19 Burlo,STS,Friuli-Venezia Giulia,,,,Italy,,,HQJ467
Centro Vaccinale Anti Covid 19 Centro Anziani Monfalcone,STS,Friuli-Venezia Giulia,,,,Italy,,,PMH759
Centro Vaccinale Anti Covid 19 Dip Prevenzione Gorizia,STS,Friuli-Venezia Giulia,,,,Italy,,,WUH752
Centro Vaccinale Anti Covid 19 Dip Prevenzione San Giovanni,STS,Friuli-Venezia Giulia,,,,Italy,,,VTR719
Centro Vaccinale Anti Covid 19 Molo Iv,STS,Friuli-Venezia Giulia,,,,Italy,,,IBY245
Centro Vaccinale Anti Covid 19 Palestra Comunale Aurisina,STS,Friuli-Venezia Giulia,,,,Italy,,,UID794
Centro Vaccinale Anti Covid 19 Palestra Comunale Muggia,STS,Friuli-Venezia Giulia,,,,Italy,,,QTR307
Centro Vaccinale Anti Covid 19 Porto Franco Trieste,STS,Friuli-Venezia Giulia,,,,Italy,,,ALB392
Centro Vaccinale Anti Covid 19 Ronchi Dei Legionari,STS,Friuli-Venezia Giulia,,,,Italy,,,BIN718
Centro Vaccinale Di Maniago - Ex Ipsia,STS,Friuli-Venezia Giulia,,,,Italy,,,LQR231
Cittadella Della Salute,STS,Friuli-Venezia Giulia,,,,Italy,,,BTM538
Comunita' Di Rinascita,RIA,Friuli-Venezia Giulia,,,,Italy,,,ZUE268
Comunita' Piergiorgio - Onlus,RIA,Friuli-Venezia Giulia,,,,Italy,,,RBH578
Eutonia Sanità E Salute,RIA,Friuli-Venezia Giulia,,,,Italy,,,IWR199
Friuli Riabilitazione S.R.L.,RIA,Friuli-Venezia Giulia,,,,Italy,,,HAM423
Ist.Med.Pedag.'S.Maria Colli',RIA,Friuli-Venezia Giulia,,,,Italy,,,UZQ620
La Nostra Famiglia,RIA,Friuli-Venezia Giulia,,,,Italy,,,DYU754
Ospizio Marino Di Grado,RIA,Friuli-Venezia Giulia,,,,Italy,,,RGD292
Punto Vaccinale C/O  Residenza Polifunzionale Di Campeglio,STS,Friuli-Venezia Giulia,,,,Italy,,,HER796
Punto Vaccinale C/O Casa Di Accoglienza Del Clero,STS,Friuli-Venezia Giulia,,,,Italy,,,GFH439
Punto Vaccinale C/O Comunità Alloggio Associazione Anziani,STS,Friuli-Venezia Giulia,,,,Italy,,,NJM427
Punto Vaccinale C/O Comunità Alloggio Di Attimis,STS,Friuli-Venezia Giulia,,,,Italy,,,WVM712
Punto Vaccinale C/O Comunità Alloggio Di Lusevera  - Villanova 110,STS,Friuli-Venezia Giulia,,,,Italy,,,UKD826
Punto Vaccinale C/O Comunità Alloggio Di Lusevera - Pradielis 11 E 11/A,STS,Friuli-Venezia Giulia,,,,Italy,,,QFF141
Punto Vaccinale C/O I Faggi,STS,Friuli-Venezia Giulia,,,,Italy,,,BAD391
Punto Vaccinale C/O La Villa Rosa,STS,Friuli-Venezia Giulia,,,,Italy,,,PRK441
Punto Vaccinale C/O Santa Maria Degli Angeli,STS,Friuli-Venezia Giulia,,,,Italy,,,LTG799
Punto Vaccinale C/O Zaffiro Di Rivignano,STS,Friuli-Venezia Giulia,,,,Italy,,,MUT971
Punto Vaccinale Covid Cap Mortegliano,STS,Friuli-Venezia Giulia,,,,Italy,,,ORJ299
Punto Vaccinale Covid Cap Zugliano,STS,Friuli-Venezia Giulia,,,,Italy,,,ERV269
Punto Vaccinale Covid Centro Comm.Le Le Manifatture Gemona,STS,Friuli-Venezia Giulia,,,,Italy,,,EFL861
Punto Vaccinale Covid Cividale Palazzetto Dello Sport,STS,Friuli-Venezia Giulia,,,,Italy,,,YGQ488
Punto Vaccinale Covid Codroipo Tensostruttura,STS,Friuli-Venezia Giulia,,,,Italy,,,ABO511
Punto Vaccinale Covid Ente Fiera Udine,STS,Friuli-Venezia Giulia,,,,Italy,,,AUP247
Punto Vaccinale Covid Latisana Palestra Scuola,STS,Friuli-Venezia Giulia,,,,Italy,,,DNY593
Punto Vaccinale Covid Manzano Palazzetto Dello Sport,STS,Friuli-Venezia Giulia,,,,Italy,,,PIS361
Punto Vaccinale Covid Modus Tennis Club Tarcento,STS,Friuli-Venezia Giulia,,,,Italy,,,VOW918
Punto Vaccinale Covid Palasport Latisanotta,STS,Friuli-Venezia Giulia,,,,Italy,,,OJC553
Punto Vaccinale Covid Palazzetto Dello Sport Tarvisio,STS,Friuli-Venezia Giulia,,,,Italy,,,MMJ816
Punto Vaccinale Covid Palestra Lignano Sabbiadoro,STS,Friuli-Venezia Giulia,,,,Italy,,,NZT201
Punto Vaccinale Covid Stadio Friuli,STS,Friuli-Venezia Giulia,,,,Italy,,,QGY538
Punto Vaccinale Covid Tolmezzo Palatennis,STS,Friuli-Venezia Giulia,,,,Italy,,,UGJ267
Punto Vaccinale Covid Universita' Di Udine - Polo Scientifico Dei Rizzi,STS,Friuli-Venezia Giulia,,,,Italy,,,LEF667
Punto Vaccinale Covid Villa Manin,STS,Friuli-Venezia Giulia,,,,Italy,,,OBX712
Studio Fis. Busetto & Ponte,RIA,Friuli-Venezia Giulia,,,,Italy,,,SMD571
Uildm Sezione Di Pordenone,RIA,Friuli-Venezia Giulia,,,,Italy,,,JTS269
' San Raffaele '  Cassino,RIA,Lazio,,,,Italy,,,AUB368
""" Centro Benessere Srl """,RIA,Lazio,,,,Italy,,,JHC652
A.I.R.R.I.,RIA,Lazio,,,,Italy,,,HDQ741
A.I.R.R.I. Bracciano,RIA,Lazio,,,,Italy,,,WAP938
A.L.M.,RIA,Lazio,,,,Italy,,,SOS702
A.L.M. - Carlo Lodi,RIA,Lazio,,,,Italy,,,JMG170
Adm - Gruppo Audiomedical Srl,RIA,Lazio,,,,Italy,,,VFC109
Airri Ciampino Srl,RIA,Lazio,,,,Italy,,,XIW725
Airri Clodio,RIA,Lazio,,,,Italy,,,AFU772
Airri Medical,RIA,Lazio,,,,Italy,,,HRS298
Alm Ass. Laziale Motulesi,RIA,Lazio,,,,Italy,,,BMM183
Anfas Roma Onlus,RIA,Lazio,,,,Italy,,,SEU209
Ar Sana 2,RIA,Lazio,,,,Italy,,,TXB217
Argos Centro Di Riabilitazione,RIA,Lazio,,,,Italy,,,IMN283
Ars Sana,RIA,Lazio,,,,Italy,,,ISO933
Ass. Istituto S. Cecilia,RIA,Lazio,,,,Italy,,,LZY395
Assoc. Ne Scuola Viva Onlus,RIA,Lazio,,,,Italy,,,LNB283
Assohandicap Art. 26,RIA,Lazio,,,,Italy,,,JND808
Buon Lavoro Piccoli,RIA,Lazio,,,,Italy,,,DEN780
C. C. Villa Sandra,RIA,Lazio,,,,Italy,,,REG631
C. Riab.Psicomotoria Padre Pio,RIA,Lazio,,,,Italy,,,FLA273
C.M.P.H.,RIA,Lazio,,,,Italy,,,ITQ441
C.M.P.H. - Via Livorno,RIA,Lazio,,,,Italy,,,MXM133
C.O.E.S Onlus,RIA,Lazio,,,,Italy,,,HDH533
C.R.C. Balbuzie,RIA,Lazio,,,,Italy,,,GLU821
Casa Di Cura Santa Rita Da Cas,RIA,Lazio,,,,Italy,,,DMS344
Casa Di Cura Villa Fulvia,RIA,Lazio,,,,Italy,,,GJD851
Casa Giocosa,RIA,Lazio,,,,Italy,,,ZDN782
Casa Loic,RIA,Lazio,,,,Italy,,,YQV665
'Casaletto' Anffas Roma Onlus,RIA,Lazio,,,,Italy,,,VRO311
Cen. Neuro. Arcobaleno,RIA,Lazio,,,,Italy,,,FZQ625
Centr Riabilitativo Ecass,RIA,Lazio,,,,Italy,,,YBE191
Centro 'A. Boggi',RIA,Lazio,,,,Italy,,,GKF695
Centro Adelphi,RIA,Lazio,,,,Italy,,,UVE712
Centro Amb Mondo Riabilitazion,RIA,Lazio,,,,Italy,,,YII719
Centro Amb.Le-Domic.Re Unisan,RIA,Lazio,,,,Italy,,,HLH866
Centro Ambulatoriale,RIA,Lazio,,,,Italy,,,LKL678
Centro Bambu',RIA,Lazio,,,,Italy,,,KNL922
Centro Di Audiofonologopedia,RIA,Lazio,,,,Italy,,,HAC572
Centro Di Riab.La Valle,RIA,Lazio,,,,Italy,,,RTC698
Centro Diagnostico Arce,RIA,Lazio,,,,Italy,,,YIJ224
Centro Educazione Motoria Cem,RIA,Lazio,,,,Italy,,,KBV241
Centro Educazione Motoria -Cem,RIA,Lazio,,,,Italy,,,JUR285
Centro Primula Abbvie Aprilia,STS,Lazio,,,,Italy,,,TMB992
Centro Primula Asl Roma 1 Termini,STS,Lazio,,,,Italy,,,JVY875
Centro Primula Asl Roma1 Comprensorio S.Maria Della Pieta' Padiglione 90,STS,Lazio,,,,Italy,,,HGX756
Centro Primula Centro Itaca,STS,Lazio,,,,Italy,,,DIG341
Centro Primula Latina Expo,STS,Lazio,,,,Italy,,,SIA524
Centro Regionale S.Alessio,RIA,Lazio,,,,Italy,,,FRN734
Centro Ria H Riabilitazione Sr,RIA,Lazio,,,,Italy,,,QSS825
Centro Riab. Poggio Mirteto,RIA,Lazio,,,,Italy,,,LGI946
Centro Riab. Santa Rosa,RIA,Lazio,,,,Italy,,,XAC127
Centro Riab.Ne S. Raffaele,RIA,Lazio,,,,Italy,,,TSD638
Centro Riabilitativo Ecass,RIA,Lazio,,,,Italy,,,PYB487
Centro Riabilitazione Al Parco,RIA,Lazio,,,,Italy,,,OGU291
Centro Riabilitazione Dahlia,RIA,Lazio,,,,Italy,,,QZN653
Centro S. M. Della Provvidenza,RIA,Lazio,,,,Italy,,,LQP218
Centro Sperimentale Per L'Auti,RIA,Lazio,,,,Italy,,,WJU975
Centro Tangram,RIA,Lazio,,,,Italy,,,ZSA242
"Centro Vaccinale ""La Vela"" Policlinico Tor Vergata",STS,Lazio,,,,Italy,,,VXQ541
Centro Vaccinale Anti-Covid19 Della Sabina Amazon,STS,Lazio,,,,Italy,,,OWE762
Centro Vaccinale Covid 19 Asl Roma 1 - 'Acea - Ostiense',STS,Lazio,,,,Italy,,,AVT897
Centro Vaccinale Covid 19 Asl Roma 1 - 'Porte Di Roma',STS,Lazio,,,,Italy,,,LUP157
Comunità Capodarco,RIA,Lazio,,,,Italy,,,YVB959
Comunita` Il Chicco,RIA,Lazio,,,,Italy,,,DKS727
Coop Esperanto,RIA,Lazio,,,,Italy,,,TYF793
Cooperativa C.A.R.,RIA,Lazio,,,,Italy,,,POB412
Crn  = Centro Riab. Neuromotor,RIA,Lazio,,,,Italy,,,SQC448
Didasco Coop. Sociale A.R.L.,RIA,Lazio,,,,Italy,,,SPH321
Don Orione - Centro Mutilatini,RIA,Lazio,,,,Italy,,,OSK308
Erre-D Srl Latina,RIA,Lazio,,,,Italy,,,ZCG989
Ex Bosi Centro Vac,STS,Lazio,,,,Italy,,,QVR146
Fondaz. Don Carlo Gnocchi,RIA,Lazio,,,,Italy,,,HBO397
Fondazione Piccolo Rifugio,RIA,Lazio,,,,Italy,,,AZW895
Fondazione Santa Lucia Irccs,RIA,Lazio,,,,Italy,,,DYJ552
Fondazione Uildm Lazio Onlus,RIA,Lazio,,,,Italy,,,WHA911
Fondaziozione Roma Litorale On,RIA,Lazio,,,,Italy,,,EXS983
Fuori Dal Tunnel,RIA,Lazio,,,,Italy,,,NST709
Giomi Rsa Laz- Centro Armonia,RIA,Lazio,,,,Italy,,,NZO891
Gli Annali,RIA,Lazio,,,,Italy,,,RQV783
Hub Vaccinale Comunita' Di Sant'Egidio,STS,Lazio,,,,Italy,,,VHS201
I.M.P.P.I.T.  Infanzia Tardiva,RIA,Lazio,,,,Italy,,,TPE849
Ini Divisione Villa Dante,RIA,Lazio,,,,Italy,,,AQE782
Ist Figlie S Maria Provvidenza,RIA,Lazio,,,,Italy,,,ADZ331
Ist.Med. Psico Ped.Sacro Cuore,RIA,Lazio,,,,Italy,,,KXC407
Istituto Calamatta,RIA,Lazio,,,,Italy,,,XND718
Istituto Di Ortofonologia,RIA,Lazio,,,,Italy,,,XFX920
Istituto Filippo Smaldone,RIA,Lazio,,,,Italy,,,HXU283
Istituto Leonarda Vaccari,RIA,Lazio,,,,Italy,,,TYO554
Istituto Pia Casa Ambrosini,RIA,Lazio,,,,Italy,,,YMX256
La Nostra Scuola,RIA,Lazio,,,,Italy,,,HKX668
Medical Spuri S.R.L.,RIA,Lazio,,,,Italy,,,OOT350
Mondo Riabilitazione Srl,RIA,Lazio,,,,Italy,,,BNW254
Nomentana Hospital Srl,RIA,Lazio,,,,Italy,,,UTU744
Opera Don Guanella,RIA,Lazio,,,,Italy,,,LIG852
Opera Sante De Sanctis,RIA,Lazio,,,,Italy,,,AMQ813
Opera Sante De Sanctis-Via Pol,RIA,Lazio,,,,Italy,,,DMT814
Parole In Movimento,RIA,Lazio,,,,Italy,,,GEE584
Pianeta Riabilitazione,RIA,Lazio,,,,Italy,,,MXN260
Poligest Casa Cura V. Querce,RIA,Lazio,,,,Italy,,,NHS771
Presidio Di Riabilitazione Osa,RIA,Lazio,,,,Italy,,,NGJ812
Presidio Di Via Dionisio,RIA,Lazio,,,,Italy,,,AMO257
Presidio Filippo Turati,RIA,Lazio,,,,Italy,,,XXW137
Progetto Amico,RIA,Lazio,,,,Italy,,,CRB337
Punto Di Somministrazione Vaccinale Presso Cinecitta' Studios,STS,Lazio,,,,Italy,,,ONY253
Punto Vaccini Anti Covid-19 Fiumicino,STS,Lazio,,,,Italy,,,UDI478
Raggio Di Sole,RIA,Lazio,,,,Italy,,,OCZ314
Rifi Srl,RIA,Lazio,,,,Italy,,,DRF748
S.Maria Del Prato,RIA,Lazio,,,,Italy,,,RLH389
Sa.Ni. Children S.R.L.,RIA,Lazio,,,,Italy,,,PIP854
San Giovanni Di Dio,RIA,Lazio,,,,Italy,,,BMF847
Soc. Coop. Sociale Nemo Onlus,RIA,Lazio,,,,Italy,,,QXE169
Strutt. Semi-Res. A. Boggi,RIA,Lazio,,,,Italy,,,MJT619
Studio Medico San Giorgio,RIA,Lazio,,,,Italy,,,RTB458
Te.Ri,RIA,Lazio,,,,Italy,,,UEF188
Vaclav Vojta,RIA,Lazio,,,,Italy,,,YXQ806
Villa Alba E Ist. Cure Fisiche,RIA,Lazio,,,,Italy,,,MHA642
Villa Alba Srl,RIA,Lazio,,,,Italy,,,MEA992
Villa Ardeatina Srl,RIA,Lazio,,,,Italy,,,FWZ227
Villa Buon Respiro,RIA,Lazio,,,,Italy,,,IDU671
Villa Immacolata,RIA,Lazio,,,,Italy,,,XJV161
Villa Santa Margherita,RIA,Lazio,,,,Italy,,,WEI792
Villaggio Eugenio Litta Art.26,RIA,Lazio,,,,Italy,,,BEM911
A.I.A.S. Villa Sanginetti,RIA,Liguria,,,,Italy,,,GCB509
A.N.F.F.As - Albenga,RIA,Liguria,,,,Italy,,,MVZ799
Albatros Srl  C. Giovanna D'A,RIA,Liguria,,,,Italy,,,ZJB517
Amb. Guardia Di Finanza Cavour,STS,Liguria,,,,Italy,,,SEH603
Ambulatorio Montebruno,STS,Liguria,,,,Italy,,,UNH502
Ambulatorio Presso Polizia Di Stato,STS,Liguria,,,,Italy,,,AZZ628
Ambulatorio Riab. Arcipelago,RIA,Liguria,,,,Italy,,,GIB155
Ambulatorio Vaccinale - Carcere Pontedecimo,STS,Liguria,,,,Italy,,,WRV424
Ambulatorio Vaccinale - Caserma Polizia Bolzaneto,STS,Liguria,,,,Italy,,,FLP937
Ambulatorio Vaccinale - Lilt (Lega Italiana Lotta Contro I Tumori),STS,Liguria,,,,Italy,,,WFY251
Ambulatorio Vaccinale - Pieve Ligure Alta,STS,Liguria,,,,Italy,,,FLQ347
Ambulatorio Vaccinale Covid Ceparana,STS,Liguria,,,,Italy,,,JXH467
Ambulatorio Vaccinale Covid Follo,STS,Liguria,,,,Italy,,,QFH665
Ambulatorio Vaccinale Covid La Spezia,STS,Liguria,,,,Italy,,,EQF711
Ambulatorio Vaccinale Presso Albergo Dei Poveri,STS,Liguria,,,,Italy,,,MYQ223
Ambulatorio Vaccinazioni Presso Villa Serena,STS,Liguria,,,,Italy,,,UZO237
Anffas - Pres. Parini,RIA,Liguria,,,,Italy,,,FRU232
Anffas - Pres. Rosa Gattorno,RIA,Liguria,,,,Italy,,,QNG200
Anffas - Presidio Cesino,RIA,Liguria,,,,Italy,,,CDT385
Anffas - Presidio Coronata,RIA,Liguria,,,,Italy,,,IHB595
Anffas - Presidio Falchetti,RIA,Liguria,,,,Italy,,,XYG762
Anffas - Presidio Pisacane,RIA,Liguria,,,,Italy,,,SRD217
Anffas - Villa Galletto,RIA,Liguria,,,,Italy,,,QYN933
Anffas -Dopo Di Noi-V. Cordano,RIA,Liguria,,,,Italy,,,ZOK526
Anffas Onlus Tigullio Ovest,RIA,Liguria,,,,Italy,,,JGM234
Asl1 - Distr.1 Bordighera Covid Mmg,STS,Liguria,,,,Italy,,,YFI528
Asl1 - Distr.2 Sanremese Covid Mmg,STS,Liguria,,,,Italy,,,QSB437
Asl1 - Distr.3 Imperiese Covid Mmg,STS,Liguria,,,,Italy,,,SHI339
Ass. Mai Soli Onlus,RIA,Liguria,,,,Italy,,,IAJ597
Ass.Tigullio Est Anffas,RIA,Liguria,,,,Italy,,,NKO253
Avis Comunale Ronco Scrivia,STS,Liguria,,,,Italy,,,XPF104
Badalucco - Centro Vaccinazione Covid,STS,Liguria,,,,Italy,,,OZR782
Bajardo - Centro Vaccinazione Covid,STS,Liguria,,,,Italy,,,KPR527
Boggiano Pico - Don Orione,RIA,Liguria,,,,Italy,,,YQD837
Bogliasco Croce Verde,STS,Liguria,,,,Italy,,,XMB360
C. Diurno Disab. V. Gramsci,RIA,Liguria,,,,Italy,,,OED854
C. Terapeutico Diurno Gaggiola,RIA,Liguria,,,,Italy,,,ZQD208
C.D. Il Girasole,RIA,Liguria,,,,Italy,,,SSN686
C.R. Vittoria Giorni - Covid,STS,Liguria,,,,Italy,,,XOR791
C.R.C.T.  Il Gabbiano-Segesta,RIA,Liguria,,,,Italy,,,XDW713
Camogli Croce Rossa Italiana,STS,Liguria,,,,Italy,,,CYN265
Camporosso - Centro Polivalente G.Falcone,STS,Liguria,,,,Italy,,,VTO808
Cares Onlus,RIA,Liguria,,,,Italy,,,TAE793
Casa Aperta Il Carpanedo,RIA,Liguria,,,,Italy,,,XUG162
Casa Del Santo Bambino - Resid,RIA,Liguria,,,,Italy,,,CFW477
Casa Del Santo Bambino-Semires,RIA,Liguria,,,,Italy,,,SCF117
Casa Della Salute - Multedo,STS,Liguria,,,,Italy,,,AQB523
Casa Della Salute - Sampierdarena Torre Msc,STS,Liguria,,,,Italy,,,LCK298
Casa Di Riposo San Giuseppe - Covid,STS,Liguria,,,,Italy,,,BLF837
Cd Riabilitativo Arcipelago,RIA,Liguria,,,,Italy,,,XJP811
Cd Riabilitativo Arcobaleno,RIA,Liguria,,,,Italy,,,GMR272
Centro A.I.A.S. Savona,RIA,Liguria,,,,Italy,,,TCW641
Centro Di Riabilitazione Srl,RIA,Liguria,,,,Italy,,,XMH123
Centro Redulco,RIA,Liguria,,,,Italy,,,ABC426
Centro Resid. Germana Costa,RIA,Liguria,,,,Italy,,,UVB251
Centro Residenz. La Magnolia,RIA,Liguria,,,,Italy,,,TTP653
Centro Riab. 'Luigi Stoppani',RIA,Liguria,,,,Italy,,,AZB641
Centro Riab. Res. L'Altalena,RIA,Liguria,,,,Italy,,,KDU256
Centro Riab. Uildm Genova,RIA,Liguria,,,,Italy,,,KGJ608
Centro Socio Sanit Sacro Cuore,RIA,Liguria,,,,Italy,,,NAN422
Centro Vaccinale,STS,Liguria,,,,Italy,,,VJG218
Centro Vaccinale Auditorium,STS,Liguria,,,,Italy,,,XER993
Centro Vaccinale Corso Dante,STS,Liguria,,,,Italy,,,KFB285
Centro Vaccinale Med. Penitenziaria,STS,Liguria,,,,Italy,,,ARC932
Centro Vaccinale Stelmilit,STS,Liguria,,,,Italy,,,RSP329
Centro Vaccinale Viale Dante,STS,Liguria,,,,Italy,,,VDA617
Cepim - Semiresidenziale,RIA,Liguria,,,,Italy,,,QHN306
Cepim - Volta,RIA,Liguria,,,,Italy,,,KQQ532
Cepim L'Appartamento Cent Down,RIA,Liguria,,,,Italy,,,JBZ790
Ceriana - Centro Vaccinazione Covid ,STS,Liguria,,,,Italy,,,BBK804
Chiossone-Car Minori Gli Alber,RIA,Liguria,,,,Italy,,,TND501
Chiusavecchia - Centro Vaccinazione Covid,STS,Liguria,,,,Italy,,,YAD902
Codess Sociale Vada Sabatia,RIA,Liguria,,,,Italy,,,IGE807
Comune Rovegno,STS,Liguria,,,,Italy,,,XLJ294
Consorzio Cociv - Stanza Vaccinale Per I Propri Dipendenti,STS,Liguria,,,,Italy,,,TUI239
Croce Verde Casella,STS,Liguria,,,,Italy,,,MHU284
Crsd Disabili (Ex Rep.Speciale,RIA,Liguria,,,,Italy,,,ISQ697
Diano Marina - Centro Vaccinazione Covid,STS,Liguria,,,,Italy,,,UVH649
Direzione Asl3 Liguria,STS,Liguria,,,,Italy,,,OKJ303
Distretto 1 - Vaccinazione Domiciliare Covid,STS,Liguria,,,,Italy,,,GOD548
Distretto 2 - Vaccinazione Domiciliare Covid,STS,Liguria,,,,Italy,,,LQW872
Distretto 3 - Vaccinazione Domiciliare Covid,STS,Liguria,,,,Italy,,,RLO510
Ex Ferriera Formento Rossiglione,STS,Liguria,,,,Italy,,,CSN432
Famiglia Moresco - Don Orione,RIA,Liguria,,,,Italy,,,HLU976
Fondazione Sacra Famiglia,RIA,Liguria,,,,Italy,,,PRR865
Gisal Cead Casa Marta,RIA,Liguria,,,,Italy,,,ONW544
Hitachi Rail Sts Genova Hub Vaccinale,STS,Liguria,,,,Italy,,,VNU418
Hub Sala Chiamata,STS,Liguria,,,,Italy,,,YXS682
Hub Vaccinale Amazon Italia,STS,Liguria,,,,Italy,,,HLK227
Hub Vaccinale Ansaldo Energia,STS,Liguria,,,,Italy,,,MSV811
Hub Vaccinale Iplom - Busalla,STS,Liguria,,,,Italy,,,GUZ363
Hub Vaccinale Teatro Della Gioventu',STS,Liguria,,,,Italy,,,FEL108
Il Faggio Carcare,RIA,Liguria,,,,Italy,,,FTM609
Il Faggio Coop Soc. Onlus,RIA,Liguria,,,,Italy,,,HEA741
Il Faggio Coop. Sociale,RIA,Liguria,,,,Italy,,,SPU183
Il Faggio Onlus,RIA,Liguria,,,,Italy,,,NLN491
'Il Granello' - Varazze,RIA,Liguria,,,,Italy,,,ISP187
Il Ponte,RIA,Liguria,,,,Italy,,,FHJ558
Il Sorriso,RIA,Liguria,,,,Italy,,,SJN576
Imperia - Palasalute Centro Vaccinazione Covid ,STS,Liguria,,,,Italy,,,ASC740
Isah Centro Di Riab. Polivalen,RIA,Liguria,,,,Italy,,,ZXC166
Isolabona - Centro Vaccinazione Covid ,STS,Liguria,,,,Italy,,,GWI774
Ist. Chiossone - Car Adulti,RIA,Liguria,,,,Italy,,,PJR411
Ist. Chiossone (Car) X Minori,RIA,Liguria,,,,Italy,,,WIT884
Ist. Riab.'Il Faggio' - Sv2,RIA,Liguria,,,,Italy,,,JVU120
Istituto Camaldoli - Don Orion,RIA,Liguria,,,,Italy,,,SHV353
Istituto Castagna Pcdo - Covid,STS,Liguria,,,,Italy,,,VWU703
Istituto Medico Ped. Borghetto,RIA,Liguria,,,,Italy,,,IQI861
Istituto Paverano - Don Orione,RIA,Liguria,,,,Italy,,,CYW243
La Missione Sz Sez Comatosi,RIA,Liguria,,,,Italy,,,GAE336
La Nostra Famiglia-Varazze,RIA,Liguria,,,,Italy,,,GQR648
Magazzini Del Cotone,STS,Liguria,,,,Italy,,,GTY809
Missione La Cometa,RIA,Liguria,,,,Italy,,,OJZ143
Molini Di Triora - Centro Vaccinazione Covid,STS,Liguria,,,,Italy,,,IYK913
Nucci Novi Ceppellini,RIA,Liguria,,,,Italy,,,WAN664
Nuova Assistenza Soc. Coop Soc,RIA,Liguria,,,,Italy,,,GJJ561
Opera G. Signori Ist S. Pietro,RIA,Liguria,,,,Italy,,,UTL138
Palamare Pra,STS,Liguria,,,,Italy,,,AMK943
Perinaldo - Centro Vaccinazione Covid ,STS,Liguria,,,,Italy,,,YLZ405
Pieve Di Teco - Centro Vaccinazione Covid,STS,Liguria,,,,Italy,,,QRR571
Pigna - Centro Vaccinazioni Covid,STS,Liguria,,,,Italy,,,GOA626
Pineta Marina - Covid,STS,Liguria,,,,Italy,,,MEB901
Poliambulatorio San Siro,STS,Liguria,,,,Italy,,,SNG667
Pres. Riab. Disabilità Ge Pra',RIA,Liguria,,,,Italy,,,LSB842
Presidio Cri - Comitato Vallescrivia Odv,STS,Liguria,,,,Italy,,,NJR468
Presidio Primo Levi,STS,Liguria,,,,Italy,,,WHJ503
Presidio Riabilitativo  Mons,RIA,Liguria,,,,Italy,,,PGM877
Quarto,STS,Liguria,,,,Italy,,,BPE136
Regione Liguria - Fieschi,STS,Liguria,,,,Italy,,,QYA294
Residenza Ave Maria/Residenza Boccadasse - Covid,STS,Liguria,,,,Italy,,,VKV904
Residenza Disabili Villa Perla,RIA,Liguria,,,,Italy,,,CCC674
Rfi Fs Hub Vaccinale Ge Covid,STS,Liguria,,,,Italy,,,FQZ357
Ricovero S. Giuseppe - Covid,STS,Liguria,,,,Italy,,,YDM792
Rinascita Vita-Villa Bracelli,RIA,Liguria,,,,Italy,,,ZSA499
Rp Casa Di Riposo Boetto Covid,STS,Liguria,,,,Italy,,,FCD949
Rp Dott. Zunino - Covid,STS,Liguria,,,,Italy,,,WRH169
Rp Immacolatine Quinto - Covid,STS,Liguria,,,,Italy,,,QOJ470
Rsa Campo Ligure - Covid,STS,Liguria,,,,Italy,,,LLU988
Rsa Castelletto - Covid,STS,Liguria,,,,Italy,,,PPC318
Rsa Doria - Covid,STS,Liguria,,,,Italy,,,XEW863
Rsa Galliera - Covid,STS,Liguria,,,,Italy,,,AZV453
Rsa La Benedetta Covid,STS,Liguria,,,,Italy,,,DAG112
Rsa Nucleo Alzheimer Rossiglione - Covid,STS,Liguria,,,,Italy,,,MDD831
Rsa Residenza Serena,STS,Liguria,,,,Italy,,,DAJ743
Rsa S. Benedetto - Don Orione - Ist. Paverano - Covid,STS,Liguria,,,,Italy,,,CNU359
Rsa San Francesco Di Recco - Covid,STS,Liguria,,,,Italy,,,WJP494
Rsa Villa Marta Di Betania,STS,Liguria,,,,Italy,,,PDB910
Rsa Villa San Pietro - Covid,STS,Liguria,,,,Italy,,,IWU605
Sacra Famiglia Mons. Pogliani,RIA,Liguria,,,,Italy,,,VDW114
Salone Nautico Hub Vacc Covid,STS,Liguria,,,,Italy,,,YUU453
San Giuseppe Di Boccadasse - Covid,STS,Liguria,,,,Italy,,,ZIW205
Sede Confcommercio,STS,Liguria,,,,Italy,,,ZMB397
Servizi Medici Hesperia,RIA,Liguria,,,,Italy,,,RER487
Servizio Riab. Aism Liguria,RIA,Liguria,,,,Italy,,,MHC603
Sito Di Vaccinazione Covid-19 Albenga,STS,Liguria,,,,Italy,,,NFU330
Sito Di Vaccinazione Covid-19 Arnasco,STS,Liguria,,,,Italy,,,LNT696
Sito Di Vaccinazione Covid-19 Balestrino,STS,Liguria,,,,Italy,,,PUX777
Sito Di Vaccinazione Covid-19 Cairo,STS,Liguria,,,,Italy,,,MEF187
Sito Di Vaccinazione Covid-19 Calizzano,STS,Liguria,,,,Italy,,,BRN947
Sito Di Vaccinazione Covid-19 Finale L.,STS,Liguria,,,,Italy,,,PLU798
Sito Di Vaccinazione Covid-19 Millesimo,STS,Liguria,,,,Italy,,,PXA428
Sito Di Vaccinazione Covid-19 Mmg Albenga,STS,Liguria,,,,Italy,,,PTI236
Sito Di Vaccinazione Covid-19 Mmg Borghetto Ss,STS,Liguria,,,,Italy,,,RFG992
Sito Di Vaccinazione Covid-19 Mmg Sv,STS,Liguria,,,,Italy,,,CTU198
Sito Di Vaccinazione Covid-19 Sassello,STS,Liguria,,,,Italy,,,KXZ755
Sito Di Vaccinazione Covid-19 Spotorno,STS,Liguria,,,,Italy,,,GLH134
Sito Di Vaccinazione Covid-19 Sv-1,STS,Liguria,,,,Italy,,,JQL471
Sito Di Vaccinazione Covid-19 Sv-2,STS,Liguria,,,,Italy,,,HLL741
Sito Di Vaccinazione Covid-19 Varazze,STS,Liguria,,,,Italy,,,SXY479
Stanza Vaccinale Domiciliare Presso D.S.S. 10 Poliambulatori Via Bonghi,STS,Liguria,,,,Italy,,,NOX382
Stanza Vaccinale Domiciliare Presso D.S.S. 11 Ambulatori Via Assarotti,STS,Liguria,,,,Italy,,,BVF555
Stanza Vaccinale Domiciliare Presso D.S.S. 12 Ambulatori Via Archimede,STS,Liguria,,,,Italy,,,CEE787
Stanza Vaccinale Domiciliare Presso D.S.S. 8 - Ambulatorio Camozzini,STS,Liguria,,,,Italy,,,KRM390
Stanza Vaccinale Domiciliare Presso D.S.S. 9 Poliambulatori Fiumara,STS,Liguria,,,,Italy,,,XKJ857
Stanza Vaccinale Domiciliare Presso Dss 13 - Casa Della Salute Quarto,STS,Liguria,,,,Italy,,,ITA585
Suore Minime Di Marassi - Covid,STS,Liguria,,,,Italy,,,MPV538
Taggia  - Vaccinazione Covid Drive Through,STS,Liguria,,,,Italy,,,HDK103
Taggia - Nuova Stazione Ferroviaria,STS,Liguria,,,,Italy,,,BXA420
Ufficio Sanità Marittima Usmaf-Sasn Liguria,STS,Liguria,,,,Italy,,,BJU893
Uscio Palestra Comunale Ambulatori Allestiti Sotto Piazza Della Resistenza,STS,Liguria,,,,Italy,,,ZEA127
Villa Bombrini,STS,Liguria,,,,Italy,,,LWE749
Villa Delle Rose Genova - Covid,STS,Liguria,,,,Italy,,,XUS658
Villa Delle Rose Sori - Covid,STS,Liguria,,,,Italy,,,FCT129
Villa Maddalena,RIA,Liguria,,,,Italy,,,UAH461
Villa Maria Teresa,RIA,Liguria,,,,Italy,,,JIE390
Villa Pagani Carani Cress,RIA,Liguria,,,,Italy,,,BRB216
Villa Santa Maria In Bethlem,RIA,Liguria,,,,Italy,,,HUM678
Villaggio Del Rag.-B.Acquarone,RIA,Liguria,,,,Italy,,,SNF355
A.I.A.S. - Milano,RIA,Lombardia,,,,Italy,,,HOB249
A.I.A.S. - Monza,RIA,Lombardia,,,,Italy,,,XBS678
A.S.P. Ist.Assist.E Cura S.Mar,RIA,Lombardia,,,,Italy,,,YNF251
Aias,RIA,Lombardia,,,,Italy,,,DBW592
Ambrosiana Medical Center - Mi,RIA,Lombardia,,,,Italy,,,URI892
Ass.La Nostra Famiglia-Lecco,RIA,Lombardia,,,,Italy,,,KIL659
C.Riab.La Prateria-Paderno D.,RIA,Lombardia,,,,Italy,,,QHF745
C.Ried.Mot.Ns.Fam.-P.Te Lambro,RIA,Lombardia,,,,Italy,,,ULA347
Casa Di Cura E Riabilitazione,RIA,Lombardia,,,,Italy,,,WDP491
Cdc Il Melograno,RIA,Lombardia,,,,Italy,,,YUO803
Centro A.I.R.R.I- Milano,RIA,Lombardia,,,,Italy,,,UNK537
Centro Di Riabil. S.Vincenzo -,RIA,Lombardia,,,,Italy,,,PPJ747
"Centro Di Riabilitazione "" E. ",RIA,Lombardia,,,,Italy,,,QLW260
Centro Don Orione - Bergamo,RIA,Lombardia,,,,Italy,,,SZH243
Centro Radiologia E Fisioterap,RIA,Lombardia,,,,Italy,,,VHC694
Coop. Soc. Studio Ripamonti -,RIA,Lombardia,,,,Italy,,,AZI189
Coop. Sociale Rieducazione - M,RIA,Lombardia,,,,Italy,,,CZI180
Cremona Solidale - Cremona,RIA,Lombardia,,,,Italy,,,ILB157
Don Gnocchi Centro Girola,RIA,Lombardia,,,,Italy,,,RNJ873
Fond. Benefattori Cremaschi On,RIA,Lombardia,,,,Italy,,,XER612
Fond. Istit. Vismara-S.Bassano,RIA,Lombardia,,,,Italy,,,IFM410
Fond. Madonna  Del Corlo Onlus,RIA,Lombardia,,,,Italy,,,MYS101
Fond. Osp. G.Aragona-S.Giovann,RIA,Lombardia,,,,Italy,,,PRV444
Fond.Don Gnocchi-Inverigo,RIA,Lombardia,,,,Italy,,,DNJ126
Fond.Ist.E.Germani-Cingia De'B,RIA,Lombardia,,,,Italy,,,GBF616
Fond.Osp.Casa Di Riposo Nob. P,RIA,Lombardia,,,,Italy,,,KIE758
Fond.Osp.Casa Di Riposo Nob.P.,RIA,Lombardia,,,,Italy,,,DOR403
Fondaz.Ist.Sacra Famiglia-Cesa,RIA,Lombardia,,,,Italy,,,BHA281
Fondazione Don Carlo Gnocchi,RIA,Lombardia,,,,Italy,,,QYZ238
Fondazione Don Carlo Gnocchi -,RIA,Lombardia,,,,Italy,,,BCT451
Fondazione Don Carlo Gnocchi O,RIA,Lombardia,,,,Italy,,,JMI555
Fondazione Don Carlo Gnocchi-C,RIA,Lombardia,,,,Italy,,,DIL481
Fondazione G.Brunenghi Onlus-C,RIA,Lombardia,,,,Italy,,,FWD206
Fondazione Mons. Arrigo Mazzal,RIA,Lombardia,,,,Italy,,,QZY259
Fondazione Osp.Caimi -Vailate,RIA,Lombardia,,,,Italy,,,BUD899
Fondazione Ospedale Civile Di,RIA,Lombardia,,,,Italy,,,OZS940
Idr Valsasino,RIA,Lombardia,,,,Italy,,,WIE396
Il Dosso Verde - Milano,RIA,Lombardia,,,,Italy,,,CVM451
Ist. La Nostra Famiglia - Veda,RIA,Lombardia,,,,Italy,,,DLE455
Ist. Nostra Famiglia - Castigl,RIA,Lombardia,,,,Italy,,,EWR644
Ist.Fond.Don Gnocchi-Godiasco,RIA,Lombardia,,,,Italy,,,RKJ816
Ist.Ger.Golgi-Abbiategrasso,RIA,Lombardia,,,,Italy,,,RWK476
Ist.Ger.O.P.Colleoni-Beldosso,RIA,Lombardia,,,,Italy,,,VYT533
Ist.Geriat.P.Redaelli-Vimodron,RIA,Lombardia,,,,Italy,,,BJA670
Ist.Geriatrico Redaelli - Mila,RIA,Lombardia,,,,Italy,,,SBH511
Ist.La Ns.Fam.-Bosisio Parini,RIA,Lombardia,,,,Italy,,,TOH707
Ist.La Ns.Famiglia-Mand.Lario,RIA,Lombardia,,,,Italy,,,RVS415
Ist.La Sacra Famiglia-Perledo,RIA,Lombardia,,,,Italy,,,SFX514
"Istituto ""Angelo Custode""- Pre",RIA,Lombardia,,,,Italy,,,IWW222
Istituto A.I.A.S. - Busto Arsi,RIA,Lombardia,,,,Italy,,,RIB125
Istituto A.N.F.A.S. - Milano,RIA,Lombardia,,,,Italy,,,KFH882
Istituto Di Riabilitazione Cas,RIA,Lombardia,,,,Italy,,,BKN458
Istituto Don Gnocchi-Pessano,RIA,Lombardia,,,,Italy,,,TQU533
Istituto Don Luigi Palazzolo -,RIA,Lombardia,,,,Italy,,,DLC506
Istituto Dosso Verde-Pavia,RIA,Lombardia,,,,Italy,,,JWP630
Istituto G.Frisia-Merate,RIA,Lombardia,,,,Italy,,,CPD357
Istituto La Sacra Famiglia,RIA,Lombardia,,,,Italy,,,RLJ461
Istituto Opera Pia Rota - Alme,RIA,Lombardia,,,,Italy,,,NZM623
Istituto Ospedaliero-Sospiro,RIA,Lombardia,,,,Italy,,,FKN414
La Nostra Famiglia - Carate Br,RIA,Lombardia,,,,Italy,,,NHZ400
La Nostra Famiglia - Cislago,RIA,Lombardia,,,,Italy,,,DBR336
La Nostra Famiglia - Como,RIA,Lombardia,,,,Italy,,,PVO227
La Nostra Famiglia - Sesto S.G,RIA,Lombardia,,,,Italy,,,NCO174
Luogo Pio Osp. Raimondi-Gorla,RIA,Lombardia,,,,Italy,,,OYL743
Oo.Pp.Annesse - Bergamo,RIA,Lombardia,,,,Italy,,,VLB210
Pia Casa Di Riposo Cardinal C.,RIA,Lombardia,,,,Italy,,,GRS982
Pia Fond.Val Camonica-Malegno,RIA,Lombardia,,,,Italy,,,ZIX110
Piccolo Cottolengo Don Orione,RIA,Lombardia,,,,Italy,,,AWT565
Pio Albergo Trivulzio - Milano,RIA,Lombardia,,,,Italy,,,REA781
Pro Juventute Don Gnocchi,RIA,Lombardia,,,,Italy,,,DUG117
Serv. Riabilitazione Territori,RIA,Lombardia,,,,Italy,,,GTM988
Unita¿ Geriatrica Riablitativa,RIA,Lombardia,,,,Italy,,,RXP191
Vicardial - Istituto Medico Ri,RIA,Lombardia,,,,Italy,,,GEM677
Villa Al Lago S.R.L.,RIA,Lombardia,,,,Italy,,,IIM354
Centro Vaccinale - Matelica,STS,Marche,,,,Italy,,,QPU960
Centro Vaccinale C/O Centro Sportivo Multifunzionale - Camerino,STS,Marche,,,,Italy,,,GNE210
Centro Vaccinale C/O Croce Azzurra - Porto San Giorgio,STS,Marche,,,,Italy,,,RCU974
Centro Vaccinale C/O Distretto - Montegranaro,STS,Marche,,,,Italy,,,NNH467
Centro Vaccinale C/O Distretto Sanitario - Petritoli,STS,Marche,,,,Italy,,,ZQO285
Centro Vaccinale C/O Ex Scuola Elementare - Amandola,STS,Marche,,,,Italy,,,DBS794
Centro Vaccinale C/O Iper Rossini - Pesaro,STS,Marche,,,,Italy,,,TFH940
Centro Vaccinale C/O Nuova Palestra Fermi - Fabriano,STS,Marche,,,,Italy,,,OIP747
Centro Vaccinale C/O Ospedale - Amandola,STS,Marche,,,,Italy,,,LAS719
Centro Vaccinale C/O Palaprometeo - Ancona,STS,Marche,,,,Italy,,,GHK422
Centro Vaccinale C/O Palazzetto Dello Sport - Ascoli Piceno,STS,Marche,,,,Italy,,,MNJ696
Centro Vaccinale C/O Palazzetto Dello Sport - Gradara,STS,Marche,,,,Italy,,,LMN260
Centro Vaccinale C/O Palazzetto Dello Sport - Porto Sant'Elpidio,STS,Marche,,,,Italy,,,RTF216
Centro Vaccinale C/O Palestra Comunale - Falerone,STS,Marche,,,,Italy,,,KCC922
Centro Vaccinale C/O Palestre Zannoni - Jesi,STS,Marche,,,,Italy,,,ZCD538
Centro Vaccinale C/O Sala Italia - San Severino Marche,STS,Marche,,,,Italy,,,KEY892
Centro Vaccinale C/O Scuola Mancini - Fermo,STS,Marche,,,,Italy,,,KEX124
Centro Vaccinale C/O Vigili Del Fuoco - Senigallia,STS,Marche,,,,Italy,,,NYJ849
Centro Vaccinale Civitanova Marche,STS,Marche,,,,Italy,,,CVK389
Centro Vaccinale Macerata,STS,Marche,,,,Italy,,,QPA148
Centro Vaccinale P/O Bocciodromo - Urbino,STS,Marche,,,,Italy,,,UTO606
Centro Vaccinale P/O Cetro Ortofrutticolo - Fano,STS,Marche,,,,Italy,,,URH695
Centro Vaccinale P/O Palazzetto Dello Sport - San Benedetto Del Tronto,STS,Marche,,,,Italy,,,EYE727
Dt01 Car Eta' Evolutiva Pesaro,RIA,Marche,,,,Italy,,,PNJ114
Dt05 Poliambulatorio Carlo Urbani,STS,Marche,,,,Italy,,,VYK538
Dt08 Ambulatori H Civitanova,STS,Marche,,,,Italy,,,KND140
Dt09 Osp. Macerata,STS,Marche,,,,Italy,,,HGW698
Dt09 Terme Di San Giacomo - Sarnano,STS,Marche,,,,Italy,,,JGE727
Dt09 Terme Di Santa Lucia - Tolentino,STS,Marche,,,,Italy,,,ULG991
Dt10 Pres. Osp. Camerino,STS,Marche,,,,Italy,,,OAX629
Dt12 Ospedale- Ambulatori Divisiona,STS,Marche,,,,Italy,,,CFG142
Dt13 Centro Sport Life,RIA,Marche,,,,Italy,,,UWK387
Dt13 Poliamb. Di Ascoli Piceno,STS,Marche,,,,Italy,,,KJD375
Dt13 Poliambulatorio Ospedale Mazzoni,STS,Marche,,,,Italy,,,DYJ443
Ospedale San Salvatore - Pesaro,STS,Marche,,,,Italy,,,AGF510
Ospedale Santa Croce - Fano,STS,Marche,,,,Italy,,,OKU991
Presidio Ospedaliero Umberto I,STS,Marche,,,,Italy,,,KVN352
Zt01 Riab. Intens. 'Galantara',RIA,Marche,,,,Italy,,,PRX301
Zt02 Istituto Riab. S. Stefano,RIA,Marche,,,,Italy,,,DJX950
Zt03 Fondazione Don Gnocchi,RIA,Marche,,,,Italy,,,OIF271
Zt05 Centro Amb Riabilit Murri,RIA,Marche,,,,Italy,,,KOO781
Zt05 Centro Amb S.Stefano Filo,RIA,Marche,,,,Italy,,,LMJ842
Zt06 Centro Amb. S.Stefano,RIA,Marche,,,,Italy,,,XUC711
Zt06 Comunita La Buona Novella,RIA,Marche,,,,Italy,,,NZY231
Zt07 Abitare Il Tempo - Loreto,RIA,Marche,,,,Italy,,,MDW245
Zt07 Fondazione Don Gnocchi,RIA,Marche,,,,Italy,,,ADW823
Zt07 Ist Riab Villa Adria,RIA,Marche,,,,Italy,,,VQG252
Zt07 Lega Del Filo D'Oro Onlus,RIA,Marche,,,,Italy,,,KFJ328
Zt07Residenza Dorica S.Stefano,RIA,Marche,,,,Italy,,,IIB699
Zt08 Istituto Paolo Ricci,RIA,Marche,,,,Italy,,,WYL420
Zt08 Riab S.Stefano Civit Ex26,RIA,Marche,,,,Italy,,,ZYC903
Zt08 Riabilitazione S.Stefano,RIA,Marche,,,,Italy,,,EMX546
Zt08 Villaggio Delle Ginestre,RIA,Marche,,,,Italy,,,SJA552
Zt09 Cent. Amb Sstef -Macerata,RIA,Marche,,,,Italy,,,WHX175
Zt09 Centro Amb Sstef Tolentin,RIA,Marche,,,,Italy,,,UXV355
Zt10 Centro Amb S. Stefano Cam,RIA,Marche,,,,Italy,,,OBO946
Zt10 Centro Amb S. Stefano Mat,RIA,Marche,,,,Italy,,,DYU716
Zt11 Centro Riab. Montessori,RIA,Marche,,,,Italy,,,BIA180
Zt11 Comunita' Capodarco Fermo,RIA,Marche,,,,Italy,,,ASR785
Zt11 Istituto Mancinelli,RIA,Marche,,,,Italy,,,ZPY119
Zt12 Centro Amb S.Stefano,RIA,Marche,,,,Italy,,,TRW724
Zt13 Ist.Ria. S.Stefano Ascoli,RIA,Marche,,,,Italy,,,PDT392
C. Di Riab. Molisani S.R.L.,RIA,Molise,,,,Italy,,,RUK189
C. Di Riab. Molisani S.R.L.-,RIA,Molise,,,,Italy,,,YFA397
C. Di Riab.Molisani S.R.L.,RIA,Molise,,,,Italy,,,HIA704
C. Riab. S. Stef.A.R.-Termoli,RIA,Molise,,,,Italy,,,GWJ558
Carsic S.R.L.,RIA,Molise,,,,Italy,,,PIP889
Casa Della Salute Is Ex Art.26,RIA,Molise,,,,Italy,,,ROA779
Casa Salute Larino - Ex Art.26,RIA,Molise,,,,Italy,,,UHJ118
Centro Fisioter - Termoli -,RIA,Molise,,,,Italy,,,DIV923
Centro Paola Pavone,RIA,Molise,,,,Italy,,,FST514
Centro San Stef.Ar(Abano Term),RIA,Molise,,,,Italy,,,DJS894
Domenico  Francesco Potito Srl,RIA,Molise,,,,Italy,,,LLN382
Fisiomedica Loretana S.R.L.,RIA,Molise,,,,Italy,,,YAO924
Fondaz. Padre A. Mileno Onlus,RIA,Molise,,,,Italy,,,KPZ792
Fondaz. Padre A. Mileno Onlus-,RIA,Molise,,,,Italy,,,JTR690
Ist. Molisano Di Riabilitaz.,RIA,Molise,,,,Italy,,,CJM126
L'Incontro Srl,RIA,Molise,,,,Italy,,,POB194
Logopedia Niro U.Ec. S.A.S.,RIA,Molise,,,,Italy,,,TJG322
Riabilis,RIA,Molise,,,,Italy,,,LQP593
Accademia Cusanus - Vaccinazioni Covid,STS,Bolzano,,,,Italy,,,YHT762
Casa Culturale Campo Tures - Vaccinazioni Covid,STS,Bolzano,,,,Italy,,,UMG344
Casa Culturale Rasun Di Sopra - Vaccinazioni Covid,STS,Bolzano,,,,Italy,,,DCR690
Casa Dei Congressi Valdaora - Vaccinazioni Covid,STS,Bolzano,,,,Italy,,,WIB993
"Casa Della Cultura ""Karl Schönherr"" - Vaccinazioni Covid",STS,Bolzano,,,,Italy,,,FZC913
Casa Della Cultura Di La Villa - Vaccinazioni Covid,STS,Bolzano,,,,Italy,,,SUL525
Casa Della Cultura Malles - Vaccinazioni Covid,STS,Bolzano,,,,Italy,,,LUW224
Casa Delle Associazioni Cadipietra - Vaccinazioni Covid,STS,Bolzano,,,,Italy,,,EMY388
Casa Ex Tribunale Di Brunico - Vaccinazioni Covid,STS,Bolzano,,,,Italy,,,VGA431
Casa Michael Pacher - Vaccinazioni Covid,STS,Bolzano,,,,Italy,,,ESW174
Casa Paul Troger - Vaccinazioni Covid,STS,Bolzano,,,,Italy,,,YNJ638
Casa Raiffeisen - Vaccinazioni Covid,STS,Bolzano,,,,Italy,,,FAI979
Centro Oratorio Don Bosco - Vaccinazioni Covid,STS,Bolzano,,,,Italy,,,KSY639
Centro Scolastico J. Gasser - Centro Vaccinazione Covid,STS,Bolzano,,,,Italy,,,YFJ172
Distretto Alta Val Venosta,STS,Bolzano,,,,Italy,,,VCG578
Distretto Di Lana,STS,Bolzano,,,,Italy,,,SEL846
Distretto Di Merano,STS,Bolzano,,,,Italy,,,VQB701
Distretto Di Naturno,STS,Bolzano,,,,Italy,,,SUO198
Distretto Media Val Venosta,STS,Bolzano,,,,Italy,,,TPF156
Distretto Sanitario Alta Pusteria,STS,Bolzano,,,,Italy,,,REZ550
Distretto Sanitario Val Badia,STS,Bolzano,,,,Italy,,,QBH796
Distretto Sanitario Valle Di Tures - Aurina,STS,Bolzano,,,,Italy,,,QBZ240
Distretto Sanitario-Bassa Atesina,STS,Bolzano,,,,Italy,,,OYU256
Distretto Sanitario-Oltradige,STS,Bolzano,,,,Italy,,,JKC921
Distretto Val Passiria,STS,Bolzano,,,,Italy,,,FRL517
Ex-Despar Vipiteno - Vaccinazioni Covid,STS,Bolzano,,,,Italy,,,VOA348
Fiera Di Bolzano - Vaccinazioni Covid,STS,Bolzano,,,,Italy,,,QZA510
'Kurhaus' Merano - Vaccinazioni Covid,STS,Bolzano,,,,Italy,,,MPY998
Regg.Log. 'Julia'- Vaccinazioni Covid,STS,Bolzano,,,,Italy,,,FLY371
Salus Center,RIA,Bolzano,,,,Italy,,,XKZ527
Teatro Comunale Vipiteno - Vaccinazioni Covid,STS,Bolzano,,,,Italy,,,CZV215
Aeroporto Di Caselle Vaccinazi,STS,Piemonte,,,,Italy,,,WVD505
Ambulatorio Di Pragelato,STS,Piemonte,,,,Italy,,,FLL128
Ambulatorio Vaccinazioni Covid,STS,Piemonte,,,,Italy,,,KIJ204
Ass. Centri V.C.O. Domodossola,RIA,Piemonte,,,,Italy,,,TZF920
Ass. Centri V.C.O. Gravellona,RIA,Piemonte,,,,Italy,,,EQT905
Attivazione Ambulatorio Vaccin,STS,Piemonte,,,,Italy,,,RBR769
Attivazione Sede Per Ambulator,STS,Piemonte,,,,Italy,,,PAY908
Attivita' Distrettuale - Distr,STS,Piemonte,,,,Italy,,,ZPF331
C.A. Gibi Anteo,STS,Piemonte,,,,Italy,,,HMY960
C.D. Dipendenze La Svolta,STS,Piemonte,,,,Italy,,,JKQ542
C.V. Pediatri Libera Scelta -,STS,Piemonte,,,,Italy,,,FPN513
Casa Circondariale Alessandria,STS,Piemonte,,,,Italy,,,IJY673
Casa Circondariale Di Verbania,STS,Piemonte,,,,Italy,,,GTF452
Casa Madre Mazzarello,STS,Piemonte,,,,Italy,,,INR425
Casa Pratoverde Anteo,STS,Piemonte,,,,Italy,,,FQC430
"Casa Reclusione Alessandria ""S",STS,Piemonte,,,,Italy,,,UIH545
Casa Xenia Psich.,STS,Piemonte,,,,Italy,,,INS790
Cd Cossato Anteo,STS,Piemonte,,,,Italy,,,FZZ997
"Centro ""Paolo Vi""             ",RIA,Piemonte,,,,Italy,,,PNF459
Centro Commerciale Lingotto -,STS,Piemonte,,,,Italy,,,TJZ290
Centro Di Riabil. Ferrero,RIA,Piemonte,,,,Italy,,,ULD688
Centro Diurno Biella Anteo,STS,Piemonte,,,,Italy,,,XUZ535
Centro Eventi Multifunzionale,STS,Piemonte,,,,Italy,,,LKF751
Centro Fieristico Museo Dei Ca,STS,Piemonte,,,,Italy,,,KDW636
Centro Polifunzionale Piu' Spo,STS,Piemonte,,,,Italy,,,DEL830
Centro Polivalente Covid - Pra,STS,Piemonte,,,,Italy,,,HPA894
Centro Sportivo Bussolino Spor,STS,Piemonte,,,,Italy,,,PTZ586
Centro Sportivo Giacomo Gaigli,STS,Piemonte,,,,Italy,,,RDP468
"Centro Vaccinale ""Il Bowling"" ",STS,Piemonte,,,,Italy,,,CHS523
"Centro Vaccinale ""Il Globo""   ",STS,Piemonte,,,,Italy,,,KRM589
Centro Vaccinale Banca Sella,STS,Piemonte,,,,Italy,,,IFG255
Centro Vaccinale Castellazzo S,STS,Piemonte,,,,Italy,,,JOX636
Centro Vaccinale Covid-19 - Bo,STS,Piemonte,,,,Italy,,,GWW734
Centro Vaccinale Covid-19 - Ce,STS,Piemonte,,,,Italy,,,TXK526
Centro Vaccinale Covid19 - Goz,STS,Piemonte,,,,Italy,,,ETZ217
Centro Vaccinale Covid-19 - Or,STS,Piemonte,,,,Italy,,,ZFD913
Centro Vaccinale Covid-19 - Pa,STS,Piemonte,,,,Italy,,,HSM715
Centro Vaccinale Covid19 - Var,STS,Piemonte,,,,Italy,,,QJB662
Centro Vaccinale Covid19 Ex Ca,STS,Piemonte,,,,Italy,,,WQI155
Centro Vaccinale Covid19 Ipazi,STS,Piemonte,,,,Italy,,,DGJ113
Centro Vaccinale Covid19 Mmg A,STS,Piemonte,,,,Italy,,,WMK563
Centro Vaccinale Covid19 Pala,STS,Piemonte,,,,Italy,,,XGR170
Centro Vaccinale Covid19 Palaf,STS,Piemonte,,,,Italy,,,HNU661
Centro Vaccinale Covid19 Salon,STS,Piemonte,,,,Italy,,,ILJ216
Centro Vaccinale Cus Torino,STS,Piemonte,,,,Italy,,,DLA611
Centro Vaccinale Farmacie,STS,Piemonte,,,,Italy,,,QTS418
Centro Vaccinale Ga Dsm Nord,STS,Piemonte,,,,Italy,,,OCX706
Centro Vaccinale Ga Dsm Sud,STS,Piemonte,,,,Italy,,,UWH345
Centro Vaccinale Mmg,STS,Piemonte,,,,Italy,,,BYJ396
Centro Vaccinale Municipio Di,STS,Piemonte,,,,Italy,,,TZB261
Centro Vaccinale Salone Sterna,STS,Piemonte,,,,Italy,,,SFM581
Centro Vaccinale Teatro Civico,STS,Piemonte,,,,Italy,,,JDN470
Centro Vaccinazione Covid Cand,STS,Piemonte,,,,Italy,,,QQV525
Centro Vaccinazioni Covid-19 P,STS,Piemonte,,,,Italy,,,PEJ475
Centromediciinsieme,STS,Piemonte,,,,Italy,,,QWZ857
Croce Rossa Italiana Centro Fe,STS,Piemonte,,,,Italy,,,JWT141
Cv Centro Diurno Villa Marazza,STS,Piemonte,,,,Italy,,,RLJ612
Cv Centro Fiere Caresanablot,STS,Piemonte,,,,Italy,,,ZDB122
Cv Covid19 - Mmg Biandrate,STS,Piemonte,,,,Italy,,,GRK950
Cv Covid19 - Mmg Oleggio,STS,Piemonte,,,,Italy,,,LYF820
Cv Disabili C.I.S.A. Ovest Tic,STS,Piemonte,,,,Italy,,,QDT593
Cv Disabili Comune Arona,STS,Piemonte,,,,Italy,,,CXL966
Cv Disabili Comune Novara,STS,Piemonte,,,,Italy,,,YQE102
Dipartimento Prevenzione Sisp,STS,Piemonte,,,,Italy,,,VLP821
Domus Laetitiae Soc. Coop.Soci,RIA,Piemonte,,,,Italy,,,IUW495
Drive Through_Le Gru Di Grugli,STS,Piemonte,,,,Italy,,,SNA734
Drive Through_Parcheggio Avigl,STS,Piemonte,,,,Italy,,,OPO894
Drive Through_Parcheggio Conse,STS,Piemonte,,,,Italy,,,MKR327
Drive Through_Piazzetta Peano,STS,Piemonte,,,,Italy,,,PPL924
Ex Comunita' Montana Monte Ros,STS,Piemonte,,,,Italy,,,WNA408
G. A. Ponderano,STS,Piemonte,,,,Italy,,,BDC743
G. A. Vernato Biella,STS,Piemonte,,,,Italy,,,SXA634
G.A. Faccenda Anteo,STS,Piemonte,,,,Italy,,,NCW913
G.A.I. I Cedri,STS,Piemonte,,,,Italy,,,JSC157
Ga Villa Margherita Anteo,STS,Piemonte,,,,Italy,,,HTP987
"Giovanni Xxiii Srl ""Centro Don",RIA,Piemonte,,,,Italy,,,VIX824
Hub Nuvola Lavazza,STS,Piemonte,,,,Italy,,,HOQ230
Il Margine Cascina Castagneto,STS,Piemonte,,,,Italy,,,ZZP948
Istituto Sacra Famiglia,RIA,Piemonte,,,,Italy,,,KGR761
J Medical Centro Vaccinale,STS,Piemonte,,,,Italy,,,VRA452
Kongresshaus,STS,Piemonte,,,,Italy,,,CMY247
Palalancia Chivasso Somministr,STS,Piemonte,,,,Italy,,,FSD771
Polivalente Cossato - Mercato,STS,Piemonte,,,,Italy,,,SNF283
Polo Logistico Protezione Civi,STS,Piemonte,,,,Italy,,,VXI553
Privata_Castello Di Rivoli,STS,Piemonte,,,,Italy,,,GPJ309
Punto Vaccinale Biagini Castig,STS,Piemonte,,,,Italy,,,LZH964
Punto Vaccinale C/O Casa Di Cu,STS,Piemonte,,,,Italy,,,HUX534
Punto Vaccinale Carignano Via,STS,Piemonte,,,,Italy,,,UEI429
Punto Vaccinale Carmagnola Ant,STS,Piemonte,,,,Italy,,,XIW192
Punto Vaccinale Centro Incontr,STS,Piemonte,,,,Italy,,,MWI236
Punto Vaccinale Chieri Sala Co,STS,Piemonte,,,,Italy,,,XXS371
Punto Vaccinale Covid _Allianz,STS,Piemonte,,,,Italy,,,EYF194
Punto Vaccinale Mmg Asl Al,STS,Piemonte,,,,Italy,,,IBF191
Punto Vaccinale Moncalieri For,STS,Piemonte,,,,Italy,,,UXV496
Punto Vaccinale Moncalieri Str,STS,Piemonte,,,,Italy,,,ORB384
Punto Vaccinale Nichelino Via,STS,Piemonte,,,,Italy,,,EMS454
Punto Vaccinale Strutture Resi,STS,Piemonte,,,,Italy,,,FJJ350
Punto Vaccinale Via Farini - V,STS,Piemonte,,,,Italy,,,MOD559
Punto Vaccinale Via Michelange,STS,Piemonte,,,,Italy,,,QVC156
Punto Vaccinale Via San Rocco,STS,Piemonte,,,,Italy,,,JWE663
Punto Vaccinale Via Sesone - B,STS,Piemonte,,,,Italy,,,SON806
Punto Vaccinale Vinovo P.Za 2,STS,Piemonte,,,,Italy,,,QLJ699
Punto Vaccinale Vinovo Tetti R,STS,Piemonte,,,,Italy,,,GKT952
Pvt Castelnuovo Don Bosco,STS,Piemonte,,,,Italy,,,QWN274
Pvt Chieri Palavaccini,STS,Piemonte,,,,Italy,,,GJF617
Reale Hub Cv 19,STS,Piemonte,,,,Italy,,,LKG434
Scuola Media Innocenzo Ix - Ba,STS,Piemonte,,,,Italy,,,HDO276
Scuola Nazionale Federale Di E,STS,Piemonte,,,,Italy,,,HEU862
Sede Biverbanca Biella,STS,Piemonte,,,,Italy,,,OUN400
Uni.To Rettorato Punto Vaccina,STS,Piemonte,,,,Italy,,,DDA681
Unione Montana Valli Dell'Osso,STS,Piemonte,,,,Italy,,,GLK641
Vaccini Covid - Distretto Nord,STS,Piemonte,,,,Italy,,,DEE389
Vaccini Covid - Distretto Sud-,STS,Piemonte,,,,Italy,,,YWJ689
Vaccini Covid Distretto Nord-O,STS,Piemonte,,,,Italy,,,TEO863
Vaccini Covid Popolazione - Si,STS,Piemonte,,,,Italy,,,XNY459
Vaccini Covid Sisp - Saviglian,STS,Piemonte,,,,Italy,,,AOS671
Villa Aglietta Anteo,STS,Piemonte,,,,Italy,,,PFO978
Amb. Audiol. Foniatr. Lecce,RIA,Puglia,,,,Italy,,,GRX752
Ambulatorio Galatina,RIA,Puglia,,,,Italy,,,HKS116
Ambulatorio Gallipoli,RIA,Puglia,,,,Italy,,,ANZ631
Ambulatorio Martano,RIA,Puglia,,,,Italy,,,RFP246
"Ambulatorio Medico Mobile ""Camper"" Targato Gf084Ew",STS,Puglia,,,,Italy,,,EOA170
Ambulatorio Nardo',RIA,Puglia,,,,Italy,,,ROP574
Ambulatorio Poggiardo,RIA,Puglia,,,,Italy,,,GRA417
Ambulatorio Riab- Gagliano,RIA,Puglia,,,,Italy,,,SKA382
Ambulatorio Riab. Campi Sal.,RIA,Puglia,,,,Italy,,,XNQ367
Ambulatorio Supersano,RIA,Puglia,,,,Italy,,,ZXW166
Ambulatorio Trepuzzi,RIA,Puglia,,,,Italy,,,ZOR226
Aps Angela Maria Sgobba,STS,Puglia,,,,Italy,,,YUK141
"Associaz. ""La Nostra Famiglia""",RIA,Puglia,,,,Italy,,,XAV336
C.R. Acquaviva Delle Fonti,RIA,Puglia,,,,Italy,,,QEP305
C.R. Polignano A Mare,RIA,Puglia,,,,Italy,,,KZF935
Capannone Complesso Ex Acait Tricase,STS,Puglia,,,,Italy,,,KCM241
Car Unico,RIA,Puglia,,,,Italy,,,VCX415
Casa Circondariale Lecce,STS,Puglia,,,,Italy,,,AOP977
Casa Di Cura' L. De Luca2 Srl,RIA,Puglia,,,,Italy,,,ZYB804
"Casa Di Riposo ""Coniugi N. E M. Serinelli"" Squinzano",STS,Puglia,,,,Italy,,,VVO715
"Casa Di Riposo ""Madonna Dei Fiori"" Sannicola",STS,Puglia,,,,Italy,,,CHX366
"Casa Di Riposo ""Papa Giovanni Xxiii"" Galatone",STS,Puglia,,,,Italy,,,SFV179
"Casa Di Riposo ""Perrone M.V. E C."" Novoli",STS,Puglia,,,,Italy,,,EBP920
"Casa Di Riposo ""Suor Oblate Sant'Antonio Da Padova"" Novoli",STS,Puglia,,,,Italy,,,RPI184
"Casa Di Riposo/Pensionato ""Madonna Del Pane"" Novoli",STS,Puglia,,,,Italy,,,WDF548
Casa Per Anziani Il Sogno,STS,Puglia,,,,Italy,,,SCY423
"Casa Per La Vita ""Villa Miry"" Cutrofiano",STS,Puglia,,,,Italy,,,TCZ984
"Casa Per La Vita Sorgente ""San Giorgio"" Santa Cesarea Terme",STS,Puglia,,,,Italy,,,IGJ225
"Caserma ""Zappala'"" Lecce",STS,Puglia,,,,Italy,,,HAR403
Centri Riab. Pugl - Margherita,RIA,Puglia,,,,Italy,,,RZY946
Centri Riabilitazione P. Pio,RIA,Puglia,,,,Italy,,,VNU431
Centri Riabilitazione P.Pio,RIA,Puglia,,,,Italy,,,WTW234
Centro  Cesarano,RIA,Puglia,,,,Italy,,,BCZ174
Centro  Riabilitazione P. Pio,RIA,Puglia,,,,Italy,,,TSB857
Centro Aggregazioni Giovanili -Spongano,STS,Puglia,,,,Italy,,,OFF577
"Centro Diurno Socio Educativo ""Nuova Itaca"" S.Pietro In Lama",STS,Puglia,,,,Italy,,,URX911
"Centro Diurno Socio Educativo E Riabilitativo ""La Bussola"" Galatina",STS,Puglia,,,,Italy,,,CVJ452
Centro Medico Riabilitaz. Vita,RIA,Puglia,,,,Italy,,,ZVY612
Centro Polivalente Comunale -Galatina,STS,Puglia,,,,Italy,,,SGJ382
"Centro Polivalente Per Disabili ""Fantasylandia Ability"" Veglie",STS,Puglia,,,,Italy,,,YTE695
Centro Riab. Ex Cpr Andria,RIA,Puglia,,,,Italy,,,UKW376
Centro Riab. Ex Cpr Barletta,RIA,Puglia,,,,Italy,,,IXW631
Centro Riab. Ex Cpr Bisceglie,RIA,Puglia,,,,Italy,,,ZWM471
Centro Riab. Ex Cpr Canosa,RIA,Puglia,,,,Italy,,,CZA493
Centro Riab. Ex Cpr Minervino,RIA,Puglia,,,,Italy,,,WBE896
Centro Riab. Ex Cpr Spinazzola,RIA,Puglia,,,,Italy,,,YWQ193
Centro Riab. Ex Cpr Trani,RIA,Puglia,,,,Italy,,,GOP789
Centro Riab. Fond. Turati,RIA,Puglia,,,,Italy,,,UMQ833
Centro Riab. Madonna Libera,RIA,Puglia,,,,Italy,,,LGR436
Centro Riab. P.Pio Manfredonia,RIA,Puglia,,,,Italy,,,VKL805
Centro Riab. Pugl. S.Ferdinand,RIA,Puglia,,,,Italy,,,PBH522
Centro Riab. Pugl.-Trinitapoli,RIA,Puglia,,,,Italy,,,YNZ409
Centro Riab.S.Giuseppe Biscegl,RIA,Puglia,,,,Italy,,,HGX720
Centro Riabil. Alberobello,RIA,Puglia,,,,Italy,,,RKM139
Centro Riabil. Carbonara,RIA,Puglia,,,,Italy,,,ZYY565
Centro Riabil. Casamassima,RIA,Puglia,,,,Italy,,,SWY409
Centro Riabil. Castellana,RIA,Puglia,,,,Italy,,,FGP780
Centro Riabil. Conversano,RIA,Puglia,,,,Italy,,,HAF583
Centro Riabil. Gioia Del Colle,RIA,Puglia,,,,Italy,,,WFY826
Centro Riabil. Mola Di Bari,RIA,Puglia,,,,Italy,,,UHR372
Centro Riabil. Monopoli,RIA,Puglia,,,,Italy,,,MGY320
Centro Riabil. Noicattaro,RIA,Puglia,,,,Italy,,,LTD105
Centro Riabil. P.Pio Orta Nova,RIA,Puglia,,,,Italy,,,KYI510
Centro Riabil. Putignano,RIA,Puglia,,,,Italy,,,CTW582
Centro Riabil. Rutigliano,RIA,Puglia,,,,Italy,,,QHI150
Centro Riabil. S.Spirito,RIA,Puglia,,,,Italy,,,KRM349
Centro Riabil. Sammichele,RIA,Puglia,,,,Italy,,,BSZ473
Centro Riabil. Santeram0 1,RIA,Puglia,,,,Italy,,,GQF378
Centro Riabil. Triggiano,RIA,Puglia,,,,Italy,,,IVR294
Centro Riabilit. Pol. S.Maria,RIA,Puglia,,,,Italy,,,WMO157
Centro Riabilitazione Altamura,RIA,Puglia,,,,Italy,,,IHA915
Centro Riabilitazione Bitonto,RIA,Puglia,,,,Italy,,,DGL398
Centro Riabilitazione Bitritto,RIA,Puglia,,,,Italy,,,FMG710
Centro Riabilitazione Cassano,RIA,Puglia,,,,Italy,,,HYP200
Centro Riabilitazione Corato,RIA,Puglia,,,,Italy,,,FAG655
Centro Riabilitazione D.S.S.8,RIA,Puglia,,,,Italy,,,TGP839
Centro Riabilitazione Ex Cto,RIA,Puglia,,,,Italy,,,RFW364
Centro Riabilitazione Giovinaz,RIA,Puglia,,,,Italy,,,LEP808
Centro Riabilitazione Gravina,RIA,Puglia,,,,Italy,,,ABG136
Centro Riabilitazione Molfetta,RIA,Puglia,,,,Italy,,,UKU971
Centro Riabilitazione Noci,RIA,Puglia,,,,Italy,,,DDD310
Centro Riabilitazione P.Pio,RIA,Puglia,,,,Italy,,,QJL616
Centro Riabilitazione Ruvo P,RIA,Puglia,,,,Italy,,,ZII250
Centro Riabilitazione S.Paolo,RIA,Puglia,,,,Italy,,,KRR588
Centro Riabilitazione Terlizzi,RIA,Puglia,,,,Italy,,,DLN527
Centro Riabilitazione Toritto,RIA,Puglia,,,,Italy,,,BLH734
Centro Riabilitazione Turi,RIA,Puglia,,,,Italy,,,VNF192
Centro Vaccinale C/O Centro Anziani,STS,Puglia,,,,Italy,,,FSX304
Centro Vaccinale C/O Centro Anziani - Bozzano,STS,Puglia,,,,Italy,,,WPL179
Centro Vaccinale C/O Centro Commerciale Conforama,STS,Puglia,,,,Italy,,,QYS339
Centro Vaccinale C/O Centro Educazione Ambientale,STS,Puglia,,,,Italy,,,WKT788
Centro Vaccinale C/O Chiostro Dei Frati Minori Osservanti,STS,Puglia,,,,Italy,,,HDM180
Centro Vaccinale C/O Contenitore Culturale  ¿Don Giuseppe Vinci¿,STS,Puglia,,,,Italy,,,ERC813
Centro Vaccinale C/O Istituto Marconi - Flacco,STS,Puglia,,,,Italy,,,LYK230
Centro Vaccinale C/O Istituto Tecnico Commerciale Valzani,STS,Puglia,,,,Italy,,,VWU227
Centro Vaccinale C/O Nave  Aida Blu,STS,Puglia,,,,Italy,,,EXT302
Centro Vaccinale C/O Nave Explorer,STS,Puglia,,,,Italy,,,AZC764
Centro Vaccinale C/O Nave Norwegian Down,STS,Puglia,,,,Italy,,,WIK423
Centro Vaccinale C/O Nave Norwegian Spirit,STS,Puglia,,,,Italy,,,YXV908
Centro Vaccinale C/O Palazzetto Dello Sport,STS,Puglia,,,,Italy,,,CFQ906
Centro Vaccinale C/O Palazzetto Dello Sport ¿Palagentile¿,STS,Puglia,,,,Italy,,,YZA186
Centro Vaccinale C/O Palestra Leonardo Da Vinci,STS,Puglia,,,,Italy,,,MCI993
Centro Vaccinale C/O Palestra Scuola De Amicis,STS,Puglia,,,,Italy,,,GPF628
Centro Vaccinale C/O Palestra Scuola Falcone,STS,Puglia,,,,Italy,,,TWB543
Centro Vaccinale C/O Palestra Scuola Media A. Manzoni,STS,Puglia,,,,Italy,,,QIV234
Centro Vaccinale C/O Palestra Scuola Media G. Mazzini,STS,Puglia,,,,Italy,,,QVX966
Centro Vaccinale C/O Palestra Scuola Primaria Valesium,STS,Puglia,,,,Italy,,,NZY846
Centro Vaccinale C/O Plesso Scolastico,STS,Puglia,,,,Italy,,,GPL941
Centro Vaccinale C/O Pressostatico,STS,Puglia,,,,Italy,,,GNS562
Centro Vaccinale C/O Scuola Primaria,STS,Puglia,,,,Italy,,,VAC870
Centro Vaccinale C/O Struttura Comunale Istituto Pio Caterina Scazzeri,STS,Puglia,,,,Italy,,,WXX545
Centro Vaccinale C/O Truttura Tensostatica,STS,Puglia,,,,Italy,,,TKO509
Centro Vaccinale Hub 1,STS,Puglia,,,,Italy,,,DDO466
Centro Vaccinale Hub 10,STS,Puglia,,,,Italy,,,ZMP782
Centro Vaccinale Hub 11,STS,Puglia,,,,Italy,,,PRP111
Centro Vaccinale Hub 12,STS,Puglia,,,,Italy,,,QGW783
Centro Vaccinale Hub 13,STS,Puglia,,,,Italy,,,SCE443
Centro Vaccinale Hub 14,STS,Puglia,,,,Italy,,,HLR475
Centro Vaccinale Hub 15,STS,Puglia,,,,Italy,,,LDW243
Centro Vaccinale Hub 16,STS,Puglia,,,,Italy,,,TAR411
Centro Vaccinale Hub 17,STS,Puglia,,,,Italy,,,LHK766
Centro Vaccinale Hub 18,STS,Puglia,,,,Italy,,,EHE612
Centro Vaccinale Hub 19,STS,Puglia,,,,Italy,,,MWL475
Centro Vaccinale Hub 2,STS,Puglia,,,,Italy,,,POY425
Centro Vaccinale Hub 20,STS,Puglia,,,,Italy,,,IZW299
Centro Vaccinale Hub 21,STS,Puglia,,,,Italy,,,DJI729
Centro Vaccinale Hub 22,STS,Puglia,,,,Italy,,,XKL472
Centro Vaccinale Hub 23,STS,Puglia,,,,Italy,,,YHD824
Centro Vaccinale Hub 24,STS,Puglia,,,,Italy,,,URG674
Centro Vaccinale Hub 25,STS,Puglia,,,,Italy,,,PXZ543
Centro Vaccinale Hub 26,STS,Puglia,,,,Italy,,,WXR903
Centro Vaccinale Hub 3,STS,Puglia,,,,Italy,,,CWC465
Centro Vaccinale Hub 4,STS,Puglia,,,,Italy,,,KMC575
Centro Vaccinale Hub 6,STS,Puglia,,,,Italy,,,DZX374
Centro Vaccinale Hub 7,STS,Puglia,,,,Italy,,,JJA278
Centro Vaccinale Hub 8,STS,Puglia,,,,Italy,,,ICP997
Centro Vaccinale Hub 9,STS,Puglia,,,,Italy,,,EIK977
"Centro Vaccinaz. Centro Servizi, Lotto B - San Ferdinando Di P.",STS,Puglia,,,,Italy,,,UBC972
Centro Vaccinaz. Pala Assi - Trani,STS,Puglia,,,,Italy,,,DLN376
Centro Vaccinaz. Palacosmai - Bisceglie,STS,Puglia,,,,Italy,,,QJZ916
Centro Vaccinaz. Paladisfida - Barletta,STS,Puglia,,,,Italy,,,SCE644
Centro Vaccinaz. Palazzetto Dello Sport - Canosa Di Puglia,STS,Puglia,,,,Italy,,,PAO366
Centro Vaccinaz. Palazzetto Dello Sport - Minervino Murge,STS,Puglia,,,,Italy,,,HVM704
Centro Vaccinaz. Palestra Scuola Elementare Don Milani -Trinitapoli,STS,Puglia,,,,Italy,,,PFO843
Centro Vaccinaz. Sala Innocenzo Xii - Spinazzola,STS,Puglia,,,,Italy,,,YBH195
Centro Vaccinaz. Scuola Media Pascoli - Margherita Di S.Avoia,STS,Puglia,,,,Italy,,,HIC640
Centro Vaccinaz. Struttura Polivalente San Valentino - Andria,STS,Puglia,,,,Italy,,,XZT704
Centro Vaccinazione -  Erchie,STS,Puglia,,,,Italy,,,OTG670
Centro Vaccinazione -  Fasano,STS,Puglia,,,,Italy,,,VLD930
Centro Vaccinazione -  Francavilla F.Na,STS,Puglia,,,,Italy,,,UWM216
Centro Vaccinazione -  Latiano,STS,Puglia,,,,Italy,,,UPK839
Centro Vaccinazione -  Mesagne,STS,Puglia,,,,Italy,,,AUX112
Centro Vaccinazione -  Oria,STS,Puglia,,,,Italy,,,LHV365
Centro Vaccinazione -  Ostuni,STS,Puglia,,,,Italy,,,IFO404
Centro Vaccinazione -  San Michele S.No,STS,Puglia,,,,Italy,,,WLW730
Centro Vaccinazione -  San Pancrazio S.No,STS,Puglia,,,,Italy,,,FFX986
Centro Vaccinazione -  San Pietro V.Co,STS,Puglia,,,,Italy,,,LPY468
Centro Vaccinazione -  Torchiarolo,STS,Puglia,,,,Italy,,,ZHQ703
Centro Vaccinazione -  Villa Castelli,STS,Puglia,,,,Italy,,,CPD381
Centro Vaccinazione - Carovigno,STS,Puglia,,,,Italy,,,WMZ902
Centro Vaccinazione - Ceglie M.Ca,STS,Puglia,,,,Italy,,,IHJ905
Centro Vaccinazione - Cisternino,STS,Puglia,,,,Italy,,,RAH789
Centro Vaccinazione - Di Summa,STS,Puglia,,,,Italy,,,MAB949
Centro Vaccinazione - Perrino,STS,Puglia,,,,Italy,,,PWX230
Centro Vaccinazione - San Donaci,STS,Puglia,,,,Italy,,,RJR447
Centro Vaccinazione - San Vito Dei N.,STS,Puglia,,,,Italy,,,CSN219
Centro Vaccinazione - Torre Santa Susanna,STS,Puglia,,,,Italy,,,DKC990
Cittadella Della Salute Presicce,STS,Puglia,,,,Italy,,,CUA931
"Comunita' Alloggio Per Anziani ""Santa Maria"" Cocumola",STS,Puglia,,,,Italy,,,HYS574
"Comunita' Educativa Per Minori ""Ambaraba'"" Carmiano",STS,Puglia,,,,Italy,,,GJL983
Dart - Utr N. 1,RIA,Puglia,,,,Italy,,,SND418
Dart - Utr N. 2,RIA,Puglia,,,,Italy,,,HNR532
Dart - Utr N. 7,RIA,Puglia,,,,Italy,,,OMD253
Dart Dipart. Ass. Riab. Territ,RIA,Puglia,,,,Italy,,,GDZ209
Dart- Utr N .6,RIA,Puglia,,,,Italy,,,FZG918
Dart- Utr N. 5,RIA,Puglia,,,,Italy,,,WSD915
Dip. Riab. Età Adulta,RIA,Puglia,,,,Italy,,,FEL828
Direzione Dipartimento Di Prevenzione - Ambulatorio Vaccinale,STS,Puglia,,,,Italy,,,UDH968
"Edificio Comunale ""Mercato Delle Idee"" Muro Leccese",STS,Puglia,,,,Italy,,,DCD372
"Edificio Scolastico ""M. Montessori"" Taurisano",STS,Puglia,,,,Italy,,,GWN662
Euroitalia - Casarano,RIA,Puglia,,,,Italy,,,QOW665
Ex Centro Sociale -Parabita,STS,Puglia,,,,Italy,,,JSP545
Ex Scuola Materna -Collepasso,STS,Puglia,,,,Italy,,,OUO500
Frangi Centro Riabilitazione,RIA,Puglia,,,,Italy,,,XTH675
"Gruppo Appartamento ""Azalea"" Veglie",STS,Puglia,,,,Italy,,,YZM252
"Gruppo Appartamento ""Convivendo"" Squinzano",STS,Puglia,,,,Italy,,,FBN292
"Gruppo Appartamento ""Gli Anni D'Oro"" Copertino",STS,Puglia,,,,Italy,,,TXJ832
"Gruppo Appartamento ""La Casa Di Squinzano"" Squinzano",STS,Puglia,,,,Italy,,,KFB312
"Gruppo Appartamento ""Mamma Maria"" Squinzano",STS,Puglia,,,,Italy,,,JWU446
"Gruppo Appartamento ""Nuova Vita"" Squinzano ",STS,Puglia,,,,Italy,,,USX281
"Gruppo Appartamento ""Vivimi"" Squinzano",STS,Puglia,,,,Italy,,,MPN354
Gruppo Appartamento 'Casa Del Nonno' Andrano,STS,Puglia,,,,Italy,,,BAM866
Gruppo Appartamento 'Nonni A Colori' Andrano,STS,Puglia,,,,Italy,,,TMN908
Hub Centro Commerciale 'Porte Dello Ionio' Taranto,STS,Puglia,,,,Italy,,,KOL255
Hub Ginosa Palazzetto Dello Sport,STS,Puglia,,,,Italy,,,NEJ253
Hub Grottaglie Palazzetto Sport 'Alessandro Marinelli',STS,Puglia,,,,Italy,,,RBG687
Hub Manduria Liceo De Sanctis Galilei,STS,Puglia,,,,Italy,,,JWW470
Hub Massafra Palazzetto Dello Sport 'Giovanni Paolo Ii',STS,Puglia,,,,Italy,,,KQE537
Hub Taranto Arsenale Marina Militare,STS,Puglia,,,,Italy,,,RXZ637
Hub Taranto Istituto Comprensivo 'Aldo Moro',STS,Puglia,,,,Italy,,,GLF543
Hub Taranto Palazzetto Comunale Ex Ricciardi,STS,Puglia,,,,Italy,,,LUU446
Hub Taranto Svam - Scuola Volontari Aeronautica Militare,STS,Puglia,,,,Italy,,,AAH844
Ist Riab Padri Trinitari,RIA,Puglia,,,,Italy,,,AXH324
Ist. Quarto Di Palo - Andria,RIA,Puglia,,,,Italy,,,YNA573
Istituti Scolastici E Università Comune Bari Provincia Ba Nome Punto Policlinico,STS,Puglia,,,,Italy,,,PZP763
Istituti Scolastici E Universita' Provincia Taranto,STS,Puglia,,,,Italy,,,IPI446
Istituto Oblate Di Nazareth,STS,Puglia,,,,Italy,,,BUS870
Istituto S. Agostino C.R.,RIA,Puglia,,,,Italy,,,YIW548
Istituto Santa Chiara Srl Lecc,RIA,Puglia,,,,Italy,,,DHE771
Kentron Srl Giovanni Paolo Ii,RIA,Puglia,,,,Italy,,,AOM871
La Ninfea Srl,STS,Puglia,,,,Italy,,,PXR988
La Nostra Famiglia -Lecce,RIA,Puglia,,,,Italy,,,VPM976
Locali Ex Onmi Casarano,STS,Puglia,,,,Italy,,,AXO708
"Museo ""Sigismondo Castromediano"" Lecce",STS,Puglia,,,,Italy,,,TMY924
"Oasi ""Mamma Bella"" Campi Sal.Na",STS,Puglia,,,,Italy,,,WMV232
Osmairm,RIA,Puglia,,,,Italy,,,HGN881
P.R.D. Maglie,RIA,Puglia,,,,Italy,,,XEL847
"Palazzetto Dello Sport ""San Giuseppe Da Copertino"" Lecce",STS,Puglia,,,,Italy,,,WYG928
Palazzetto Dello Sport -Casarano,STS,Puglia,,,,Italy,,,QKJ293
"Palestra Del Liceo Scienze Umane ""Q.Ennio"" Gallipoli",STS,Puglia,,,,Italy,,,DRY792
Presidio Ex Cph Cerignola,RIA,Puglia,,,,Italy,,,DPS317
Presidio Riab. Lucera,RIA,Puglia,,,,Italy,,,VTD624
Presidio Riabil L`Aquilone,RIA,Puglia,,,,Italy,,,ENM561
Presidio Riabilitativo,RIA,Puglia,,,,Italy,,,EFJ589
Presidio Riabilitativo Delicet,RIA,Puglia,,,,Italy,,,HUN484
Presidio Riabilitativo Sng,RIA,Puglia,,,,Italy,,,TID940
Presidio Riabilitazione Valori,RIA,Puglia,,,,Italy,,,OJK621
Pta Di Gagliano Del Capo -Ex Dialisi-,STS,Puglia,,,,Italy,,,ICR115
Punto Primula Vaccinale Palacarbonara-Asl Bari,STS,Puglia,,,,Italy,,,PVU920
Punto Primula Vaccinale Palacarrassi-Asl Bari,STS,Puglia,,,,Italy,,,IEH657
Punto Primula Vaccinale Palalaforgia-Asl Bari,STS,Puglia,,,,Italy,,,WZB657
Punto Primula Vaccinale Palalivatino-Asl Bari,STS,Puglia,,,,Italy,,,SJU176
Punto Primula Vaccinale Palavalenzano-Asl Bari,STS,Puglia,,,,Italy,,,SXG311
Punto Vaccinale Acquaviva,STS,Puglia,,,,Italy,,,LEQ110
Punto Vaccinale Adelfia,STS,Puglia,,,,Italy,,,XOC468
Punto Vaccinale Altamura,STS,Puglia,,,,Italy,,,EIW727
Punto Vaccinale Aps Romanelli Palmieri,STS,Puglia,,,,Italy,,,TCM400
Punto Vaccinale Bitetto,STS,Puglia,,,,Italy,,,UUJ744
Punto Vaccinale Bitonto,STS,Puglia,,,,Italy,,,UPD860
Punto Vaccinale Capurso,STS,Puglia,,,,Italy,,,TTE697
Punto Vaccinale Carbonara,STS,Puglia,,,,Italy,,,FES170
Punto Vaccinale Casa Alberta,STS,Puglia,,,,Italy,,,UHV619
Punto Vaccinale Casa Delle Abilità Speciali-Giovanni Paolo Ii,STS,Puglia,,,,Italy,,,WIZ252
Punto Vaccinale Casamassima,STS,Puglia,,,,Italy,,,UDC415
Punto Vaccinale Cassano,STS,Puglia,,,,Italy,,,LTC748
Punto Vaccinale Castellana,STS,Puglia,,,,Italy,,,BPA482
Punto Vaccinale Cavallino Hotel,STS,Puglia,,,,Italy,,,JCS363
Punto Vaccinale Centro Aziendale Network Contacts S.R.L.-Comune Di Molfetta,STS,Puglia,,,,Italy,,,XPP231
Punto Vaccinale Centro Sociale Educativo Del Comune,STS,Puglia,,,,Italy,,,XBH353
Punto Vaccinale Coppi Service S.R.L.,STS,Puglia,,,,Italy,,,ATT877
Punto Vaccinale Corato,STS,Puglia,,,,Italy,,,YOF431
Punto Vaccinale Di Alberobello,STS,Puglia,,,,Italy,,,IVJ383
Punto Vaccinale Domus Aurea,STS,Puglia,,,,Italy,,,OXZ965
Punto Vaccinale Ex Cto,STS,Puglia,,,,Italy,,,NJI629
Punto Vaccinale Gioia,STS,Puglia,,,,Italy,,,CUQ986
Punto Vaccinale Giovinazzo,STS,Puglia,,,,Italy,,,XXI370
Punto Vaccinale Gravina,STS,Puglia,,,,Italy,,,XNS304
Punto Vaccinale Grumo,STS,Puglia,,,,Italy,,,WJL925
Punto Vaccinale Hub-Altamura,STS,Puglia,,,,Italy,,,HMI883
Punto Vaccinale Hub-Fiera Del Levante Bari,STS,Puglia,,,,Italy,,,KPN608
Punto Vaccinale Hub-Scuola Media Rutigliano-Bitonto,STS,Puglia,,,,Italy,,,SBG634
Punto Vaccinale Insieme,STS,Puglia,,,,Italy,,,SSO865
Punto Vaccinale Japigia,STS,Puglia,,,,Italy,,,DAM238
Punto Vaccinale La Città Della Memoria,STS,Puglia,,,,Italy,,,THI271
Punto Vaccinale La Speranza,STS,Puglia,,,,Italy,,,BOV951
Punto Vaccinale Modugno,STS,Puglia,,,,Italy,,,QAT135
Punto Vaccinale Mola,STS,Puglia,,,,Italy,,,ANG985
Punto Vaccinale Molfetta,STS,Puglia,,,,Italy,,,JIB906
Punto Vaccinale Monopoli,STS,Puglia,,,,Italy,,,KRH487
Punto Vaccinale Noci,STS,Puglia,,,,Italy,,,WRC231
Punto Vaccinale Noicattaro,STS,Puglia,,,,Italy,,,OXK619
Punto Vaccinale Oasi,STS,Puglia,,,,Italy,,,WVV586
Punto Vaccinale Opera Casa Protetta Rssa Di Zazzera Caterina,STS,Puglia,,,,Italy,,,QTG492
Punto Vaccinale Palo Del Colle,STS,Puglia,,,,Italy,,,BCP564
Punto Vaccinale Piccola Casa Beata Chiara-Centro Diurno Alzheimer,STS,Puglia,,,,Italy,,,HTC695
Punto Vaccinale Picone,STS,Puglia,,,,Italy,,,AHT411
Punto Vaccinale Primula Catino,STS,Puglia,,,,Italy,,,NKO277
Punto Vaccinale Putignano,STS,Puglia,,,,Italy,,,COS150
Punto Vaccinale Regeneration Home,STS,Puglia,,,,Italy,,,BGH732
Punto Vaccinale Regina Pacis,STS,Puglia,,,,Italy,,,VAV975
"Punto Vaccinale Residenza Per Anziani ""Carmela Di Briindisi Valentini""",STS,Puglia,,,,Italy,,,JFO717
Punto Vaccinale Residenza Santa Rita,STS,Puglia,,,,Italy,,,AKK803
Punto Vaccinale Rutigliano,STS,Puglia,,,,Italy,,,QRM288
Punto Vaccinale Ruvo Di Puglia,STS,Puglia,,,,Italy,,,KEH251
Punto Vaccinale Sammichele,STS,Puglia,,,,Italy,,,GJA505
Punto Vaccinale San Paolo,STS,Puglia,,,,Italy,,,WFY672
Punto Vaccinale Sannicandro,STS,Puglia,,,,Italy,,,UEN643
Punto Vaccinale Santeramo,STS,Puglia,,,,Italy,,,GUZ247
Punto Vaccinale Santo Spirito,STS,Puglia,,,,Italy,,,VVX446
Punto Vaccinale Terlizzi,STS,Puglia,,,,Italy,,,UKB703
Punto Vaccinale Toritto,STS,Puglia,,,,Italy,,,BBM983
Punto Vaccinale Triggiano,STS,Puglia,,,,Italy,,,ZPL865
Punto Vaccinale Turi,STS,Puglia,,,,Italy,,,SAA171
Punto Vaccinale Valenzano,STS,Puglia,,,,Italy,,,IRE155
Punto Vaccinale Villa Fiorita,STS,Puglia,,,,Italy,,,KPZ966
Punto Vaccinale Windsor Club Del Nonno,STS,Puglia,,,,Italy,,,QXP685
Pvp Poggiardo Ex Asilo,STS,Puglia,,,,Italy,,,RQM494
Residenza Per Anziani Sant'Anna,STS,Puglia,,,,Italy,,,KWY744
Riabilia Centro Riabil.,RIA,Puglia,,,,Italy,,,JVM716
Riabilitazione Modugno,RIA,Puglia,,,,Italy,,,UZQ926
Robinson Club Italia S.P.A. Apulia -Ugento-,STS,Puglia,,,,Italy,,,VQR238
"Rsa ""Buon Pastore"" Lecce",STS,Puglia,,,,Italy,,,UQE437
"Rsa ""Casa Felice"" Novoli",STS,Puglia,,,,Italy,,,FNK879
"Rsa ""La Casa Dei Saggi"" Squinzano ",STS,Puglia,,,,Italy,,,FYF716
"Rsa ""Sacro Cuore"" Lecce",STS,Puglia,,,,Italy,,,MEW796
"Rsa ""Villa Antonella"" Lecce",STS,Puglia,,,,Italy,,,KTE371
"Rsa ""Villa Elena S.R.L."" Novoli",STS,Puglia,,,,Italy,,,IFE635
"Rsa ""Villa Immacolata"" Cutrofiano",STS,Puglia,,,,Italy,,,NKO265
"Rsa Per Anziani ""Santa Croce"" Novoli ",STS,Puglia,,,,Italy,,,ADD417
"Rssa ""Anni D'Oro"" Arnesano",STS,Puglia,,,,Italy,,,BAT482
"Rssa ""Giovanni Paolo Ii"" Soleto",STS,Puglia,,,,Italy,,,YOV707
"Rssa ""Mai Soli"" Leverano",STS,Puglia,,,,Italy,,,ZZE974
"Rssa ""Residenza Solaria"" Carmiano ",STS,Puglia,,,,Italy,,,MCH752
"Rssa ""Tommaso Grasso"" Salice Salentino",STS,Puglia,,,,Italy,,,LQB687
"Rssa ""Villa Antori"" Lizzanello",STS,Puglia,,,,Italy,,,IEU250
"Rssa ""Villa Chiara"" Calimera",STS,Puglia,,,,Italy,,,JRF396
"Rssa ""Villa Sofia"" Lecce",STS,Puglia,,,,Italy,,,DDX452
Rssa Comunale -Martano,STS,Puglia,,,,Italy,,,GSN826
Rssa Villa Dell'Armonia Altea Srl Novoli,STS,Puglia,,,,Italy,,,QEP618
S. Rita Riabilitazione,RIA,Puglia,,,,Italy,,,ISU596
S.A.R.A. Villa Maria Sanita',RIA,Puglia,,,,Italy,,,YLQ382
Sala Comunale Salve,STS,Puglia,,,,Italy,,,JCG268
Scuola Dell'Infanzia -Supersano,STS,Puglia,,,,Italy,,,IUC331
Scuola Elementare -Ruffano,STS,Puglia,,,,Italy,,,HCJ130
Scuole Distretto Di Campi Salentina,STS,Puglia,,,,Italy,,,DYE354
Scuole Distretto Di Casarano,STS,Puglia,,,,Italy,,,XBB210
Scuole Distretto Di Copertino,STS,Puglia,,,,Italy,,,TZE879
Scuole Distretto Di Gagliano Del Capo,STS,Puglia,,,,Italy,,,XBF428
Scuole Distretto Di Galatina,STS,Puglia,,,,Italy,,,DYI532
Scuole Distretto Di Gallipoli,STS,Puglia,,,,Italy,,,HQI406
Scuole Distretto Di Lecce,STS,Puglia,,,,Italy,,,DHU215
Scuole Distretto Di Maglie,STS,Puglia,,,,Italy,,,STX227
Scuole Distretto Di Martano,STS,Puglia,,,,Italy,,,XWO367
Scuole Distretto Di Nardo',STS,Puglia,,,,Italy,,,LSS291
Scuole Distretto Di Poggiardo,STS,Puglia,,,,Italy,,,KSR329
Scuole Distretto Di San Cesario,STS,Puglia,,,,Italy,,,NTP139
Scuole Distretto Di Ugento,STS,Puglia,,,,Italy,,,XOP555
Sede Lega Tumori Montesano Salentino,STS,Puglia,,,,Italy,,,VUC414
Serv. Riabil. Ambul. Lecce,RIA,Puglia,,,,Italy,,,CWP335
Sisp Campi Salentina,STS,Puglia,,,,Italy,,,PPK907
Sisp Casarano,STS,Puglia,,,,Italy,,,TTH205
Sisp Gagliano Del Capo,STS,Puglia,,,,Italy,,,UVJ360
Sisp Galatina,STS,Puglia,,,,Italy,,,BUD739
Sisp Gallipoli,STS,Puglia,,,,Italy,,,NVM375
Sisp Grottaglie - Ambulatorio Vaccinale,STS,Puglia,,,,Italy,,,YRD948
Sisp Lecce,STS,Puglia,,,,Italy,,,BRQ266
Sisp Lizzano - Ambulatorio Vaccinale,STS,Puglia,,,,Italy,,,LGG126
Sisp Maglie,STS,Puglia,,,,Italy,,,FIV555
Sisp Martano,STS,Puglia,,,,Italy,,,ZTL351
Sisp Martina Franca - Ambulatorio Vaccinale,STS,Puglia,,,,Italy,,,CKF272
Sisp Maruggio - Ambulatorio Vaccinale,STS,Puglia,,,,Italy,,,UZA622
Sisp Massafra - Ambulatorio Vaccinale,STS,Puglia,,,,Italy,,,AOQ976
Sisp Monteiasi - Ambulatorio Vaccinale,STS,Puglia,,,,Italy,,,JYV765
Sisp Montemesola - Ambulatorio Vaccinale,STS,Puglia,,,,Italy,,,LSC187
Sisp Nardo',STS,Puglia,,,,Italy,,,KEM707
Sisp Poggiardo,STS,Puglia,,,,Italy,,,VTY810
Sisp San Cesario Di Lecce,STS,Puglia,,,,Italy,,,TIO266
Sisp San Giorgio Ionico - Ambulatorio Vaccinale,STS,Puglia,,,,Italy,,,YYO575
Sisp Taranto - Ambulatorio Vaccinale,STS,Puglia,,,,Italy,,,UUA393
Sisp Tricase,STS,Puglia,,,,Italy,,,JFC312
Sisp Ugento,STS,Puglia,,,,Italy,,,OKX413
Soggiorno Per Anziani Cuore- Putignano,STS,Puglia,,,,Italy,,,NQU594
Soggiorno Per Anziani Cuore-Noci,STS,Puglia,,,,Italy,,,XAZ511
Stabile Zona Industriale -Nardo',STS,Puglia,,,,Italy,,,LMU258
Struttura Operativa Territoriale Della Protezione Civile Campi Sal.Na,STS,Puglia,,,,Italy,,,DXP728
U.O. Riab. Età Evolutiva,RIA,Puglia,,,,Italy,,,IFC238
Vivosa Apulia Resort -Ugento-,STS,Puglia,,,,Italy,,,XDQ767
Zona Industriale -Matino,STS,Puglia,,,,Italy,,,MHW513
A.I.A.S. Centro Riabil Tempio,RIA,Sardegna,,,,Italy,,,YXH313
A.I.A.S. Centro Riabilit. Bono,RIA,Sardegna,,,,Italy,,,YCJ951
A.I.A.S. Guspini,RIA,Sardegna,,,,Italy,,,BZH471
Aias -Arzana-,RIA,Sardegna,,,,Italy,,,CTY785
Aias Assemini,RIA,Sardegna,,,,Italy,,,OGW549
Aias Cagliari,RIA,Sardegna,,,,Italy,,,TCX215
Aias Capoterra,RIA,Sardegna,,,,Italy,,,IKL396
Aias Centro Di Carloforte,RIA,Sardegna,,,,Italy,,,VQF113
Aias Centro Di Cortoghiana,RIA,Sardegna,,,,Italy,,,VBC420
Aias Centro Di Domusnovas,RIA,Sardegna,,,,Italy,,,WNV202
Aias Centro Di Fluminimaggiore,RIA,Sardegna,,,,Italy,,,YVM752
Aias Centro Di Iglesias,RIA,Sardegna,,,,Italy,,,TCG147
Aias Centro Di Sant'Antioco,RIA,Sardegna,,,,Italy,,,COK311
Aias Centro Di Villarios,RIA,Sardegna,,,,Italy,,,GQH920
Aias Centro Riab. Berchidda,RIA,Sardegna,,,,Italy,,,LWM827
Aias Centro Riab. Sanluri,RIA,Sardegna,,,,Italy,,,OKG671
Aias Centro Riab. Serramanna,RIA,Sardegna,,,,Italy,,,XHA156
Aias Centro Riab. Villacidro,RIA,Sardegna,,,,Italy,,,JYL253
Aias Centro Riabilitaz.Sassari,RIA,Sardegna,,,,Italy,,,IRM433
Aias Decimomannu,RIA,Sardegna,,,,Italy,,,PJY429
Aias Lanusei,RIA,Sardegna,,,,Italy,,,HVL921
Aias Lotzorai,RIA,Sardegna,,,,Italy,,,AMD711
Aias Mandas,RIA,Sardegna,,,,Italy,,,UZC302
Aias Monastir,RIA,Sardegna,,,,Italy,,,PWF287
Aias Perdasdefogu,RIA,Sardegna,,,,Italy,,,MIQ170
Aias Pula,RIA,Sardegna,,,,Italy,,,VBW852
Aias Quartu S.Elena,RIA,Sardegna,,,,Italy,,,OPJ428
Aias San Vito,RIA,Sardegna,,,,Italy,,,RNG230
Aias Serdiana,RIA,Sardegna,,,,Italy,,,AIG846
Aias Sestu,RIA,Sardegna,,,,Italy,,,EVG299
Aias Tertenia,RIA,Sardegna,,,,Italy,,,QEM197
Aias Uta,RIA,Sardegna,,,,Italy,,,BJO656
Anffas Di Cagliari,RIA,Sardegna,,,,Italy,,,OWI760
Anffas Di Selargius,RIA,Sardegna,,,,Italy,,,OOW638
Anffas Di Settimo San Pietro,RIA,Sardegna,,,,Italy,,,GZU966
Anffas Onlus Di Cagliari,RIA,Sardegna,,,,Italy,,,BRH106
Anffas Onlus Sede Di Iglesias,RIA,Sardegna,,,,Italy,,,RLP223
C.  Sacro Cuore - Oristano,RIA,Sardegna,,,,Italy,,,CFM103
C. Fisioterapico S.B. - Suni,RIA,Sardegna,,,,Italy,,,GJA814
C. Riabil. Amb. Ctr - Oristano,RIA,Sardegna,,,,Italy,,,DCL923
C. Riabilitazione - Bosa,RIA,Sardegna,,,,Italy,,,PUA982
C. Riabilitazione - Ghilarza,RIA,Sardegna,,,,Italy,,,SJX214
C. Riabilitazione - Oristano,RIA,Sardegna,,,,Italy,,,SKV973
C. Riabilitazione - Terralba,RIA,Sardegna,,,,Italy,,,NEP752
C.C.R. S.M. Bambina - Oristano,RIA,Sardegna,,,,Italy,,,UUN702
C.M. Fkt Piria/Musso -Terralba,RIA,Sardegna,,,,Italy,,,UIL118
C.M.S.R. Srl,RIA,Sardegna,,,,Italy,,,BGQ582
Casa Della Salute Di Villacidro,STS,Sardegna,,,,Italy,,,AME329
Cen. Socio Sanitario Paracelso,RIA,Sardegna,,,,Italy,,,JEC296
Centro  A.I.A.S.  Orosei,RIA,Sardegna,,,,Italy,,,IQU707
Centro A.I.A.S. - Ales,RIA,Sardegna,,,,Italy,,,GII999
Centro A.I.A.S.  Aritzo,RIA,Sardegna,,,,Italy,,,DKD950
Centro A.I.A.S.  Oliena,RIA,Sardegna,,,,Italy,,,YFL787
Centro A.I.A.S.  Siniscola,RIA,Sardegna,,,,Italy,,,NXA336
Centro Aias Budduso',RIA,Sardegna,,,,Italy,,,BDJ930
Centro Card.Riab.Cardiopatici,RIA,Sardegna,,,,Italy,,,RVU363
Centro Di Salute Serramanna,STS,Sardegna,,,,Italy,,,LRN100
Centro Fisioterapico Tuvixeddu,RIA,Sardegna,,,,Italy,,,CIN262
Centro Fkt Dott. Mele S.R.L.,RIA,Sardegna,,,,Italy,,,BEF591
Centro Fkt Dr. Mele S.R.L C.D,RIA,Sardegna,,,,Italy,,,CWC496
Centro Fkt Dr. Mele S.R.L.,RIA,Sardegna,,,,Italy,,,JOM521
Centro Logos Gesti E Parole,RIA,Sardegna,,,,Italy,,,ZJH850
Centro Med.Fis.Riab. Cmf,RIA,Sardegna,,,,Italy,,,PCK955
Centro Prelievi Lunamatrona,STS,Sardegna,,,,Italy,,,JSO969
Centro Ria(Fondazione Marreri),RIA,Sardegna,,,,Italy,,,GKL999
Centro Riab. Amb. Ctr,RIA,Sardegna,,,,Italy,,,ODZ134
Centro Riab. Globale - Macomer,RIA,Sardegna,,,,Italy,,,OMI901
Centro Riab. Uonpia Carloforte,RIA,Sardegna,,,,Italy,,,WDG120
Centro Riab.Uonpia Carbonia,RIA,Sardegna,,,,Italy,,,SVT554
Centro Riab.Uonpia Iglesias,RIA,Sardegna,,,,Italy,,,KEO539
Centro Riabi. S.Lucia Srl,RIA,Sardegna,,,,Italy,,,VVI368
Centro Riabilitaz. Rnm S.R.L.,RIA,Sardegna,,,,Italy,,,EID199
Centro Riabilitazione Terranoa,RIA,Sardegna,,,,Italy,,,HZK305
Centro San Biagio Srl,RIA,Sardegna,,,,Italy,,,MCX366
Clinica Arborea,RIA,Sardegna,,,,Italy,,,XJX929
Coop. Soc. Ctr Onlus,RIA,Sardegna,,,,Italy,,,VEY180
Crn Centro Riabi. Neuropatici,RIA,Sardegna,,,,Italy,,,LPJ668
Ctr Esperienze Onlus Sanluri,RIA,Sardegna,,,,Italy,,,PFT479
Ctr-Centro Riabilitativo Aho,RIA,Sardegna,,,,Italy,,,NTP197
Ex Ipab Fondaz. S.G. Battista,RIA,Sardegna,,,,Italy,,,MDO358
Nuovo Centro Fisioterapico S.R,RIA,Sardegna,,,,Italy,,,XPO935
Opera Gesu` Nazareno Sassari,RIA,Sardegna,,,,Italy,,,SSQ590
Poliambulatorio -  Macomer,STS,Sardegna,,,,Italy,,,UKP979
Poliambulatorio - Nuoro,STS,Sardegna,,,,Italy,,,JSP153
Poliambulatorio - Oristano,STS,Sardegna,,,,Italy,,,XMP965
Poliambulatorio - Orosei,STS,Sardegna,,,,Italy,,,ZFW348
Poliambulatorio Di Guspini,STS,Sardegna,,,,Italy,,,VTO271
Poliambulatorio Di San Gavino Monreale,STS,Sardegna,,,,Italy,,,QVO813
Poliambulatorio Di Sanluri,STS,Sardegna,,,,Italy,,,MOH331
Poliambulatorio Ierzu,STS,Sardegna,,,,Italy,,,NWA567
Poliambulatorio Siniscola,STS,Sardegna,,,,Italy,,,WBL806
Poliambulatorio Tortoli',STS,Sardegna,,,,Italy,,,EHZ505
Policlinico Sassarese-Labor Sp,RIA,Sardegna,,,,Italy,,,WGF636
Punto Vaccinale - Olbia,STS,Sardegna,,,,Italy,,,IMP828
Punto Vaccinale - Tempio Pausania,STS,Sardegna,,,,Italy,,,QCT582
Punto Vaccinale C/O Palazzetto Dello Sport - Macomer,STS,Sardegna,,,,Italy,,,MQY346
Punto Vaccinale C/O Palestra Ex Poa - Siniscola,STS,Sardegna,,,,Italy,,,UWD776
Punto Vaccinale C/O Palestra Mariotti-Alghero,STS,Sardegna,,,,Italy,,,ZKM825
Punto Vaccinale C/O Palestra Scuola Media - Orosei,STS,Sardegna,,,,Italy,,,FZZ459
Punto Vaccinale Ciusa - Nuoro,STS,Sardegna,,,,Italy,,,OEB205
Punto Vaccinale Fiera Cagliari,STS,Sardegna,,,,Italy,,,KXO573
Punto Vaccinale Istituto Comprensivo Pascoli Deledda - Carbonia,STS,Sardegna,,,,Italy,,,MGJ249
Punto Vaccinale Maccioni - Nuoro,STS,Sardegna,,,,Italy,,,SHB230
Punto Vaccinale Palasport - Oristano,STS,Sardegna,,,,Italy,,,VJK297
Punto Vaccinale Palasport - Sant'Antioco,STS,Sardegna,,,,Italy,,,HWY874
Punto Vaccinale Quartiere Fieristico-Ozieri,STS,Sardegna,,,,Italy,,,WCH116
Punto Vaccinale Quartu Sant'Elena,STS,Sardegna,,,,Italy,,,YDQ606
Punto Vaccinale San Gavino Monreale,STS,Sardegna,,,,Italy,,,EQT586
Punto Vaccinale San Giovanni Suergiu (Palasport),STS,Sardegna,,,,Italy,,,OAR961
Punto Vaccinale Territoriale-Complesso Quadrilatero Sassari,STS,Sardegna,,,,Italy,,,TFC552
Punto Vaccinazione Territoriale Iglesias,STS,Sardegna,,,,Italy,,,UJC879
Riabilitazione Npi Olbiatempio,RIA,Sardegna,,,,Italy,,,KRY547
S.C. Riab.Glob.San.Socios.Ter.,RIA,Sardegna,,,,Italy,,,CMN719
Sarrabus/Gerrei Distr.4,RIA,Sardegna,,,,Italy,,,LOT653
Serv. Di Fisioterapia Distr. 5,RIA,Sardegna,,,,Italy,,,JFX834
Serv. Di Neuropsichia. Distr.5,RIA,Sardegna,,,,Italy,,,GUN763
Servizio Di N.P.I. - Ales,RIA,Sardegna,,,,Italy,,,UMU526
Servizio Di N.P.I. - Oristano,RIA,Sardegna,,,,Italy,,,KQA827
Servizio Di N.P.I. - Terralba,RIA,Sardegna,,,,Italy,,,OMD402
Sisp-Sassari Covid,STS,Sardegna,,,,Italy,,,LUL934
Sisp-Vaccini Covid-Oristano,STS,Sardegna,,,,Italy,,,INT240
Smeralda Rsa Di Padru Srl,RIA,Sardegna,,,,Italy,,,QQV793
Soc.Coop.Ctr Arl-Onlus,RIA,Sardegna,,,,Italy,,,YAK106
Studio Fkt Dr. Mele S.R.L,RIA,Sardegna,,,,Italy,,,YQD495
Tamponi Fkt Gallura S.R.L. - O,RIA,Sardegna,,,,Italy,,,MWG489
Tamponi Fkt Gallura Srl - A,RIA,Sardegna,,,,Italy,,,KKI857
Tamponi Fkt Turritana S.R.L.,RIA,Sardegna,,,,Italy,,,VRW396
U.O.N.P.I.A.,RIA,Sardegna,,,,Italy,,,ZRC238
Uoc Neur. Imf. Dis. Ca A.Vasta,RIA,Sardegna,,,,Italy,,,HAJ969
Uoc Neur. Inf. Dis. Ca A.Vasta,RIA,Sardegna,,,,Italy,,,CRI308
Uonpia Riab. San Gavino,RIA,Sardegna,,,,Italy,,,VSA515
Uonpia Riab. Sanluri,RIA,Sardegna,,,,Italy,,,WJZ167
Uonpia-Neuro Riabilitazione,RIA,Sardegna,,,,Italy,,,EJM843
A.I.A.S.,RIA,Sicilia,,,,Italy,,,QJY666
A.I.A.S. - Francofonte,RIA,Sicilia,,,,Italy,,,DUU760
A.I.A.S. - Piazza Armerina,RIA,Sicilia,,,,Italy,,,VBT475
A.I.A.S. - Taormina,RIA,Sicilia,,,,Italy,,,RUH410
A.I.A.S. Onlus,RIA,Sicilia,,,,Italy,,,LAL505
A.I.A.S. Onlus Sez Di Rosolini,RIA,Sicilia,,,,Italy,,,QRG917
A.I.A.S. Palazzolo A.,RIA,Sicilia,,,,Italy,,,VXO841
A.I.A.S. -Partinico,RIA,Sicilia,,,,Italy,,,EZE441
A.I.A.S. Sez.Acirealec. Giarre,RIA,Sicilia,,,,Italy,,,EFC586
A.I.A.S.Sez.Di Agrigento Onlus,RIA,Sicilia,,,,Italy,,,KGB597
A.N.F.F.A.S. Onlus Di Catania,RIA,Sicilia,,,,Italy,,,ZCI176
A.N.F.F.A.S. Onlus Messina,RIA,Sicilia,,,,Italy,,,ZXB608
A.R.A. - Arcobaleno,RIA,Sicilia,,,,Italy,,,JVJ630
Aias 'G. Genovese' Sez. Barcel,RIA,Sicilia,,,,Italy,,,QBB144
Aias Onlus Sez. Castelvetrano,RIA,Sicilia,,,,Italy,,,SIE388
Aias Pachino,RIA,Sicilia,,,,Italy,,,GNG900
Aias San Filippo Del Mela-Onlu,RIA,Sicilia,,,,Italy,,,MFO314
Aias Sez. Acireale,RIA,Sicilia,,,,Italy,,,JSS685
Aias Sez. Messina,RIA,Sicilia,,,,Italy,,,GFD856
Aias Sez.Acireale C.Randazzo,RIA,Sicilia,,,,Italy,,,KYE914
Ambulatorio Vaccinale Covid 19 Via Mule'  Cl,STS,Sicilia,,,,Italy,,,IGV928
Ambulatorio Vaccinale Covid Presidio M.I.Longo-Mussomeli,STS,Sicilia,,,,Italy,,,WFC818
Ambulatorio Vaccinale Covid Presidio S_Elia,STS,Sicilia,,,,Italy,,,BPT510
Ambulatorio Vaccinale Covid Presidio V.E. Gela,STS,Sicilia,,,,Italy,,,KYS241
Ambulatorio Vaccinale Covid Territoriale - Gela,STS,Sicilia,,,,Italy,,,HKB342
Ambulatorio Vaccinale Covid Territoriale- Caltanissetta,STS,Sicilia,,,,Italy,,,LEX230
Ambulatorio Vaccinale Covid Territoriale-Niscemi,STS,Sicilia,,,,Italy,,,HLZ912
Ass. Assistenz. 'Villa Sandra',RIA,Sicilia,,,,Italy,,,YGX702
Ass. 'Casa Fam.Rosetta' Onilus,RIA,Sicilia,,,,Italy,,,DGF898
Ass.Assist.Villa Sandra,RIA,Sicilia,,,,Italy,,,HBT852
Ass.C.Fam.Rosetta Don F.Dierna,RIA,Sicilia,,,,Italy,,,ESN554
Ass.C.Famiglia Rosetta,RIA,Sicilia,,,,Italy,,,LAF194
Ass.Istituto Regina Virginum,RIA,Sicilia,,,,Italy,,,PQF400
Ass.J.F.Kennedy - C.Riab.Onlus,RIA,Sicilia,,,,Italy,,,HSJ924
Ass.J.F.Kennedy Acireale,RIA,Sicilia,,,,Italy,,,SGD951
Ass.Ne Casa Famiglia Rosetta,RIA,Sicilia,,,,Italy,,,OJZ837
Assoc. Suor Rosina La Grua,RIA,Sicilia,,,,Italy,,,IQC849
Associazione Aress,RIA,Sicilia,,,,Italy,,,LMG712
Associazione Asper,RIA,Sicilia,,,,Italy,,,VGO806
Associazione Eidos - Onlus,RIA,Sicilia,,,,Italy,,,KPO877
Associazione Maior,RIA,Sicilia,,,,Italy,,,VUH127
Associazione Nuova Luce Onlus,RIA,Sicilia,,,,Italy,,,ZTA400
Associazione Oasi Cana Onlus,RIA,Sicilia,,,,Italy,,,POZ822
Associazione Padre Pio,RIA,Sicilia,,,,Italy,,,GZC552
Associazione Primavera Onlus,RIA,Sicilia,,,,Italy,,,AGI482
Associazione Primavera Onlus -,RIA,Sicilia,,,,Italy,,,HLB525
Auxilium C/Tro  Spastici Riab.,RIA,Sicilia,,,,Italy,,,WRJ802
Az. Osp. Univ. Paolo Giaccone,STS,Sicilia,,,,Italy,,,TVU573
Azienda Ospedaliera Per L'Emergenza Cannizzaro,STS,Sicilia,,,,Italy,,,QKU689
Azienda Ospedaliera Universitaria Policlinico G. Martino,STS,Sicilia,,,,Italy,,,CUZ678
C. Riab. Medical Center Srl,RIA,Sicilia,,,,Italy,,,CUH654
C. Riab. Quoad Valitudinem,RIA,Sicilia,,,,Italy,,,NWF708
C.Della Speranza Don Angelo G.,RIA,Sicilia,,,,Italy,,,UQX171
C.E.P.A.I.D. Onlus,RIA,Sicilia,,,,Italy,,,TKX634
C.M.S. Riab.In Età Evol.,RIA,Sicilia,,,,Italy,,,UQV323
C.Riab.Oda 'Pecorino-Paterno',RIA,Sicilia,,,,Italy,,,CMY961
C.Riabil.Impp.M.Ss.Del Carmelo,RIA,Sicilia,,,,Italy,,,FOK276
C.S.R. - Barrafranca,RIA,Sicilia,,,,Italy,,,QCS669
C.S.R. - Centro Di Comiso,RIA,Sicilia,,,,Italy,,,NCO441
C.S.R. - Enna,RIA,Sicilia,,,,Italy,,,VLA112
C.S.R. - Nicosia,RIA,Sicilia,,,,Italy,,,TTM498
C.S.R. Centro Di Modica,RIA,Sicilia,,,,Italy,,,GGD843
C.S.R. Centro Di Ragusa,RIA,Sicilia,,,,Italy,,,MGF623
C.S.R. Soc. Cons.Arl - Melilli,RIA,Sicilia,,,,Italy,,,GLW527
C.S.R. Soc.Cons.Arl - Augusta,RIA,Sicilia,,,,Italy,,,VZE672
C.S.R.Militello Val Di Catania,RIA,Sicilia,,,,Italy,,,WDF238
C.S.R.Soc.Cons. A.R.L.,RIA,Sicilia,,,,Italy,,,LPD666
C/Tro Crs Aias Mazara,RIA,Sicilia,,,,Italy,,,CLN195
Capp Cooperativa Sociale,RIA,Sicilia,,,,Italy,,,VMJ791
Cdr A.Ev.Pecorino-S.G.La Punta,RIA,Sicilia,,,,Italy,,,PXN539
Ce. Op. A. R.Onlus,RIA,Sicilia,,,,Italy,,,JHN899
Centro A.I.A.S. Belmonte Mezza,RIA,Sicilia,,,,Italy,,,URN276
Centro Amico Onlus,RIA,Sicilia,,,,Italy,,,WSA880
Centro Diaconale Ist. Valdese,RIA,Sicilia,,,,Italy,,,XFU779
Centro Fis. Spazio Vitale Srl,RIA,Sicilia,,,,Italy,,,OIA189
Centro Med. Soc. Neuromotulesi,RIA,Sicilia,,,,Italy,,,JVV852
Centro Riab. S.Teresa Di Riva,RIA,Sicilia,,,,Italy,,,CCF675
Centro Riabil. Villa Angela,RIA,Sicilia,,,,Italy,,,JZX997
Centro Riabil.Villa Francesca,RIA,Sicilia,,,,Italy,,,BNR768
Centro Riabilit. Zacco - Enna,RIA,Sicilia,,,,Italy,,,NPH476
Centro Riabilitaz.Neuromotoria,RIA,Sicilia,,,,Italy,,,COU150
Centro Riabilitazione Acquedol,RIA,Sicilia,,,,Italy,,,RFC979
Centro Riabilitazione Oreto,RIA,Sicilia,,,,Italy,,,XTC839
Centro Terapeut Riabilitat Ctr,RIA,Sicilia,,,,Italy,,,YVE988
Centro Vaccinale - Alcamo,STS,Sicilia,,,,Italy,,,NWO221
Centro Vaccinale - Castelvetrano,STS,Sicilia,,,,Italy,,,CFZ928
Centro Vaccinale - Favignana,STS,Sicilia,,,,Italy,,,GAI370
Centro Vaccinale - Marsala,STS,Sicilia,,,,Italy,,,VZG744
Centro Vaccinale - Mazara  Del Vallo,STS,Sicilia,,,,Italy,,,JPO888
Centro Vaccinale  Pala  Atria - Partanna,STS,Sicilia,,,,Italy,,,RAP495
Centro Vaccinale - Pantelleria,STS,Sicilia,,,,Italy,,,RTC758
Centro Vaccinale - Salemi,STS,Sicilia,,,,Italy,,,HPG593
Centro Vaccinale Anti Covid_19 C/O Guardia Medica Buccheri,STS,Sicilia,,,,Italy,,,QOH823
Centro Vaccinale Anti Covid_19 Uscai Melilli,STS,Sicilia,,,,Italy,,,VUX579
Centro Vaccinale Anti Covid-19  Ist. Scolast. Costa Augusta,STS,Sicilia,,,,Italy,,,DBO269
Centro Vaccinale Anti Covid-19 C/O Guardia Medica Carlentini,STS,Sicilia,,,,Italy,,,CTM714
Centro Vaccinale Anti Covid-19 C/O Guardia Medica Francofonte,STS,Sicilia,,,,Italy,,,LLC658
Centro Vaccinale Anti Covid-19 C/O Poliamb. Sortino,STS,Sicilia,,,,Italy,,,BPU656
Centro Vaccinale Anti Covid-19 C/O Semp Canicattini B.,STS,Sicilia,,,,Italy,,,QKM482
Centro Vaccinale Anti Covid-19 C/O Semp Ferla,STS,Sicilia,,,,Italy,,,XKM854
Centro Vaccinale Anti Covid-19 C/O Semp Lentini,STS,Sicilia,,,,Italy,,,BBO836
Centro Vaccinale Anti Covid-19 C/O Semp Melilli,STS,Sicilia,,,,Italy,,,KSL716
Centro Vaccinale Anti Covid-19 C/O Semp Pachino,STS,Sicilia,,,,Italy,,,ZON985
Centro Vaccinale Anti Covid-19 C/O Semp Rosolini,STS,Sicilia,,,,Italy,,,KBE332
Centro Vaccinale Anti Covid-19 C/O Semp Siracusa,STS,Sicilia,,,,Italy,,,DJN112
Centro Vaccinale Anti Covid-19 C/O Semp Solarino,STS,Sicilia,,,,Italy,,,JFR659
Centro Vaccinale Anti Covid-19 Consorzio Cerica Priolo,STS,Sicilia,,,,Italy,,,GST221
Centro Vaccinale Anti Covid-19 P.O. Avola,STS,Sicilia,,,,Italy,,,OYO913
Centro Vaccinale Anti Covid-19 P.O. Lentini,STS,Sicilia,,,,Italy,,,WFK605
Centro Vaccinale Anti Covid-19 Urban Center Siracusa,STS,Sicilia,,,,Italy,,,EVJ696
Centro Vaccinale Anti-Covid-19 Protezione Civile Palazzolo A.,STS,Sicilia,,,,Italy,,,RCN510
Centro Vaccinale Antti Covid-19 P.O. Augusta,STS,Sicilia,,,,Italy,,,OYO224
Centro Vaccinale Buseto Palizzolo,STS,Sicilia,,,,Italy,,,HJN584
Centro Vaccinale Hub Portopalo,STS,Sicilia,,,,Italy,,,YIL690
Centro Vaccinale Pala D'Angelo - Alcamo,STS,Sicilia,,,,Italy,,,ODN246
Centro Vaccinale San  Michele -Erice,STS,Sicilia,,,,Italy,,,INM620
Centro Vaccinazioe Covid C/O Po Basilotta,STS,Sicilia,,,,Italy,,,SLQ419
Centro Vaccinazione Anti Covid-19 Agrigento,STS,Sicilia,,,,Italy,,,XUF967
Centro Vaccinazione Anti Covid-19 Canicatti,STS,Sicilia,,,,Italy,,,FZV647
Centro Vaccinazione Anti Covid-19 Hub Sciacca,STS,Sicilia,,,,Italy,,,KKG978
Centro Vaccinazione Anti Covid-19 Licata,STS,Sicilia,,,,Italy,,,DVM328
Centro Vaccinazione Anti Covid-19 Palacongressi Villaggio Mose¿,STS,Sicilia,,,,Italy,,,NBC248
Centro Vaccinazione Anti Covid-19 Poliambulatorio Agrigento,STS,Sicilia,,,,Italy,,,SMQ274
Centro Vaccinazione Anti Covid-19 Poliambulatorio Bivona,STS,Sicilia,,,,Italy,,,DWL328
Centro Vaccinazione Anti Covid-19 Poliambulatorio Cammarata,STS,Sicilia,,,,Italy,,,GUZ778
Centro Vaccinazione Anti Covid-19 Poliambulatorio Canicatti,STS,Sicilia,,,,Italy,,,RGU345
Centro Vaccinazione Anti Covid-19 Poliambulatorio Favara,STS,Sicilia,,,,Italy,,,IPV627
Centro Vaccinazione Anti Covid-19 Poliambulatorio Menfi,STS,Sicilia,,,,Italy,,,NDR290
Centro Vaccinazione Anti Covid-19 Ribera,STS,Sicilia,,,,Italy,,,EFX662
Centro Vaccinazione Anti Covid-19 Sciacca,STS,Sicilia,,,,Italy,,,UXL546
Centro Vaccinazione Anticovid - Barcellona,STS,Sicilia,,,,Italy,,,CPT108
Centro Vaccinazione Anticovid - Concattedrale Patti,STS,Sicilia,,,,Italy,,,VWS987
Centro Vaccinazione Anticovid - Hub Capo D'Orlando,STS,Sicilia,,,,Italy,,,QKG634
Centro Vaccinazione Anticovid - Hub Ex Fiera Di Messina,STS,Sicilia,,,,Italy,,,FOU772
Centro Vaccinazione Anticovid - Hub Ex Ospedale Militare,STS,Sicilia,,,,Italy,,,JLQ158
Centro Vaccinazione Anticovid - Hub Lumbi Taormina,STS,Sicilia,,,,Italy,,,SBN401
Centro Vaccinazione Anticovid - Hub Palarescifina Messina,STS,Sicilia,,,,Italy,,,WPU617
Centro Vaccinazione Anticovid - Hub Parco Corolla Milazzo,STS,Sicilia,,,,Italy,,,IOL649
Centro Vaccinazione Anticovid - Milazzo,STS,Sicilia,,,,Italy,,,FJT983
Centro Vaccinazione Anticovid - Palatenda Brolo,STS,Sicilia,,,,Italy,,,MCR596
Centro Vaccinazione Anticovid - Patti,STS,Sicilia,,,,Italy,,,MOP834
Centro Vaccinazione Anticovid - Po Barcellona,STS,Sicilia,,,,Italy,,,FJU833
Centro Vaccinazione Anticovid - Po Lipari,STS,Sicilia,,,,Italy,,,UXE859
Centro Vaccinazione Anticovid - Po Milazzo,STS,Sicilia,,,,Italy,,,ZBL238
Centro Vaccinazione Anticovid - Po Mistretta,STS,Sicilia,,,,Italy,,,JMS226
Centro Vaccinazione Anticovid - Po Patti C/O Basilica Santi Martiri,STS,Sicilia,,,,Italy,,,JCU177
Centro Vaccinazione Anticovid - Po S. Agata M.Llo,STS,Sicilia,,,,Italy,,,GNA873
Centro Vaccinazione Anticovid - Po Taormina,STS,Sicilia,,,,Italy,,,BQO542
Centro Vaccinazione Anticovid - S. Alessio Siculo,STS,Sicilia,,,,Italy,,,GEQ319
Centro Vaccinazione Anticovid - S. Teresa Di Riva,STS,Sicilia,,,,Italy,,,SZF165
Centro Vaccinazione Corleone,STS,Sicilia,,,,Italy,,,SHZ297
Centro Vaccinazione Covid C/O Po Chiello,STS,Sicilia,,,,Italy,,,EBR814
Centro Vaccinazione Covid C/O Po Umberto I,STS,Sicilia,,,,Italy,,,FVL893
Centrpo Vaccinazione Anti Covid-19 C/O Semp Floridia,STS,Sicilia,,,,Italy,,,WHZ452
Comunita` Della Speranza,RIA,Sicilia,,,,Italy,,,ARD360
"Confr. S, Maria Del Soccorso",RIA,Sicilia,,,,Italy,,,XEF720
Consorsio Siciliano Riabilitaz,RIA,Sicilia,,,,Italy,,,KGW187
Consorzio Siciliano Riabilitaz,RIA,Sicilia,,,,Italy,,,CRM697
Coop. Sociale Speranza 2000,RIA,Sicilia,,,,Italy,,,IBY875
Cooperativa Capp,RIA,Sicilia,,,,Italy,,,VVW327
Crs Alcamo,RIA,Sicilia,,,,Italy,,,QAE696
Csr - Salemi,RIA,Sicilia,,,,Italy,,,CDU345
Csr Aias Paceco,RIA,Sicilia,,,,Italy,,,TNS292
Csr Cataniasez Marsala,RIA,Sicilia,,,,Italy,,,BNL858
Cto - Centro Vaccinazione,STS,Sicilia,,,,Italy,,,NXW189
Cts Ist.Medico Psicoped.Onlus,RIA,Sicilia,,,,Italy,,,DFX415
Dip.Prev Ambulatorio Vaccinale 1 Ragusa,STS,Sicilia,,,,Italy,,,QZI887
Dip.Prev Ambulatorio Vaccinale 2 Vittoria,STS,Sicilia,,,,Italy,,,EVH163
Dip.Prev Ambulatorio Vaccinale 3 Modica,STS,Sicilia,,,,Italy,,,ESS192
Dip.Prev Ambulatorio Vaccinale 4  Comiso Ex Osp.,STS,Sicilia,,,,Italy,,,OED724
Dip.Prev Ambulatorio Vaccinale 5  Ospedale Busacca,STS,Sicilia,,,,Italy,,,FJW683
Dip.Prev Ambulatorio Vaccinale 6 Pozzallo,STS,Sicilia,,,,Italy,,,LMN414
Dip.Prev Ambulatorio Vaccinale 7 Ispica,STS,Sicilia,,,,Italy,,,NEB488
Dismed Onlus,RIA,Sicilia,,,,Italy,,,KLX233
Distretto Modica Pv Territoriale,STS,Sicilia,,,,Italy,,,JUI726
Distretto Modica Pvo Modica,STS,Sicilia,,,,Italy,,,BDL133
Distretto Ragusa Pv Ompa,STS,Sicilia,,,,Italy,,,FBB943
Distretto Ragusa Pvo Gpii,STS,Sicilia,,,,Italy,,,CWF244
Distretto Vittoria Pvo Comiso,STS,Sicilia,,,,Italy,,,ENG700
Distretto Vittoria Pvo Vittoria,STS,Sicilia,,,,Italy,,,GYX176
Div.-Med. Fisica Riabilitativa,RIA,Sicilia,,,,Italy,,,OAN305
Eubios,RIA,Sicilia,,,,Italy,,,VUT384
Eubios Soc. Coop. Sociale,RIA,Sicilia,,,,Italy,,,TFI671
Fondazione C. D'Alessandro Onl,RIA,Sicilia,,,,Italy,,,MJF318
Fondazione O.R.T.U.S. Onlus,RIA,Sicilia,,,,Italy,,,JWC292
Fondazione S. Merici  Siracusa,RIA,Sicilia,,,,Italy,,,ZZD829
Hub Auditorium Misterbianco Covid,STS,Sicilia,,,,Italy,,,UPW907
Hub Bronte Covid,STS,Sicilia,,,,Italy,,,VGE894
Hub Ex Mercato Ortofrutticolo Covid,STS,Sicilia,,,,Italy,,,LSI941
Hub Pala Tupparello Acireale Covid,STS,Sicilia,,,,Italy,,,CGU136
Hub Palabattiati S. Agata Lì Battiati Covid,STS,Sicilia,,,,Italy,,,JEJ615
Hub Palazzetto Del Diporto Caltagirone Covid,STS,Sicilia,,,,Italy,,,YBW859
Hub Vaccinale Pala Cossiga-Gela,STS,Sicilia,,,,Italy,,,JSO381
I.M.P.P. Giovanni Xxiii,RIA,Sicilia,,,,Italy,,,NUM319
I.M.Psic.Ped. Villa Nazaret,RIA,Sicilia,,,,Italy,,,VBR588
I.R.C.C.S. Neurolesi Bonino Pulejo P.O. Piemonte,STS,Sicilia,,,,Italy,,,FOS638
I.R.C.C.S. Neurolesi Bonino Pulejo-P.O. Casazza,STS,Sicilia,,,,Italy,,,UZK782
Io Comunico Srl,RIA,Sicilia,,,,Italy,,,NRV598
Ipab Casa Del Fanciullo,RIA,Sicilia,,,,Italy,,,WLH645
Isas Armonia Onlus,RIA,Sicilia,,,,Italy,,,GVF314
Ist. S. A. Merici - Canicattin,RIA,Sicilia,,,,Italy,,,ARY597
Ist.Riab.Villag. San Giuseppe,RIA,Sicilia,,,,Italy,,,WSU156
Istituto Dei Ciechi,RIA,Sicilia,,,,Italy,,,KUQ264
Istituto M.P.P. Lucia Mangano,RIA,Sicilia,,,,Italy,,,VSD637
Lega Del Filo D'Oro Onlus,RIA,Sicilia,,,,Italy,,,MHG680
Madre Del Divino Amore,RIA,Sicilia,,,,Italy,,,DVH128
Oasi Di Torretta Onlus,RIA,Sicilia,,,,Italy,,,XDG889
Ospedale Civico,STS,Sicilia,,,,Italy,,,DPP406
Ospedale Dei Bambini G. Di Cristina,STS,Sicilia,,,,Italy,,,GSV381
Presidio Ospedaliero Gaspare Rodolico,STS,Sicilia,,,,Italy,,,GSC209
Presidio Ospedaliero S.Marco,STS,Sicilia,,,,Italy,,,VHA592
Punto Vaccinale  12 Petralia,STS,Sicilia,,,,Italy,,,HYK349
Punto Vaccinale  14 Carini,STS,Sicilia,,,,Italy,,,IVG320
Punto Vaccinale  15  Lampedusa E Linosas,STS,Sicilia,,,,Italy,,,OUK698
Punto Vaccinale 11 Palermo,STS,Sicilia,,,,Italy,,,NKN163
Punto Vaccinale 13 Po Ingrassia,STS,Sicilia,,,,Italy,,,PVH242
Punto Vaccinale 16-Hub Misilmeri,STS,Sicilia,,,,Italy,,,BPZ264
Punto Vaccinale 17- Hub C/O Centro Commerciale 'La Torre',STS,Sicilia,,,,Italy,,,CXG592
Punto Vaccinale 18- Hub Cefalu',STS,Sicilia,,,,Italy,,,HZX258
Punto Vaccinale 19 -  Hub Bagheria,STS,Sicilia,,,,Italy,,,QBN118
Punto Vaccinale 2 Partinico,STS,Sicilia,,,,Italy,,,IPX265
Punto Vaccinale 20 -Carini C/O 'Poseidon',STS,Sicilia,,,,Italy,,,OUQ591
Punto Vaccinale 3 Corleone,STS,Sicilia,,,,Italy,,,UJW171
Punto Vaccinale 4 Termini,STS,Sicilia,,,,Italy,,,USD441
Punto Vaccinale 5 Cinisi,STS,Sicilia,,,,Italy,,,GJQ274
Punto Vaccinale 6 Marineo,STS,Sicilia,,,,Italy,,,BRW747
Punto Vaccinale 7 Petralia,STS,Sicilia,,,,Italy,,,VAE862
Punto Vaccinale 8 Bagheria,STS,Sicilia,,,,Italy,,,XGQ295
Punto Vaccinale 9 Lercara,STS,Sicilia,,,,Italy,,,NQF828
Pvo Acireale Covid,STS,Sicilia,,,,Italy,,,DGS788
Pvo Biancavilla Covid,STS,Sicilia,,,,Italy,,,BGS346
Pvo Bronte Covid,STS,Sicilia,,,,Italy,,,CJD199
Pvo Caltagirone Covid,STS,Sicilia,,,,Italy,,,RIP235
Pvo Giarre Covid,STS,Sicilia,,,,Italy,,,YAT899
Pvo Militello Covid,STS,Sicilia,,,,Italy,,,TYM395
Pvo Paternò Covid,STS,Sicilia,,,,Italy,,,XLV936
Pvt Ambulatorio Belpasso Covid,STS,Sicilia,,,,Italy,,,IGF960
Pvt Ambulatorio Linguaglossa Covid,STS,Sicilia,,,,Italy,,,MKP551
Pvt Ambulatorio Mascalucia Covid,STS,Sicilia,,,,Italy,,,OGH789
Pvt Ambulatorio Randazzo Covid,STS,Sicilia,,,,Italy,,,EBO989
Pvt Ambulatorio Scordia Covid,STS,Sicilia,,,,Italy,,,FNF807
Pvt Avis Ragusa,STS,Sicilia,,,,Italy,,,TIN205
Pvt Poliambulatorio Adrano Covid,STS,Sicilia,,,,Italy,,,BQN176
Rg Hub Palaminardi Ragusa,STS,Sicilia,,,,Italy,,,MEQ619
Rg Hub-Centro Vaccinazione Covid Ag Distribuzione Modica,STS,Sicilia,,,,Italy,,,ZGN652
Rg Hub-Centro Vaccinazione Covid Fiera Emaia Vittoria,STS,Sicilia,,,,Italy,,,KRJ152
Rg Hub-Centro Vaccinazione Covid Ospedale Civile,STS,Sicilia,,,,Italy,,,WNZ295
Rg Hubprotezione Civile Scicli,STS,Sicilia,,,,Italy,,,OWE395
Rg Pvt - Mmg Amb Vaccini Presso Proprio Ambulatorio,STS,Sicilia,,,,Italy,,,TID852
Rg Pvt - Mmg Dom - Vaccini A Domicilio Dell'Assistito,STS,Sicilia,,,,Italy,,,CPA530
Rg Pvt - Vaccinazioni Domiciliari,STS,Sicilia,,,,Italy,,,HVE367
San Martino Coop.S.C. Isoptera,RIA,Sicilia,,,,Italy,,,THB911
Soc. Coop. Amica,RIA,Sicilia,,,,Italy,,,GZN365
Soc. Serv. Riabilitativi Spa,RIA,Sicilia,,,,Italy,,,MBP674
Societa` Polisportiva Palermo,RIA,Sicilia,,,,Italy,,,XBI197
Stabilimento Pfizer Covid,STS,Sicilia,,,,Italy,,,QYP932
Tre Ali Onlus,RIA,Sicilia,,,,Italy,,,OLY832
U.O.C. Riabilit Minori A. Metr,RIA,Sicilia,,,,Italy,,,PZA370
Un. Ital. Ciechi E Ipovedenti,RIA,Sicilia,,,,Italy,,,RUI907
Uoc Riabilitazione Adulti E Mi,RIA,Sicilia,,,,Italy,,,VXB333
Uoc. Med. Fis. E Riabilitativa,RIA,Sicilia,,,,Italy,,,MDC307
Uos. Med.Fis.E Riabilitativa,RIA,Sicilia,,,,Italy,,,MLF790
Villa Nave - Suore Teatine,RIA,Sicilia,,,,Italy,,,ORP912
A.I.A.B.A. Onlus,RIA,Toscana,,,,Italy,,,HTS928
A.I.A.B.A. Onlus Cd D'Annunzio,RIA,Toscana,,,,Italy,,,ZAW914
A.I.R.R.I. Grosseto,RIA,Toscana,,,,Italy,,,IDM715
A.I.R.R.I.Santa Fiora,RIA,Toscana,,,,Italy,,,GKR172
A.N.F.F.A.S.,RIA,Toscana,,,,Italy,,,IUO779
Aias,RIA,Toscana,,,,Italy,,,PCZ806
Amb.Riab. Villa Ersilia,RIA,Toscana,,,,Italy,,,OFC614
Ambulatori Ex Asl3,RIA,Toscana,,,,Italy,,,XHT371
Ambulatori Misericordia Srl Ca,RIA,Toscana,,,,Italy,,,QKW692
Anffas Onlus Di Firenze,RIA,Toscana,,,,Italy,,,HSY539
Ass.Trisomia21Onlus Centro Di,RIA,Toscana,,,,Italy,,,AVL461
Associazione Autismo Firenze O,RIA,Toscana,,,,Italy,,,XYX323
Auditorium Comunale Loro Ciuff,STS,Toscana,,,,Italy,,,SDZ766
Autodromo Scarperia,STS,Toscana,,,,Italy,,,KHW287
Az. Ospedaliero - Universitari,RIA,Toscana,,,,Italy,,,ZUF618
Azienda Ospedaliera Meyer,RIA,Toscana,,,,Italy,,,KKC818
Azienda Ospedaliera Universita,RIA,Toscana,,,,Italy,,,NQU102
Blue Clinic Srl,RIA,Toscana,,,,Italy,,,MNN568
C.A.R.O. Ospedale S.Donato Are,RIA,Toscana,,,,Italy,,,ROW901
C.Diurno Celebrolesi F.Primi,RIA,Toscana,,,,Italy,,,SNU691
C.R.I. Ist.Anna Torrigiani,RIA,Toscana,,,,Italy,,,MND909
C.T.E. Srl Cadorna,RIA,Toscana,,,,Italy,,,EYW784
C.T.E. Srl Cinque Vie,RIA,Toscana,,,,Italy,,,NVB883
C.T.E. Srl Rignano,RIA,Toscana,,,,Italy,,,XPF567
C.Tro Socio San. R.Giovannini,RIA,Toscana,,,,Italy,,,ZSB776
Casa Del Popolo Grassina,STS,Toscana,,,,Italy,,,UMH514
Casa Di Cura Frate Sole,RIA,Toscana,,,,Italy,,,HAR882
Casa Di Cura M.D. Barbantini,RIA,Toscana,,,,Italy,,,PKJ313
Casa Di Cura San Camillo F.Dei,RIA,Toscana,,,,Italy,,,FYM147
Casa Verde Irccs Fondazione St,RIA,Toscana,,,,Italy,,,UFT685
Cdr Rsa Diacceto Fondaz. Oda,RIA,Toscana,,,,Italy,,,KKK648
Cdr Villa S.Luigi Fondaz Oda F,RIA,Toscana,,,,Italy,,,JYU804
Cent.Riab.Terranova Bracciolin,RIA,Toscana,,,,Italy,,,BCI275
Centro Affari E Convegni Arezz,STS,Toscana,,,,Italy,,,YDQ849
Centro Di Riabilitazione Villa,RIA,Toscana,,,,Italy,,,DIU701
Centro Di Rieducazione Ortofon,RIA,Toscana,,,,Italy,,,CII221
Centro Diurno Albero Vivo,RIA,Toscana,,,,Italy,,,JUA995
Centro Espositivo Di Scandicci,STS,Toscana,,,,Italy,,,JWK526
Centro Integrato Educ.Ne E Ria,RIA,Toscana,,,,Italy,,,FHK654
Centro Polifunzion. Campiglia,RIA,Toscana,,,,Italy,,,IWP697
Centro Politano Psicotici,RIA,Toscana,,,,Italy,,,MBE382
Centro Riab. Luigi Moni,RIA,Toscana,,,,Italy,,,KES691
Centro Riab. Santa Fina,RIA,Toscana,,,,Italy,,,NMD859
Centro Riabilitaz. S.Caterina,RIA,Toscana,,,,Italy,,,UOM587
Centro Riabilitazione,RIA,Toscana,,,,Italy,,,PSX463
Centro Riabilitazione Montalci,RIA,Toscana,,,,Italy,,,HLQ860
Centro Rieduc.Del Linguaggio,RIA,Toscana,,,,Italy,,,JPP656
Centro Sociale Bibbiena,STS,Toscana,,,,Italy,,,JVG283
Centro Socio Sanitario Ex Dist,STS,Toscana,,,,Italy,,,CMA392
Centro Vasari  Srl,RIA,Toscana,,,,Italy,,,NHT732
Centro W.Cerrano Don Gnocchi,RIA,Toscana,,,,Italy,,,OTM645
Cerv - Irifor Sez. Pisa,RIA,Toscana,,,,Italy,,,PYZ575
Cinema Multisala Grosseto,STS,Toscana,,,,Italy,,,BKH787
Circolo Mcl San Biagio Pistoia,STS,Toscana,,,,Italy,,,UOZ508
Coop. Sociale P.A.M.A.P.I.,RIA,Toscana,,,,Italy,,,JZV172
Cri Presidio Fraticini,RIA,Toscana,,,,Italy,,,FKB998
Cte Srl Il Fortino,RIA,Toscana,,,,Italy,,,JNP983
Cte Srl Rsd Le Torri,RIA,Toscana,,,,Italy,,,WVJ279
Discoteca Kronos Castel Del Pi,STS,Toscana,,,,Italy,,,OGX261
Discoteca Papillon 78 Monteron,STS,Toscana,,,,Italy,,,LHJ827
Distr Certaldo Att Riab Ex Art,RIA,Toscana,,,,Italy,,,BML514
Distr Empoli Att Riab Ex Art 2,RIA,Toscana,,,,Italy,,,BTP660
Distretto Quarrata,RIA,Toscana,,,,Italy,,,ZPP870
Ex Chino Chini Pontassieve,STS,Toscana,,,,Italy,,,XUU957
Ex Dispensario Cpa,RIA,Toscana,,,,Italy,,,XKV969
Ex Distretto Riab.  Marina C,RIA,Toscana,,,,Italy,,,AGN957
Ex Filanda,RIA,Toscana,,,,Italy,,,BLR550
Fisioterapia S. Jacopo,RIA,Toscana,,,,Italy,,,QYX244
Fisioterapia Santo Stefano,RIA,Toscana,,,,Italy,,,RDQ162
Fond Modi Di Dire  Centro Logo,RIA,Toscana,,,,Italy,,,IKP186
Fond. S. Sebastiano Misericord,RIA,Toscana,,,,Italy,,,VYM696
Fondazione C.Ri.D.A  Sede Prat,RIA,Toscana,,,,Italy,,,FIA309
Fondazione C.Ri.D.A. Via Ferru,RIA,Toscana,,,,Italy,,,JSQ804
Fondazione Crida Sede Montale,RIA,Toscana,,,,Italy,,,YXT941
Fondazione Don Gnocchi,RIA,Toscana,,,,Italy,,,AIX458
Fondazione Maria Assunta In Ci,RIA,Toscana,,,,Italy,,,IMN461
Fondazione Raggio Verde,RIA,Toscana,,,,Italy,,,MQB532
Fondazione Turati Gavinana,RIA,Toscana,,,,Italy,,,VXI736
Fondazione Turati Pistoia,RIA,Toscana,,,,Italy,,,JBR999
Fonderia 1 Sala Comunale Follo,STS,Toscana,,,,Italy,,,WGT140
Foro Boario San Sepolcro,STS,Toscana,,,,Italy,,,WON798
I.R.C.C.S. Centro Di Riab. Don,RIA,Toscana,,,,Italy,,,KZA591
Ifca Spa-Casa Di Cura Ulivella,RIA,Toscana,,,,Italy,,,NWG539
Inail Crm - Centro Riab. Motor,RIA,Toscana,,,,Italy,,,AAZ546
Ispo,RIA,Toscana,,,,Italy,,,WGW697
"Ist.Priv.Riabil.  ""Madre Divin",RIA,Toscana,,,,Italy,,,BVR755
Ist.Privato Riab. Medaglia Mir,RIA,Toscana,,,,Italy,,,XSW275
Ist.Prosperius Centro Riabilit,RIA,Toscana,,,,Italy,,,OYJ998
Ist.Riab. Villaggio Della Cons,RIA,Toscana,,,,Italy,,,UYF821
Istituto Di Riabilitazione Di,RIA,Toscana,,,,Italy,,,REG807
La Badia San Miniato Att Riab,RIA,Toscana,,,,Italy,,,ZNL510
La Cupolina Srl,RIA,Toscana,,,,Italy,,,KOK986
Lab. Aus. Apprendimento E Comu,RIA,Toscana,,,,Italy,,,TLF447
Laboratorio Ausili Tecnologici,RIA,Toscana,,,,Italy,,,NNK956
Le Civette,RIA,Toscana,,,,Italy,,,ILM661
Osp Castelf.No Att Riab Ex Art,RIA,Toscana,,,,Italy,,,VCJ976
Osp Fucecchio Att Riab Ex Art,RIA,Toscana,,,,Italy,,,GWU687
Osp S. Miniato Att Riab Ex Art,RIA,Toscana,,,,Italy,,,FJO770
"Ospedale ""Versilia""           ",RIA,Toscana,,,,Italy,,,IPD240
Ospedale Di Comunita' - Riabil,RIA,Toscana,,,,Italy,,,XZB368
P.Za San Rocco Empoli Att Riab,RIA,Toscana,,,,Italy,,,GXI894
Palasport Fucecchio,STS,Toscana,,,,Italy,,,MTW973
Palazzetto Del Bernino Poggibo,STS,Toscana,,,,Italy,,,RLU488
Palazzetto Sport Dicomano,STS,Toscana,,,,Italy,,,TKI682
Palazzetto Sport Mensana Pal.G,STS,Toscana,,,,Italy,,,VRN152
Palazzetto Sport Reggello,STS,Toscana,,,,Italy,,,DAL296
Palestra Scuola Elementare Abb,STS,Toscana,,,,Italy,,,BVZ169
Pegaso Srl,RIA,Toscana,,,,Italy,,,PPR282
Poliambulat.Foiano Della Chian,RIA,Toscana,,,,Italy,,,OER255
Poliambulatorio Bibbiena,RIA,Toscana,,,,Italy,,,KLA694
Poliambulatorio Lucignano,RIA,Toscana,,,,Italy,,,LCN543
Poliambulatorio Ospedale Fratt,RIA,Toscana,,,,Italy,,,PIM464
Poliambulatorio Sansepolcro,RIA,Toscana,,,,Italy,,,OHB354
Pres. Amb. Riabilitaz. Borgo A,RIA,Toscana,,,,Italy,,,MZG535
Presidio  Acciaiolo,RIA,Toscana,,,,Italy,,,UUI497
Presidio Agliana,RIA,Toscana,,,,Italy,,,HBB520
Presidio Alfa Columbus,RIA,Toscana,,,,Italy,,,KRC657
Presidio Barberino,RIA,Toscana,,,,Italy,,,QRT995
Presidio Borgo San Lorenzo,RIA,Toscana,,,,Italy,,,HUY838
Presidio Camerata,RIA,Toscana,,,,Italy,,,TUX176
Presidio Canova,RIA,Toscana,,,,Italy,,,EAS875
Presidio D'Annunzio,RIA,Toscana,,,,Italy,,,PWF874
Presidio Distrett. Vaiano,RIA,Toscana,,,,Italy,,,DKZ584
Presidio Eta' Evolutiva,RIA,Toscana,,,,Italy,,,IEM805
Presidio Fanfani,RIA,Toscana,,,,Italy,,,BXO110
Presidio Firenzuola,RIA,Toscana,,,,Italy,,,JAQ748
Presidio Giuliani,RIA,Toscana,,,,Italy,,,JRQ562
Presidio Greve,RIA,Toscana,,,,Italy,,,OAP806
Presidio Incisa,RIA,Toscana,,,,Italy,,,RTP783
Presidio Ospedaliero Piero Pal,RIA,Toscana,,,,Italy,,,TNN942
Presidio Pal. Osma,RIA,Toscana,,,,Italy,,,NHZ605
Presidio Pelago,RIA,Toscana,,,,Italy,,,LSZ444
Presidio Reggello,RIA,Toscana,,,,Italy,,,LUI590
Presidio Riab. Abbadia S.S.,RIA,Toscana,,,,Italy,,,DPN749
Presidio Riab. Chiusi,RIA,Toscana,,,,Italy,,,GPY778
Presidio Riab. Montepulciano,RIA,Toscana,,,,Italy,,,UOK980
Presidio Riab. Poggibonsi,RIA,Toscana,,,,Italy,,,DJA544
Presidio Riab. Sinalunga,RIA,Toscana,,,,Italy,,,HSS621
Presidio Riab. Tamburino,RIA,Toscana,,,,Italy,,,GEG106
Presidio Riabil Ambu San Giova,RIA,Toscana,,,,Italy,,,OYH516
Presidio Riabil Lungarno Santa,RIA,Toscana,,,,Italy,,,YKP181
Presidio Riabilitazione Le Pia,RIA,Toscana,,,,Italy,,,NUS735
Presidio Rignano,RIA,Toscana,,,,Italy,,,QTX933
Presidio Rossini,RIA,Toscana,,,,Italy,,,THU690
Presidio Vaccinale Empoli Sesa,STS,Toscana,,,,Italy,,,ABI633
Presidio Vaccinale Firenze Man,STS,Toscana,,,,Italy,,,LSK490
Presidio Vaccinale Hub Caserma,STS,Toscana,,,,Italy,,,JCE903
Presidio Vaccinale Palaterme M,STS,Toscana,,,,Italy,,,DKL240
Presidio Vaccinale Pistoia Cat,STS,Toscana,,,,Italy,,,LYA561
Presidio Vaccinale Prato Pegas,STS,Toscana,,,,Italy,,,WYJ297
Presidio Via Della Querciola,RIA,Toscana,,,,Italy,,,DLY495
Riab Ex Art. 26 Castelnuovo Di,RIA,Toscana,,,,Italy,,,LCZ483
Riab Ex Art. 26 Ex Ceser Forna,RIA,Toscana,,,,Italy,,,JUE607
Riab Ex Art. 26 Ospedale S. Fr,RIA,Toscana,,,,Italy,,,QUT812
Riab Ex Art. 26 San Leonardo I,RIA,Toscana,,,,Italy,,,NFK993
Riab. Aulla. Distretto/Aias,RIA,Toscana,,,,Italy,,,FII165
Riab. Ex Art. 26 Bagni Di Lucc,RIA,Toscana,,,,Italy,,,WAM164
Riab. Ex Art. 26 Campo Di Mart,RIA,Toscana,,,,Italy,,,WBL602
Riab. Ex Art. 26 Tabarracci Vi,RIA,Toscana,,,,Italy,,,GMW371
Riab. Ex. Art. 26 Capannori,RIA,Toscana,,,,Italy,,,AEJ580
Riab. Osp. Serristori,RIA,Toscana,,,,Italy,,,URX682
Riabilit.  Distretto Fivizzano,RIA,Toscana,,,,Italy,,,DGO550
Riabilit. Osped. Pontremoli,RIA,Toscana,,,,Italy,,,EST419
Riabilitazione Amb. San Marcel,RIA,Toscana,,,,Italy,,,IIT816
Riabilitazione Ambulatoriale C,RIA,Toscana,,,,Italy,,,YTA108
Riabilitazione Ambulatoriale E,RIA,Toscana,,,,Italy,,,VOS768
Riabilitazione Ambulatoriale L,RIA,Toscana,,,,Italy,,,BSC457
Riabilitazione Ambulatoriale P,RIA,Toscana,,,,Italy,,,YZJ844
Riabilitazione Cardiologica,RIA,Toscana,,,,Italy,,,ROU904
Riabilitazione Casa Della Salu,RIA,Toscana,,,,Italy,,,HHE119
Riabilitazione Penitenziario M,RIA,Toscana,,,,Italy,,,UIE886
Riabilitazione San Casciano,RIA,Toscana,,,,Italy,,,MKG990
Ristorante Attimi,STS,Toscana,,,,Italy,,,WLN504
S.O.R. Fivizzano,RIA,Toscana,,,,Italy,,,YKN398
S.Rita C.Diurno Giov.Psicotici,RIA,Toscana,,,,Italy,,,JGP777
Sala Polivalente Exmacelli Mon,STS,Toscana,,,,Italy,,,CJN742
Santacroce Medical Center Srl,RIA,Toscana,,,,Italy,,,QKU685
Scuola Media Bertini Pancrazi,STS,Toscana,,,,Italy,,,RQT575
Smia Via Degli Armeni,RIA,Toscana,,,,Italy,,,AFV302
Spazio Comunale Calenzano,STS,Toscana,,,,Italy,,,YVR964
Stabilimento Cisanello,RIA,Toscana,,,,Italy,,,ZIX879
Stabilimento Santa Chiara,RIA,Toscana,,,,Italy,,,UBZ186
Struttura Polivalente Certaldo,STS,Toscana,,,,Italy,,,KXB570
Sv Amb Vaccinale Presso Prot C,STS,Toscana,,,,Italy,,,OWA589
Sv Ca Anziani S. Remigio Fosdi,STS,Toscana,,,,Italy,,,QPH501
Sv Hub Carrara Fiere,STS,Toscana,,,,Italy,,,QON483
Sv Hub Modigliani,STS,Toscana,,,,Italy,,,XFB179
Sv Hub Vaccinale Cecina Via Am,STS,Toscana,,,,Italy,,,XAQ171
Sv Hub Vaccinale Rosignano Pes,STS,Toscana,,,,Italy,,,DLE717
Sv Hub Vaccinazioni Pontedera,STS,Toscana,,,,Italy,,,KAJ589
Sv Hub Zona Pisana,STS,Toscana,,,,Italy,,,BJQ700
Sv Il Villaggio Della Vita,STS,Toscana,,,,Italy,,,VUX318
Sv Ra Ist Suore Figlie Di Naza,STS,Toscana,,,,Italy,,,VIM179
Sv Ra Oasi Sacro Cuore,STS,Toscana,,,,Italy,,,YDJ399
Sv Rsa Casa Divina Provv Cotto,STS,Toscana,,,,Italy,,,GCH544
Sv Rsa Galli Bonaventuri,STS,Toscana,,,,Italy,,,QLB285
Sv Rsa Il Molino,STS,Toscana,,,,Italy,,,SJN618
Sv Rsa Istituto Iacopini,STS,Toscana,,,,Italy,,,GVZ511
Sv Rsa Phalesia,STS,Toscana,,,,Italy,,,QQP542
Terme Di Casciana,RIA,Toscana,,,,Italy,,,XNA902
U.F. Recup. Riab.  Funz. Adult,RIA,Toscana,,,,Italy,,,HUQ324
U.F. Sal. Ment. Infanzia  Adol,RIA,Toscana,,,,Italy,,,BEW119
U.F. Sal. Ment. Infanzia Adol.,RIA,Toscana,,,,Italy,,,XUT952
U.F.S.M.I.A Valdera  C/O Mis.,RIA,Toscana,,,,Italy,,,SHN402
U.F.S.M.I.A. Pisa Via Garibald,RIA,Toscana,,,,Italy,,,ZCP223
U.F.S.M.I.A.- Volterra (Borgo,RIA,Toscana,,,,Italy,,,XNX651
"U.O.Centro Di Riab.""Aldi Mai"" ",RIA,Toscana,,,,Italy,,,OOS267
U.O.R.R.F Valdera C/O P.A. For,RIA,Toscana,,,,Italy,,,CQG634
U.O.R.R.F. - Larderello,RIA,Toscana,,,,Italy,,,YIN394
U.O.R.R.F. - Via Garibaldi,RIA,Toscana,,,,Italy,,,CSV206
U.O.R.R.F. - Volterra,RIA,Toscana,,,,Italy,,,AZX219
U.O.Riab.Funz.Casteldelpiano,RIA,Toscana,,,,Italy,,,LMD465
U.O.Riab.Funz.Massa Marittima,RIA,Toscana,,,,Italy,,,GVU224
U.O.Riab.Funz.Orbetello,RIA,Toscana,,,,Italy,,,TDM381
U.O.Riab.Funz.Villa Pizzetti,RIA,Toscana,,,,Italy,,,MQI504
U.O.Riab.Fuz.Follonica,RIA,Toscana,,,,Italy,,,XHF369
Ufsmia Distretto Castelnuovo D,RIA,Toscana,,,,Italy,,,NSK921
Valdisieve Hospital Srl,RIA,Toscana,,,,Italy,,,OUY560
Vila Delle Terme Spa.Div Falci,RIA,Toscana,,,,Italy,,,OUK688
Villa Il Sorriso,RIA,Toscana,,,,Italy,,,CWJ397
Villa Le Terme Spa Divisione M,RIA,Toscana,,,,Italy,,,EEC851
Villa Monteturli,RIA,Toscana,,,,Italy,,,QTZ805
Vital Center Srl,RIA,Toscana,,,,Italy,,,RHM977
Ambulatorio Casa Circondariale Terni - Punto Vaccinale Territoriale,STS,Umbria,,,,Italy,,,AHI600
Ambulatorio Po Orvieto Vaccinazione Covid,STS,Umbria,,,,Italy,,,SDU889
C.R.Sereni-Opera Don Guanella,RIA,Umbria,,,,Italy,,,ZAE707
Casa Di Reclusione Maiano - Punto Vaccinale Territoriale,STS,Umbria,,,,Italy,,,BDD322
Casa Di Reclusione Orvieto Ambulatori - Punto Vaccinale Territoriale,STS,Umbria,,,,Italy,,,MZR895
Casagrande Terni Punto Vaccinale Territoriale,STS,Umbria,,,,Italy,,,IOD627
Centro Comunità Cascia - Punto Vaccinale Territoriale,STS,Umbria,,,,Italy,,,ZJQ113
Centro Polifunzionale Ca' Rapillo Spello - Punto Vaccinale Territoriale,STS,Umbria,,,,Italy,,,NSA733
Centro Polispecialistico C/O Casa Circondariale Di Capanne,STS,Umbria,,,,Italy,,,ATF285
Centro Speranza,RIA,Umbria,,,,Italy,,,YJG775
Comunita' Capodarco Residenz.,RIA,Umbria,,,,Italy,,,DMD997
Comunita' Capodarco Semiresid.,RIA,Umbria,,,,Italy,,,QIZ920
Distretto Orvieto - Punto Vaccinale Territoriale,STS,Umbria,,,,Italy,,,YQY800
Distretto Orvieto Pvt Fabro - Punto Vaccinale Territoriale,STS,Umbria,,,,Italy,,,MLX224
Istituto Padre L. Da Casoria,RIA,Umbria,,,,Italy,,,KRU123
Istituto Per Sovrintendenti Della Polizia Di Stato Ufficio Sanitario - Punto Vaccinale Territoriale,STS,Umbria,,,,Italy,,,YLM641
Istituto Serafico,RIA,Umbria,,,,Italy,,,FVH675
Palestra Istituto Geometri - Punto Vaccinale Territoriale,STS,Umbria,,,,Italy,,,RSV164
Pes Norcia - Punto Vaccinale Territoriale,STS,Umbria,,,,Italy,,,EAT814
Punto Vaccinazione Anti Covid-19   San Marco,STS,Umbria,,,,Italy,,,OCU959
Punto Vaccinazione Anti Covid-19  Comando Legione Carabinieri Umbria,STS,Umbria,,,,Italy,,,IBA138
Punto Vaccinazione Anti Covid-19  Polizia Di Stato,STS,Umbria,,,,Italy,,,MCV483
Punto Vaccinazione Anti Covid-19 Assisano,STS,Umbria,,,,Italy,,,QTK236
Punto Vaccinazione Anti Covid-19 Comune Todi,STS,Umbria,,,,Italy,,,MEX507
Punto Vaccinazione Anti Covid-19 Gualdo Tadino,STS,Umbria,,,,Italy,,,QAC684
Punto Vaccinazione Anti Covid-19 Gubbio,STS,Umbria,,,,Italy,,,ZWM734
Punto Vaccinazione Anti Covid-19 La Rocchetta Gualdo Tadino,STS,Umbria,,,,Italy,,,YVP277
Punto Vaccinazione Anti Covid-19 Marsciano,STS,Umbria,,,,Italy,,,LRB661
Punto Vaccinazione Anti Covid-19 Solomeo,STS,Umbria,,,,Italy,,,VOP837
Punto Vaccinazione Anti Covid-19 Tavernelle,STS,Umbria,,,,Italy,,,PGR427
Punto Vaccinazione Anti Covid-19 Trestina,STS,Umbria,,,,Italy,,,ADI199
Punto Vaccinazione Anti Covid-19 Tuoro Sul Trasimeno,STS,Umbria,,,,Italy,,,KEY841
Punto Vaccinazione Anti Covid-19 Umbertide,STS,Umbria,,,,Italy,,,ZVM767
Pvt Via Manna - Punto Vaccinale Territoriale,STS,Umbria,,,,Italy,,,RPK146
Questura Di Terni Ufficio Sanitario - Punto Vaccinale Territoriale,STS,Umbria,,,,Italy,,,PEZ202
Zona Bocciodromo Amelia - Punto Vaccinale Territoriale,STS,Umbria,,,,Italy,,,ITS799
Centro Polifunzionale Grand Place,STS,Valle d'Aosta / Vallée d'Aoste,,,,Italy,,,EWC693
Poliambulatorio Di Morgex - Centro Vaccini Covid,STS,Valle d'Aosta / Vallée d'Aoste,,,,Italy,,,WKJ327
Salone Polifunzionale Sito Nel Comune Di Châtillon,STS,Valle d'Aosta / Vallée d'Aoste,,,,Italy,,,MPR914
Salone Polifunzionale Sito Nel Comune Di Donnas,STS,Valle d'Aosta / Vallée d'Aoste,,,,Italy,,,ZVR244
A.G.B.D Onlus,RIA,Veneto,,,,Italy,,,RZG123
A.I.S.M.,RIA,Veneto,,,,Italy,,,XAF773
Associaz. La Nostra Famiglia,RIA,Veneto,,,,Italy,,,SSJ614
Associaz. 'La Nostra Famiglia',RIA,Veneto,,,,Italy,,,HPM795
Associazione La Nostra Famigli,RIA,Veneto,,,,Italy,,,MXV715
Centro Aism Rosa`,RIA,Veneto,,,,Italy,,,XMK583
Centro Archimede Srl,RIA,Veneto,,,,Italy,,,NXG550
Centro Civico Fabio Presca (Punto Vaccinazioni),STS,Veneto,,,,Italy,,,XAH882
Centro Di Vaccinazione C/O Osp. Di Schiavonia,STS,Veneto,,,,Italy,,,VAA637
"Centro Diabetologia, Casa Della Salute Schio",STS,Veneto,,,,Italy,,,XUW750
Centro Polifunz. D.Calabria,RIA,Veneto,,,,Italy,,,JOU314
Centro Sanitario Polifunzionale (Ex Dialisi Piano Terra),STS,Veneto,,,,Italy,,,FKM353
Centro Vaccinale,STS,Veneto,,,,Italy,,,MTW473
"Centro Vaccinale  ""Dogana"" - Treviso",STS,Veneto,,,,Italy,,,WMW365
"Centro Vaccinale ""Bocciodromo"" - Villorba",STS,Veneto,,,,Italy,,,ZWG492
"Centro Vaccinale ""Castrette"" - Villorba",STS,Veneto,,,,Italy,,,GBP541
"Centro Vaccinale ""San Martino"" - Casale Sul Sile",STS,Veneto,,,,Italy,,,ECT552
"Centro Vaccinale ""Sanita' Penitenziaria"" - Treviso",STS,Veneto,,,,Italy,,,QZY179
Centro Vaccinale ¿Centro Culturale Casa Riese¿ ¿ Riese Pio X,STS,Veneto,,,,Italy,,,JON362
Centro Vaccinale C/O Centro Culturale A. Pettenella (Rovolon),STS,Veneto,,,,Italy,,,SPU821
Centro Vaccinale 'Castello D'Amore' - Treviso,STS,Veneto,,,,Italy,,,SOC912
Centro Vaccinale Cortina Palaghiaccio,STS,Veneto,,,,Italy,,,PYY250
Centro Vaccinale Covid-19 Bibione,STS,Veneto,,,,Italy,,,GPT268
Centro Vaccinale Covid-19 Caorle,STS,Veneto,,,,Italy,,,RBR953
Centro Vaccinale Covid-19 Cavallino-Treporti,STS,Veneto,,,,Italy,,,UOR375
Centro Vaccinale Covid-19 Jesolo,STS,Veneto,,,,Italy,,,ZZR127
Centro Vaccinale Covid-19 Portogruaro,STS,Veneto,,,,Italy,,,KDQ391
Centro Vaccinale Covid-19 San Dona',STS,Veneto,,,,Italy,,,WGS375
Centro Vaccinale Di Vedelago,STS,Veneto,,,,Italy,,,ITV434
Centro Vaccinale 'Foro Boario' - Oderzo,STS,Veneto,,,,Italy,,,NEZ110
Centro Vaccinale 'Palaingresso Godega Fiere' - Godega Sant'Urbano,STS,Veneto,,,,Italy,,,PYR458
Centro Vaccinazione Lonigo,STS,Veneto,,,,Italy,,,OZB352
Centro Vaccinazione Noventa Vicentina,STS,Veneto,,,,Italy,,,IFX297
Centro Vaccinazione Popolazione Covid19 Bussolengo,STS,Veneto,,,,Italy,,,IAO862
Centro Vaccinazione Popolazione Covid19 Legnago,STS,Veneto,,,,Italy,,,SHN871
Centro Vaccinazione Popolazione Covid19 S. Bonifacio,STS,Veneto,,,,Italy,,,JSA446
Centro Vaccinazione Torri Di Quartesolo,STS,Veneto,,,,Italy,,,LZS804
Centro Vaccinazione Trissino,STS,Veneto,,,,Italy,,,ZVL958
Centro Vaccinazione Valdagno,STS,Veneto,,,,Italy,,,XMG858
Centro Vaccinazione Vicenza,STS,Veneto,,,,Italy,,,MRR896
Centro Vaccinazioni Del Comelico,STS,Veneto,,,,Italy,,,JOV452
Centro Vaccinazioni Drive-In Paludi,STS,Veneto,,,,Italy,,,HPY850
Centro Vaccinazioni Palaskating Di Sedico,STS,Veneto,,,,Italy,,,PCS372
Chiostro S. Maria Delle Consolazioni,STS,Veneto,,,,Italy,,,DGQ976
Codess Sanita' S.R.L.,RIA,Veneto,,,,Italy,,,MPG887
Covid19-Seminario Minore Di Rubano (Punto Vaccinazioni),STS,Veneto,,,,Italy,,,RGX667
Cvp Adria C/O Centro Commerciale Il Porto,STS,Veneto,,,,Italy,,,TBZ192
Cvp Camponogara,STS,Veneto,,,,Italy,,,AFL377
Cvp Castelmassa C/O Mercato Coperto,STS,Veneto,,,,Italy,,,AFJ535
Cvp Cavarzere,STS,Veneto,,,,Italy,,,XLH724
Cvp Chioggia,STS,Veneto,,,,Italy,,,HZX368
Cvp Chioggia 2,STS,Veneto,,,,Italy,,,UQG186
Cvp Covid - Angarano,STS,Veneto,,,,Italy,,,UAU417
Cvp Covid - Arsiero Palazzetto Dello Sport,STS,Veneto,,,,Italy,,,SDC954
Cvp Covid - Asiago Unione Montana Spett. Reggenza Dei 7 Comuni,STS,Veneto,,,,Italy,,,DNP817
Cvp Covid - Bassano Del Grappa Centro Socio Ricreativo Rondò Brenta,STS,Veneto,,,,Italy,,,AAN228
Cvp Covid - Breganze (Mmg),STS,Veneto,,,,Italy,,,INA795
"Cvp Covid - Centro Socio-Ricreativo Rondò Brenta, Bassano Del Grappa  (Mmg)",STS,Veneto,,,,Italy,,,QMT888
Cvp Covid - Chiuppano (Mmg),STS,Veneto,,,,Italy,,,KXV596
Cvp Covid - Domicilio D1,STS,Veneto,,,,Italy,,,CQD447
Cvp Covid - Domicilio D2,STS,Veneto,,,,Italy,,,RSZ291
"Cvp Covid - Ex Eurobrico, Bassano",STS,Veneto,,,,Italy,,,KBI247
Cvp Covid - Malo (Mmg),STS,Veneto,,,,Italy,,,DDF797
Cvp Covid - Marano Vicentino,STS,Veneto,,,,Italy,,,UTR264
Cvp Covid - Marostica,STS,Veneto,,,,Italy,,,ZNE792
Cvp Covid - Marostica (Mmg),STS,Veneto,,,,Italy,,,GNM957
Cvp Covid - Roana,STS,Veneto,,,,Italy,,,DTO279
Cvp Covid - Roana (Mmg),STS,Veneto,,,,Italy,,,CAE869
Cvp Covid - Romano D'Ezzelino (Mmg),STS,Veneto,,,,Italy,,,MYO886
Cvp Covid - San Giuseppe Di Cassola (Mmg),STS,Veneto,,,,Italy,,,CPL877
Cvp Covid - San Giuseppe Di Cassola Centro Diurno Per Anziani,STS,Veneto,,,,Italy,,,JLB240
Cvp Covid - Schio Ex Lanificio Conte,STS,Veneto,,,,Italy,,,FWD322
Cvp Covid - Thiene Padiglione Fieristico,STS,Veneto,,,,Italy,,,WYW925
Cvp Covid Asiago C/O Ospedale,STS,Veneto,,,,Italy,,,WSJ819
Cvp Covid Asiago Distretto,STS,Veneto,,,,Italy,,,YAN495
Cvp Covid Marano Vicentino (Mmg),STS,Veneto,,,,Italy,,,DFV439
Cvp Covid Schio Palestra Comunale (Mmg),STS,Veneto,,,,Italy,,,GAU707
Cvp Covid Thiene Padiglione Fieristico (Mmg),STS,Veneto,,,,Italy,,,HVL253
Cvp Dolo,STS,Veneto,,,,Italy,,,VWO720
Cvp Favaro,STS,Veneto,,,,Italy,,,JWU329
Cvp Lendinara C/O Palazzetto Dello Sport,STS,Veneto,,,,Italy,,,RZI110
Cvp Lido Pellestrina,STS,Veneto,,,,Italy,,,SHT756
Cvp Marcon,STS,Veneto,,,,Italy,,,CMM974
Cvp Mestre 2,STS,Veneto,,,,Italy,,,ZCZ875
Cvp Mirano,STS,Veneto,,,,Italy,,,XGR638
Cvp Noale,STS,Veneto,,,,Italy,,,NEG638
Cvp Occhiobello C/O C.S.R.C. Arcobaleno,STS,Veneto,,,,Italy,,,UZO433
Cvp Palaexpo,STS,Veneto,,,,Italy,,,FGM779
Cvp Porto Tolle C/O Palazzetto Dello Sport,STS,Veneto,,,,Italy,,,QOM358
Cvp Porto Viro C/O Sala Eracle,STS,Veneto,,,,Italy,,,FYB837
Cvp Rosolina C/O Palazzetto Dello Sport,STS,Veneto,,,,Italy,,,SEG864
Cvp Rovigo C/O Censer,STS,Veneto,,,,Italy,,,BNJ617
Cvp Santa Maria Di Sala,STS,Veneto,,,,Italy,,,WIG506
Cvp Stabilimento Fiamm Spa,STS,Veneto,,,,Italy,,,NEZ309
Cvp Stabilimento Marzotto Spa,STS,Veneto,,,,Italy,,,BBW826
Cvp Trecenta C/O Ospedale S.Luca,STS,Veneto,,,,Italy,,,ANR749
Cvp Venezia 1,STS,Veneto,,,,Italy,,,SOX606
Cvp Venezia 2,STS,Veneto,,,,Italy,,,MHH211
Cvp Venezia 3,STS,Veneto,,,,Italy,,,UQL214
Dm Riabilita Srl,RIA,Veneto,,,,Italy,,,PHJ478
Fiera Di Padova Padiglione 6 (Punto Vaccinazione),STS,Veneto,,,,Italy,,,LWI376
Fiera Padiglione 8 - Azienda Ospedale - Universita' Padova,STS,Veneto,,,,Italy,,,MID588
Fisiosport Terraglio,RIA,Veneto,,,,Italy,,,IBQ188
Fond.F.Milcovich Onlus Exuildm,RIA,Veneto,,,,Italy,,,DJD420
Fondaz. Piu' Di Un Sogno Onlus,RIA,Veneto,,,,Italy,,,BSH267
Fondazione Speranza Onlus,RIA,Veneto,,,,Italy,,,FZY788
Istituto Pio Xii Misurina,RIA,Veneto,,,,Italy,,,VNX877
La Nostra Famiglia,RIA,Veneto,,,,Italy,,,VUB631
La Nostra Famiglia Oderzo,RIA,Veneto,,,,Italy,,,UQF149
La Nostra Famiglia Treviso,RIA,Veneto,,,,Italy,,,XSA956
Municipio Di Albignasego (Punto Vaccinazioni),STS,Veneto,,,,Italy,,,XQN219
Ospedale Militare (Punto Vaccinazioni),STS,Veneto,,,,Italy,,,AUZ331
Palazzetto Dello Sport 'Borgo Rossi' (Punto Vaccinazione),STS,Veneto,,,,Italy,,,ECN331
Palazzetto Dello Sport Di Cittadella,STS,Veneto,,,,Italy,,,GHP342
Palazzetto Dello Sport Di Loreggia,STS,Veneto,,,,Italy,,,MIC902
Presidio Riabilit. Villa Maria,RIA,Veneto,,,,Italy,,,UOM755
