Name,Type,Region,City,State,Longitude,Latitude
Anesis S.R.L.,RIA,Abruzzo,,Italy,,
Ass. Focolare Maria Regina Onu,RIA,Abruzzo,,Italy,,
Cdc S.Camilla-C.Ria.Villa Pini,RIA,Abruzzo,,Italy,,
Cento Riabilitazione S.Agnese,RIA,Abruzzo,,Italy,,
Centro Ex Art 26 Pizzoli,RIA,Abruzzo,,Italy,,
Centro Fisiot.Riab.Medical Mar,RIA,Abruzzo,,Italy,,
Centro Medisalus S.R.L.,RIA,Abruzzo,,Italy,,
Centro Riab Collemaggio,RIA,Abruzzo,,Italy,,
Centro Riab Dsbaq San Demetrio,RIA,Abruzzo,,Italy,,
Centro Riab Villa Dorotea,RIA,Abruzzo,,Italy,,
Centro Riabilitazione  Sanex,RIA,Abruzzo,,Italy,,
Centro San Venanzio,RIA,Abruzzo,,Italy,,
Centro Vaccinale Città Sant'Angelo Outlet Village,STS,Abruzzo,,Italy,,
Centro Vaccinale Covid  Castel Di Sangro,STS,Abruzzo,,Italy,,
Centro Vaccinale Covid Aq Bazzano Ex Tribunale,STS,Abruzzo,,Italy,,
Centro Vaccinale Covid Sulmona Pal. Sport,STS,Abruzzo,,Italy,,
Centro Vaccinale Covid Tagliacozzo,STS,Abruzzo,,Italy,,
Centro Vaccinale Dsb Pescina,STS,Abruzzo,,Italy,,
Centro Vaccinale Ex Scuola Elementare Via Fucino,STS,Abruzzo,,Italy,,
Centro Vaccinale Montesilvano,STS,Abruzzo,,Italy,,
Centro Vaccinale Penne,STS,Abruzzo,,Italy,,
Centro Vaccinale Pescara Palefiere,STS,Abruzzo,,Italy,,
Centro Vaccinale Pescara Stazione Portanuova,STS,Abruzzo,,Italy,,
Centro Vaccinale San Vittorino,STS,Abruzzo,,Italy,,
Centro Vaccinale Spoltore,STS,Abruzzo,,Italy,,
Centro Vaccinale Val Pescara,STS,Abruzzo,,Italy,,
Conc S. Stefano Teramo,RIA,Abruzzo,,Italy,,
Cons. S. Stefano Atri,RIA,Abruzzo,,Italy,,
Cons. S.Stefano Alba Adriatica,RIA,Abruzzo,,Italy,,
Cons. S.Stefano Roseto,RIA,Abruzzo,,Italy,,
Cons. S.Stefano S.Egidio,RIA,Abruzzo,,Italy,,
Consorzio San Stef.Ar.,RIA,Abruzzo,,Italy,,
Consultorio San Vito Chietino,STS,Abruzzo,,Italy,,
Don Orione,RIA,Abruzzo,,Italy,,
Dsb Chieti Centro,STS,Abruzzo,,Italy,,
Dsb Francavilla - Sede Erog. San Giovanni Teatino,STS,Abruzzo,,Italy,,
Dsb Francavilla Al Mare,STS,Abruzzo,,Italy,,
Dsb Lanciano,STS,Abruzzo,,Italy,,
Dsb San Salvo,STS,Abruzzo,,Italy,,
Dsb San Salvo - Sede Erog. Castiglione M.M.,STS,Abruzzo,,Italy,,
Dsb Vasto,STS,Abruzzo,,Italy,,
Dsb Villa Santa Maria,STS,Abruzzo,,Italy,,
Fond. Il Cireneo Onlus Per Aut,RIA,Abruzzo,,Italy,,
Fond. Ist. Santa Caterina,RIA,Abruzzo,,Italy,,
Fond. P. A. Mileno Gissi,RIA,Abruzzo,,Italy,,
Fond. P. A. Mileno Lanciano,RIA,Abruzzo,,Italy,,
Fond. P. A. Mileno Vasto Dalm.,RIA,Abruzzo,,Italy,,
Fond. P. A. Mileno Vasto Lebba,RIA,Abruzzo,,Italy,,
Fond. P. A. Mileno Vasto Plato,RIA,Abruzzo,,Italy,,
Fond. P. A. Mileno Vasto S.Tom,RIA,Abruzzo,,Italy,,
Fond. Papa Paolo Vi-S.Agostino,RIA,Abruzzo,,Italy,,
Fond. Piccola Opera Caritas,RIA,Abruzzo,,Italy,,
Fond.P.Alberto Mileno Onlus,RIA,Abruzzo,,Italy,,
Hub Maria Ss Splendore Giulianova,STS,Abruzzo,,Italy,,
Hub Ospedale Mazzini Teramo,STS,Abruzzo,,Italy,,
Hub P.O. Val Vibrata  Sant'Omero,STS,Abruzzo,,Italy,,
Hub Parco Della Scienza,STS,Abruzzo,,Italy,,
Hub San Liberatore Atri,STS,Abruzzo,,Italy,,
Il Piccolo Principe,RIA,Abruzzo,,Italy,,
Ist. Riab. San Rocco - Atessa,RIA,Abruzzo,,Italy,,
Ist. Riab. San Rocco - Casoli,RIA,Abruzzo,,Italy,,
Istit. Villa Giulia,RIA,Abruzzo,,Italy,,
Nova Salus Srl,RIA,Abruzzo,,Italy,,
P.O. Atessa,STS,Abruzzo,,Italy,,
P.O. Clinicizz. 'Ss. Annunziata' Chieti,STS,Abruzzo,,Italy,,
P.O. Lanciano,STS,Abruzzo,,Italy,,
P.O. Ortona,STS,Abruzzo,,Italy,,
P.O. Vasto,STS,Abruzzo,,Italy,,
P.T.A. Casoli,STS,Abruzzo,,Italy,,
P.T.A. Gissi,STS,Abruzzo,,Italy,,
P.T.A. Guardiagrele,STS,Abruzzo,,Italy,,
Paolo Vi  Madonna Del Monte,RIA,Abruzzo,,Italy,,
Paolo Vi Centro,RIA,Abruzzo,,Italy,,
Paolo Vi Centro Adriatico,RIA,Abruzzo,,Italy,,
Paolo Vi Centro Tabor,RIA,Abruzzo,,Italy,,
Paolo Vi Civitaquana,RIA,Abruzzo,,Italy,,
Paolo Vi San Clemente,RIA,Abruzzo,,Italy,,
Paolo Vi San Massimo,RIA,Abruzzo,,Italy,,
Piccola Opera Charitas,RIA,Abruzzo,,Italy,,
Poliambulatorio Pe,STS,Abruzzo,,Italy,,
Riab. Anffas-Onulus Teramo,RIA,Abruzzo,,Italy,,
Riabilitazione Wellness&C.,RIA,Abruzzo,,Italy,,
San Raffaele Spa,RIA,Abruzzo,,Italy,,
San Ste Far Montesilvano,RIA,Abruzzo,,Italy,,
San Ste Far Pescara,RIA,Abruzzo,,Italy,,
San Stef. Ar. Abruzzo-Chs,RIA,Abruzzo,,Italy,,
San Stef. Ar. Abruzzo-Cht,RIA,Abruzzo,,Italy,,
San Stef. Ar. Abruzzo-Csb,RIA,Abruzzo,,Italy,,
San Stef. Ar. Abruzzo-Lnc,RIA,Abruzzo,,Italy,,
San Stef. Ar. Abruzzo-Ssl,RIA,Abruzzo,,Italy,,
San Stef. Ar. Abruzzo-Vsm,RIA,Abruzzo,,Italy,,
San Stef. Ar. Abruzzo-Vst,RIA,Abruzzo,,Italy,,
Serv Riab Avezzano,RIA,Abruzzo,,Italy,,
Serv Riab Sulmona,RIA,Abruzzo,,Italy,,
Aias,RIA,Basilicata,,Italy,,
Aias-Sez.Melfi - Sede Matera,RIA,Basilicata,,Italy,,
C.T.R. Srl,RIA,Basilicata,,Italy,,
Centro   R. H. A. M.,RIA,Basilicata,,Italy,,
Centro A.I.A.S. Di Lauria,RIA,Basilicata,,Italy,,
Centro Aias F. Bagnale,RIA,Basilicata,,Italy,,
Centro Di Riabilitazione Aias,RIA,Basilicata,,Italy,,
Centro Policenter S.R.L.,RIA,Basilicata,,Italy,,
Centro San Paolo Servizi,RIA,Basilicata,,Italy,,
Centro Tavolaro S.R.L,RIA,Basilicata,,Italy,,
Centro Vaccinale  -Complesso Sportivo Rocco Mazzola,STS,Basilicata,,Italy,,
Centro Vaccinale Confapi Pz,STS,Basilicata,,Italy,,
Centro Vaccinale Covid Enel,STS,Basilicata,,Italy,,
Centro Vaccinale Covid-19 Lavello,STS,Basilicata,,Italy,,
Centro Vaccinale Covid-19 Melfi,STS,Basilicata,,Italy,,
Centro Vaccinale Covid-19 Mmg Asp,STS,Basilicata,,Italy,,
Centro Vaccinale Domiciliare Asp,STS,Basilicata,,Italy,,
Centro Vaccinale Farmacie Asp,STS,Basilicata,,Italy,,
Centro Vaccinale Ferrero,STS,Basilicata,,Italy,,
Centro Vaccinale Total,STS,Basilicata,,Italy,,
Fisiokinesiterapia Melandro,RIA,Basilicata,,Italy,,
Fondazione Don Gnocchi Onlus,RIA,Basilicata,,Italy,,
Genovese Camillo S.R.L,RIA,Basilicata,,Italy,,
Istituto Padri Trinitari,RIA,Basilicata,,Italy,,
Polo Riab Fdg Asm,RIA,Basilicata,,Italy,,
Punto Vaccinale M.M.G. Asm,STS,Basilicata,,Italy,,
Punto Vaccinale Matera,STS,Basilicata,,Italy,,
Punto Vaccinale Pisticci,STS,Basilicata,,Italy,,
Punto Vaccinale Policoro,STS,Basilicata,,Italy,,
Punto Vaccinale Stigliano,STS,Basilicata,,Italy,,
Punto Vaccinale Tricarico,STS,Basilicata,,Italy,,
Ressana S.R.L.,RIA,Basilicata,,Italy,,
Universo Salute Srl Cssr Pz,RIA,Basilicata,,Italy,,
Aias Vadue  Di Carolei,RIA,Calabria,,Italy,,
Anmi Siss - Rossano,RIA,Calabria,,Italy,,
Anmi Siss Srl - Cosenza,RIA,Calabria,,Italy,,
Ass. Comunita' Progetto Sud,RIA,Calabria,,Italy,,
Ass. Mutua Benevolentia,RIA,Calabria,,Italy,,
C.I.F. Casa Serena S.G.Bosco,RIA,Calabria,,Italy,,
Case Della Salute Mormanno,RIA,Calabria,,Italy,,
Cenro Riab. Don Milani Lungro,RIA,Calabria,,Italy,,
Centro Carlo Pizzi,RIA,Calabria,,Italy,,
Centro Clinico San Vitaliano,RIA,Calabria,,Italy,,
Centro Di Riab.Ne Nova Salus,RIA,Calabria,,Italy,,
Centro Di Riabilitazione Amnic,RIA,Calabria,,Italy,,
Centro Di Riabilitazione S. G.,RIA,Calabria,,Italy,,
Centro Emmanuele,RIA,Calabria,,Italy,,
Centro Nadia Vadala',RIA,Calabria,,Italy,,
Centro Riab Estensiv Aquasalus,RIA,Calabria,,Italy,,
Centro Riabil. Anmic S. G.,RIA,Calabria,,Italy,,
Centro Riabilitativo Lucrezia,RIA,Calabria,,Italy,,
Centro Riabilitazione S.Chiara,RIA,Calabria,,Italy,,
Centro Sophia,RIA,Calabria,,Italy,,
Centro Tripepi Mariotti,RIA,Calabria,,Italy,,
Clinica Service Center,RIA,Calabria,,Italy,,
Coop. Soc.Le Skinner Srl Onlus,RIA,Calabria,,Italy,,
Costruire Il Domani Onlus,RIA,Calabria,,Italy,,
Cre San Domenico,RIA,Calabria,,Italy,,
Cre-San Vito Hospital,RIA,Calabria,,Italy,,
Ctr Med. E Fkt Dott. P. Crupi,RIA,Calabria,,Italy,,
Ente Morale F. Germano,RIA,Calabria,,Italy,,
Fiosenter S.R.L.,RIA,Calabria,,Italy,,
Fkt Bagnarese Srl,RIA,Calabria,,Italy,,
Fond. Marino Per L'Autismo Onl,RIA,Calabria,,Italy,,
"Fondazione ""Casa Della Carita'",RIA,Calabria,,Italy,,
Fondazione Betania Onlus,RIA,Calabria,,Italy,,
Ist. Cura Medical & Psychology,RIA,Calabria,,Italy,,
Ist. Psico-Ped. Villa Betania,RIA,Calabria,,Italy,,
Istituto Di Riab.Villa S.Agata,RIA,Calabria,,Italy,,
Onlus - Cetraro,RIA,Calabria,,Italy,,
Pres. Di Riab. Centro San Gius,RIA,Calabria,,Italy,,
Residenza Ad Alto Trattamento,RIA,Calabria,,Italy,,
Riabil. Madonna Della Catena,RIA,Calabria,,Italy,,
Riabilia Di L. Barillaro Sas,RIA,Calabria,,Italy,,
"Riabilit.Est. ""Biolife"" Srl",RIA,Calabria,,Italy,,
Riabilitazione Castrovillari,RIA,Calabria,,Italy,,
Salus Spa,RIA,Calabria,,Italy,,
Santa Chiara Srl,RIA,Calabria,,Italy,,
Sasa' Martino,RIA,Calabria,,Italy,,
Starbene  Srl,RIA,Calabria,,Italy,,
Studio Medico Pol. F.K.T. Alfa,RIA,Calabria,,Italy,,
Terme Sibarite S.P.A.,RIA,Calabria,,Italy,,
Turano C.&.C. Srl,RIA,Calabria,,Italy,,
Unita Operativa Recupero Neuro,RIA,Calabria,,Italy,,
Villa Adelchi - Riace S.R.L.,RIA,Calabria,,Italy,,
Villa San Giuseppe,RIA,Calabria,,Italy,,
Villa San Pio Dipignano,RIA,Calabria,,Italy,,
Villa Torano,RIA,Calabria,,Italy,,
Aias  Calitri,RIA,Campania,,Italy,,
Aias Afragola,RIA,Campania,,Italy,,
Aias Casoria,RIA,Campania,,Italy,,
Aias Nusco,RIA,Campania,,Italy,,
Aias Onlus C.R.M. Marechiaro,RIA,Campania,,Italy,,
Aias Penisola Sorrentina,RIA,Campania,,Italy,,
Aias Peppino Scoppa,RIA,Campania,,Italy,,
Aias Sez.Di Nola - Cicciano,RIA,Campania,,Italy,,
Aias Vico E.Arco Felice,RIA,Campania,,Italy,,
Anffas Onlus,RIA,Campania,,Italy,,
Anffas Onlus Capri,RIA,Campania,,Italy,,
Antares Centro Riabilitazione,RIA,Campania,,Italy,,
Ass. La Nostra Famiglia,RIA,Campania,,Italy,,
Associazione Meta Felix,RIA,Campania,,Italy,,
Azienda Ospedaliera Dei Colli,RIA,Campania,,Italy,,
C. Soc. Na. Anffas Cdr C. Ursi,RIA,Campania,,Italy,,
C.D.Spettro Autistico,RIA,Campania,,Italy,,
C.F.R. Istit. Di Riabilit. Srl,RIA,Campania,,Italy,,
C.G.M. San Luca S.R.L.,RIA,Campania,,Italy,,
C.T.A. Srl,RIA,Campania,,Italy,,
C.T.F. Centro  Terapia Fisica,RIA,Campania,,Italy,,
C.Tro La Primula  Srl,RIA,Campania,,Italy,,
Casa Di Cura S M Del Pozzo Cem,RIA,Campania,,Italy,,
Cedif Srl,RIA,Campania,,Italy,,
Cefim S.N.C.,RIA,Campania,,Italy,,
Centro  Fisiovesuviano  S.R.L.,RIA,Campania,,Italy,,
Centro  Moscati Srl,RIA,Campania,,Italy,,
Centro  Vaccinale - Agropoli-Ds70,STS,Campania,,Italy,,
Centro  Vaccinale - Pellezzano-Ds66,STS,Campania,,Italy,,
Centro  Vaccinale Castelnuovo Cilento-Ds70,STS,Campania,,Italy,,
Centro A.I.R.R.I.,RIA,Campania,,Italy,,
Centro A.T.H.E.N.A. S.N.C.,RIA,Campania,,Italy,,
Centro Agroaversano,RIA,Campania,,Italy,,
Centro Anna Rita Buonincontro,RIA,Campania,,Italy,,
Centro Campano,RIA,Campania,,Italy,,
Centro Cron,RIA,Campania,,Italy,,
Centro Di Ginn. Med. Santulli,RIA,Campania,,Italy,,
Centro Di Radiologia Ginolfi,RIA,Campania,,Italy,,
Centro Di Riabilitazione,RIA,Campania,,Italy,,
Centro Don Orione,RIA,Campania,,Italy,,
Centro Fisiokinesit.Cilento,RIA,Campania,,Italy,,
Centro Flegreo Srl,RIA,Campania,,Italy,,
Centro Futura Srl,RIA,Campania,,Italy,,
Centro G.Torre,RIA,Campania,,Italy,,
Centro Horizon Srl,RIA,Campania,,Italy,,
Centro Juvenia Srl,RIA,Campania,,Italy,,
Centro Juventus Vibonati S.R.L,RIA,Campania,,Italy,,
Centro Lars,RIA,Campania,,Italy,,
Centro Manzoni Srl,RIA,Campania,,Italy,,
Centro Med.Psicosomatica,RIA,Campania,,Italy,,
Centro Med.Riabil.S.Marco Srl,RIA,Campania,,Italy,,
Centro Medico Riabilit. Pompei,RIA,Campania,,Italy,,
Centro Minerva    Srl,RIA,Campania,,Italy,,
Centro Panda Srl,RIA,Campania,,Italy,,
Centro Plinio Srl,RIA,Campania,,Italy,,
Centro Prif S.R.L.,RIA,Campania,,Italy,,
Centro Pro-Juventute Minerva,RIA,Campania,,Italy,,
Centro Relax S.P.A.,RIA,Campania,,Italy,,
Centro Relax Spa R.L.Caporaso,RIA,Campania,,Italy,,
Centro Riab. E Rec. H. Abatese,RIA,Campania,,Italy,,
Centro Riabilitazione Motoria,RIA,Campania,,Italy,,
Centro Riabilitazione Procida,RIA,Campania,,Italy,,
Centro Rodi Srl,RIA,Campania,,Italy,,
Centro S. Ciro,RIA,Campania,,Italy,,
Centro S. Paolo,RIA,Campania,,Italy,,
Centro Salus S.R.L.,RIA,Campania,,Italy,,
Centro San Vincenzo,RIA,Campania,,Italy,,
Centro Serena Sas,RIA,Campania,,Italy,,
Centro Studi Dell Scoliosi Srl,RIA,Campania,,Italy,,
Centro Terap. Riab.De Nicola,RIA,Campania,,Italy,,
Centro Tivan Srl,RIA,Campania,,Italy,,
Centro Vaccinale  Anticovid  Iiss S. Caterina Ds66,STS,Campania,,Italy,,
Centro Vaccinale  Baronissi C/O Palairno-Ds67,STS,Campania,,Italy,,
Centro Vaccinale  Di Siano-Ds67,STS,Campania,,Italy,,
Centro Vaccinale - San Marzano Sul Sarno-Ds62,STS,Campania,,Italy,,
Centro Vaccinale Acerra,STS,Campania,,Italy,,
Centro Vaccinale Afragola,STS,Campania,,Italy,,
Centro Vaccinale Agerola,STS,Campania,,Italy,,
Centro Vaccinale Altavilla Irpina,STS,Campania,,Italy,,
Centro Vaccinale -Angri-Ds61,STS,Campania,,Italy,,
Centro Vaccinale Anti Covid Ds61,STS,Campania,,Italy,,
Centro Vaccinale Anti Covid Ds63,STS,Campania,,Italy,,
Centro Vaccinale Anti Covid Teatro Augusteo Ds66,STS,Campania,,Italy,,
Centro Vaccinale Anti Covid-Pagani-Ds62,STS,Campania,,Italy,,
Centro Vaccinale Anticovid-Sala Consilina-Ds72,STS,Campania,,Italy,,
Centro Vaccinale Ariano Irpino,STS,Campania,,Italy,,
Centro Vaccinale Avellino,STS,Campania,,Italy,,
Centro Vaccinale Bacoli,STS,Campania,,Italy,,
Centro Vaccinale Bisaccia,STS,Campania,,Italy,,
Centro Vaccinale Boscotrecase,STS,Campania,,Italy,,
Centro Vaccinale C/O Centro Sociale-Ds66,STS,Campania,,Italy,,
Centro Vaccinale C/O Teatro De Lise-Ds62,STS,Campania,,Italy,,
Centro Vaccinale Cardito,STS,Campania,,Italy,,
Centro Vaccinale Casalnuovo,STS,Campania,,Italy,,
Centro Vaccinale Casavatore,STS,Campania,,Italy,,
Centro Vaccinale Castellammare Di Stabia,STS,Campania,,Italy,,
Centro Vaccinale -Cava Dei Tirreni-Ds63,STS,Campania,,Italy,,
Centro Vaccinale Cercola,STS,Campania,,Italy,,
Centro Vaccinale Cervinara,STS,Campania,,Italy,,
Centro Vaccinale Di  Fisciano-Ds67,STS,Campania,,Italy,,
Centro Vaccinale Di Sassano- Ds72,STS,Campania,,Italy,,
Centro Vaccinale Ercolano,STS,Campania,,Italy,,
Centro Vaccinale Fagianeria Real Bosco Di Capodimonte,STS,Campania,,Italy,,
Centro Vaccinale Flumeri,STS,Campania,,Italy,,
Centro Vaccinale Forio,STS,Campania,,Italy,,
Centro Vaccinale Frattamaggiore,STS,Campania,,Italy,,
Centro Vaccinale Frattaminore,STS,Campania,,Italy,,
Centro Vaccinale Giugliano,STS,Campania,,Italy,,
Centro Vaccinale Grottaminarda,STS,Campania,,Italy,,
Centro Vaccinale Hangar Atitech,STS,Campania,,Italy,,
Centro Vaccinale Hub Capodichino,STS,Campania,,Italy,,
Centro Vaccinale Ischia,STS,Campania,,Italy,,
Centro Vaccinale Lioni,STS,Campania,,Italy,,
Centro Vaccinale M.S.Severino C/O Palestra Scuola Elem.-Ds67,STS,Campania,,Italy,,
Centro Vaccinale Marigliano,STS,Campania,,Italy,,
Centro Vaccinale Massa Lubrense,STS,Campania,,Italy,,
Centro Vaccinale Mercogliano,STS,Campania,,Italy,,
Centro Vaccinale Mirabella Eclanum,STS,Campania,,Italy,,
Centro Vaccinale Montefalcione,STS,Campania,,Italy,,
Centro Vaccinale Monteforte Irpino,STS,Campania,,Italy,,
Centro Vaccinale Montella,STS,Campania,,Italy,,
Centro Vaccinale Montemarano,STS,Campania,,Italy,,
Centro Vaccinale Montoro,STS,Campania,,Italy,,
Centro Vaccinale Moschiano,STS,Campania,,Italy,,
Centro Vaccinale Mugnano Del Cardinale,STS,Campania,,Italy,,
Centro Vaccinale Mugnano Di Napoli,STS,Campania,,Italy,,
Centro Vaccinale Museo Madre,STS,Campania,,Italy,,
Centro Vaccinale Nola,STS,Campania,,Italy,,
Centro Vaccinale Ottaviano,STS,Campania,,Italy,,
Centro Vaccinale Palma Campania,STS,Campania,,Italy,,
Centro Vaccinale Piano Di Sorrento,STS,Campania,,Italy,,
Centro Vaccinale Poggiomarino,STS,Campania,,Italy,,
Centro Vaccinale Pomigliano D' Arco,STS,Campania,,Italy,,
Centro Vaccinale Pompei,STS,Campania,,Italy,,
Centro Vaccinale Portici,STS,Campania,,Italy,,
Centro Vaccinale Pozzuoli,STS,Campania,,Italy,,
Centro Vaccinale Quarto,STS,Campania,,Italy,,
Centro Vaccinale S.Giorgio A Cremano,STS,Campania,,Italy,,
Centro Vaccinale S.M. Di Castellabate-Ds70,STS,Campania,,Italy,,
Centro Vaccinale S.Maria La Carita',STS,Campania,,Italy,,
Centro Vaccinale S.Paolo Bel Sito,STS,Campania,,Italy,,
Centro Vaccinale San Valentino Torio- Ds62,STS,Campania,,Italy,,
Centro Vaccinale Sant' Anastasia,STS,Campania,,Italy,,
Centro Vaccinale Sant'Angelo Dei Lombardi,STS,Campania,,Italy,,
Centro Vaccinale Sant'Antimo,STS,Campania,,Italy,,
Centro Vaccinale Solofra,STS,Campania,,Italy,,
Centro Vaccinale Somma Vesuviana,STS,Campania,,Italy,,
Centro Vaccinale Terzigno,STS,Campania,,Italy,,
Centro Vaccinale Torre Del Greco,STS,Campania,,Italy,,
Centro Vaccinale Vallata,STS,Campania,,Italy,,
Centro Vaccinale Villaricca,STS,Campania,,Italy,,
Centro Vaccinale_Vietri S/M - Ds63,STS,Campania,,Italy,,
Centro Vaccinale-Matierno-Ds66,STS,Campania,,Italy,,
Centro Villa Fraticelli,RIA,Campania,,Italy,,
Cinetic,RIA,Campania,,Italy,,
Civitas Srl,RIA,Campania,,Italy,,
Cmr S.P.A.,RIA,Campania,,Italy,,
Congr. Picc. Apostole Redenz.,RIA,Campania,,Italy,,
Covid Vaccine Center,STS,Campania,,Italy,,
Crs C.Riabilit Sanitaria Spa,RIA,Campania,,Italy,,
Csa Tre Torri Di G.Salzano Sas,RIA,Campania,,Italy,,
Dhc-Day H Cavour,RIA,Campania,,Italy,,
Diarad Snc,RIA,Campania,,Italy,,
Dimensione Azzurra Srl,RIA,Campania,,Italy,,
Dinastar Srl,RIA,Campania,,Italy,,
Femas Centro Riabilitazione,RIA,Campania,,Italy,,
Fkt Fisiot  Riabilitazione Srl,RIA,Campania,,Italy,,
Fond.F.Gambardella - Onlus-,RIA,Campania,,Italy,,
Fond.F.Gambardella - Onlus -Sa,RIA,Campania,,Italy,,
Fond.F.Gambardella-Onlus,RIA,Campania,,Italy,,
Fondaz F.Gambardella Nocera In,RIA,Campania,,Italy,,
Fondazione Don Carlo Gnocchi,RIA,Campania,,Italy,,
Fondazione Istituto Antoniano,RIA,Campania,,Italy,,
Gabinetto Fisiot.Te.Ri,RIA,Campania,,Italy,,
Gerovit S.R.L.,RIA,Campania,,Italy,,
Giffas Ente Morale Onlus,RIA,Campania,,Italy,,
Gifoa Srl,RIA,Campania,,Italy,,
I.Fl.Han.   S.R.L.,RIA,Campania,,Italy,,
I.R.F.R.I.,RIA,Campania,,Italy,,
I.R.M.I    S.R.L.,RIA,Campania,,Italy,,
Insieme S.R.L.,RIA,Campania,,Italy,,
Ipar Srl,RIA,Campania,,Italy,,
Iprha Di Pazzanese,RIA,Campania,,Italy,,
Istituto Antoniano,RIA,Campania,,Italy,,
Istituto Filippo Smaldone,RIA,Campania,,Italy,,
Istituto Iuventus Srl,RIA,Campania,,Italy,,
Istituto Jean Piaget Srl,RIA,Campania,,Italy,,
Istituto Juventus Srl,RIA,Campania,,Italy,,
Istituto M.S.S. Annunziata,RIA,Campania,,Italy,,
L`Incontro Centro Di Fisiokine,RIA,Campania,,Italy,,
L`Oasi -Res Di Riab.Motoria,RIA,Campania,,Italy,,
La  Rinascita,RIA,Campania,,Italy,,
La Pinetina G.A.F.,RIA,Campania,,Italy,,
Linea Medica Srl,RIA,Campania,,Italy,,
Madre Claudia Soc Coop A R.L,RIA,Campania,,Italy,,
Me.Di.Ca. Sud Srl,RIA,Campania,,Italy,,
Medh Center Srl,RIA,Campania,,Italy,,
Medical Center S.R.L.,RIA,Campania,,Italy,,
Medical R. S.R.L.,RIA,Campania,,Italy,,
Neapolisanit  S.R.L.,RIA,Campania,,Italy,,
Nuovo Centro Fkt Srl,RIA,Campania,,Italy,,
Opera Giovanile Juventus,RIA,Campania,,Italy,,
Ortokinesis,RIA,Campania,,Italy,,
Piccolo Cottolengo Don Orione,RIA,Campania,,Italy,,
Pres  Riab Diocleziano Srl,RIA,Campania,,Italy,,
Prov.Rel. Ss.Ap.Pietro E Paolo,RIA,Campania,,Italy,,
Punto Vaccinale Cetara -Ds63,STS,Campania,,Italy,,
Punto Vaccinale Oliveto Citra-Ds64,STS,Campania,,Italy,,
Punto Vaccinale-Caggiano-Ds72,STS,Campania,,Italy,,
Relax S.P.A.,RIA,Campania,,Italy,,
Riabilitazione Pompeiana,RIA,Campania,,Italy,,
Salus   S.R.L.,RIA,Campania,,Italy,,
Sanatrix Nuovo Elaion,RIA,Campania,,Italy,,
Serapide - Monte Di Procida,RIA,Campania,,Italy,,
Serapide - Mugnano,RIA,Campania,,Italy,,
Serapide - Pozzuoli,RIA,Campania,,Italy,,
Servizi Sanitari Srl,RIA,Campania,,Italy,,
Silba Spa- Villa Silvia,RIA,Campania,,Italy,,
Silba Spa-Villa Alba,RIA,Campania,,Italy,,
Silenziosi Operai Della Croce,RIA,Campania,,Italy,,
So.Ge.Sa.Srl,RIA,Campania,,Italy,,
Stud Polid Persico Primi Srl,RIA,Campania,,Italy,,
Studio Cieffemme,RIA,Campania,,Italy,,
Studio Ter.Fis. Cdt G.De Masi,RIA,Campania,,Italy,,
Teoreo,RIA,Campania,,Italy,,
Therapic Center Srl,RIA,Campania,,Italy,,
Villa Dei Cedri S.R.L.,RIA,Campania,,Italy,,
Villa Dei Fiori,RIA,Campania,,Italy,,
Villa Dei Fiori Ex Gieffe Srl,RIA,Campania,,Italy,,
Villa Delle Ginestre  S.R.L.,RIA,Campania,,Italy,,
Amb. Vacc. Covid Calderara Di Reno Via Armaroli (Hub Az. Bonfiglioli),STS,Emilia-Romagna,,Italy,,
Amb. Vaccinale Ausl Bologna C/O Ior Bologna,STS,Emilia-Romagna,,Italy,,
Amb. Vaccinale Covid Anzola Via F. Santi (Hub Le Notti Di Cabiria),STS,Emilia-Romagna,,Italy,,
Amb. Vaccinale Covid Argelato Via Centese,STS,Emilia-Romagna,,Italy,,
Amb. Vaccinale Covid Bologna (Unibo) Via San Donato,STS,Emilia-Romagna,,Italy,,
Amb. Vaccinale Covid Bologna Autostazione Piazza Xx Settembre,STS,Emilia-Romagna,,Italy,,
Amb. Vaccinale Covid Bologna Roncati Via S Isaia,STS,Emilia-Romagna,,Italy,,
Amb. Vaccinale Covid Budrio La Magnolia Via Bianchi,STS,Emilia-Romagna,,Italy,,
Amb. Vaccinale Covid Budrio Piazzale Gioventu',STS,Emilia-Romagna,,Italy,,
Amb. Vaccinale Covid Calderara Di R. Via Garibaldi,STS,Emilia-Romagna,,Italy,,
Amb. Vaccinale Covid Camugnano Piazza Kennedy,STS,Emilia-Romagna,,Italy,,
Amb. Vaccinale Covid Casalecchio Di Reno Via Gino Cervi,STS,Emilia-Romagna,,Italy,,
Amb. Vaccinale Covid Casalecchio Parco Rodari,STS,Emilia-Romagna,,Italy,,
Amb. Vaccinale Covid Casalecchio Via Porrettana,STS,Emilia-Romagna,,Italy,,
Amb. Vaccinale Covid Castel D'Aiano Sede Cri Via Val D'Aneva,STS,Emilia-Romagna,,Italy,,
Amb. Vaccinale Covid Castel Di Casio Via Torre Nuova,STS,Emilia-Romagna,,Italy,,
Amb. Vaccinale Covid Castel Maggiore Sala Pp Pasolini Piazza Amendola,STS,Emilia-Romagna,,Italy,,
Amb. Vaccinale Covid Castello D'Argile Via Del Mincio,STS,Emilia-Romagna,,Italy,,
Amb. Vaccinale Covid Castenaso Cs Airone Via Marconi,STS,Emilia-Romagna,,Italy,,
Amb. Vaccinale Covid Castiglione Dei Pepoli Piazza Mercato,STS,Emilia-Romagna,,Italy,,
Amb. Vaccinale Covid Crevalcore Viale Italia,STS,Emilia-Romagna,,Italy,,
Amb. Vaccinale Covid Gaggio Montano Sede Cri Via Cavalieri Di V. Veneto,STS,Emilia-Romagna,,Italy,,
Amb. Vaccinale Covid Gaggio Montano Via Giovanni Xxiii,STS,Emilia-Romagna,,Italy,,
Amb. Vaccinale Covid Galliera Via Della Pace,STS,Emilia-Romagna,,Italy,,
Amb. Vaccinale Covid Grizzana M. Loc. Le Casiline,STS,Emilia-Romagna,,Italy,,
Amb. Vaccinale Covid Lizzano In B. Sede Cri Via Azzali,STS,Emilia-Romagna,,Italy,,
Amb. Vaccinale Covid Minerbio Via Roma,STS,Emilia-Romagna,,Italy,,
Amb. Vaccinale Covid Monte S Pietro Via Gullini,STS,Emilia-Romagna,,Italy,,
Amb. Vaccinale Covid Monzuno Ex Scuole Via Val Di Sambro,STS,Emilia-Romagna,,Italy,,
Amb. Vaccinale Covid Pianoro Via Resistenza,STS,Emilia-Romagna,,Italy,,
Amb. Vaccinale Covid S Agata B. Via Sibirani,STS,Emilia-Romagna,,Italy,,
Amb. Vaccinale Covid S Benedetto Val Di Sambro Via Resistenza,STS,Emilia-Romagna,,Italy,,
Amb. Vaccinale Covid S Giovanni In P. Via Newton,STS,Emilia-Romagna,,Italy,,
Amb. Vaccinale Covid S. Giorgio Di P. Via Pirotti,STS,Emilia-Romagna,,Italy,,
Amb. Vaccinale Covid Sala Bolognese Padulle Via Marconi,STS,Emilia-Romagna,,Italy,,
Amb. Vaccinale Covid San Lazzaro Di S. Via Della Repubblica,STS,Emilia-Romagna,,Italy,,
Amb. Vaccinale Covid Sasso Marconi Via Bertacchi,STS,Emilia-Romagna,,Italy,,
Amb. Vaccinale Covid Sg In Persiceto Sm Della Decima Via Cento,STS,Emilia-Romagna,,Italy,,
Amb. Vaccinale Covid Sl Di Savena Officine Via Emilia 253,STS,Emilia-Romagna,,Italy,,
Amb. Vaccinale Covid Sp In Casale Via Conta,STS,Emilia-Romagna,,Italy,,
Amb. Vaccinale Covid Sp In Casale Via Galliera,STS,Emilia-Romagna,,Italy,,
Amb. Vaccinale Covid Tole' Via Basabue,STS,Emilia-Romagna,,Italy,,
Amb. Vaccinale Covid Vado Via Crisalidi,STS,Emilia-Romagna,,Italy,,
Amb. Vaccinale Covid Valsamoggia Viale Martiri,STS,Emilia-Romagna,,Italy,,
Amb. Vaccinale Fiera Di Bologna Padiglione Polivalente,STS,Emilia-Romagna,,Italy,,
Centro Vaccinale Covid Cmp,STS,Emilia-Romagna,,Italy,,
Centro Vaccinale Covid Esp,STS,Emilia-Romagna,,Italy,,
Centro Vaccinale Di Bomporto,STS,Emilia-Romagna,,Italy,,
Centro Vaccinale Di Carpi,STS,Emilia-Romagna,,Italy,,
Centro Vaccinale Di Castelfranco Emilia Presso Palasport,STS,Emilia-Romagna,,Italy,,
Centro Vaccinale Di Fanano,STS,Emilia-Romagna,,Italy,,
Centro Vaccinale Di Mirandola Presso Centro Prelievi,STS,Emilia-Romagna,,Italy,,
Centro Vaccinale Di Mirandola Presso Comune,STS,Emilia-Romagna,,Italy,,
Centro Vaccinale Di Modena Presso Hangar 3 Caserma Setti,STS,Emilia-Romagna,,Italy,,
Centro Vaccinale Di Montefiorino,STS,Emilia-Romagna,,Italy,,
Centro Vaccinale Di Montese,STS,Emilia-Romagna,,Italy,,
Centro Vaccinale Di Palagano,STS,Emilia-Romagna,,Italy,,
Centro Vaccinale Di Pavullo Presso Centro La Campanella,STS,Emilia-Romagna,,Italy,,
Centro Vaccinale Di Polinago,STS,Emilia-Romagna,,Italy,,
Centro Vaccinale Di Prignano Sulla Secchia,STS,Emilia-Romagna,,Italy,,
Centro Vaccinale Di San Felice Sul Panaro Presso Comune,STS,Emilia-Romagna,,Italy,,
Centro Vaccinale Di Sassuolo Presso Ferrari Spa,STS,Emilia-Romagna,,Italy,,
Centro Vaccinale Di Vignola Presso Oratorio  Chiesa Parrocchiale Di Brodano,STS,Emilia-Romagna,,Italy,,
Centro Vaccinale Di Zocca,STS,Emilia-Romagna,,Italy,,
Centro Vaccinale Fiumalbo,STS,Emilia-Romagna,,Italy,,
Centro Vaccinale Provinciale Rimini,STS,Emilia-Romagna,,Italy,,
Covid Vaccinazione Anti Covid - Centro Sociale Torre Del Primaro Argenta,STS,Emilia-Romagna,,Italy,,
Covid Vaccinazione Anti Covid - Centro Vaccinale Cento,STS,Emilia-Romagna,,Italy,,
Covid Vaccinazione Anti Covid - Cittadella Dello Sport Di Comacchio,STS,Emilia-Romagna,,Italy,,
Covid Vaccinazione Anti Covid - Fiera Congressi Di Ferrara,STS,Emilia-Romagna,,Italy,,
Covid Vaccinazione Anti Covid - Palazzetto Centro Studi Di Codigoro,STS,Emilia-Romagna,,Italy,,
Covid Vaccinazione Anti Covid Sede Prov - Fiera,STS,Emilia-Romagna,,Italy,,
Covid Vaccinazione Anti Covid Sede Prov - Fiera Di Cesena,STS,Emilia-Romagna,,Italy,,
Covid Vaccinazione Anti Covid Sede Prov - Fiera Forli',STS,Emilia-Romagna,,Italy,,
Covid Vaccinazione Anti Covid Sede Prov - Pala De Andre,STS,Emilia-Romagna,,Italy,,
Fondazione Don Carlo Gnocchi,RIA,Emilia-Romagna,,Italy,,
Hub Bonfiglioli Vacc.Covid 19,STS,Emilia-Romagna,,Italy,,
Hub Ima Vacc.Covid 19,STS,Emilia-Romagna,,Italy,,
Hub Unisalute Vacc.Covid 19,STS,Emilia-Romagna,,Italy,,
Igiene Pubblica Borgo Val Di Taro,STS,Emilia-Romagna,,Italy,,
Igiene Pubblica Borgo Val Di Taro Distaccato Vaccinazioni,STS,Emilia-Romagna,,Italy,,
Igiene Pubblica Fidenza,STS,Emilia-Romagna,,Italy,,
Igiene Pubblica Langhirano,STS,Emilia-Romagna,,Italy,,
Igiene Pubblica Parma,STS,Emilia-Romagna,,Italy,,
Inail-Centro Di Vigorso,RIA,Emilia-Romagna,,Italy,,
Luce Sul Mare,RIA,Emilia-Romagna,,Italy,,
Punto Adi Vaccinazione Anti Covid 19 - Casa Della Salute Di Cspt,STS,Emilia-Romagna,,Italy,,
Punto Adi Vaccinazione Anti Covid 19 - Casa Della Salute Di Medicina,STS,Emilia-Romagna,,Italy,,
Punto Adi Vaccinazione Anti Covid 19 - Casa Della Salute Vallata Del Santerno,STS,Emilia-Romagna,,Italy,,
"Punto Adi Vaccinazione Anti Covid 19 - Teatro ""L. Lolli""",STS,Emilia-Romagna,,Italy,,
Punto Unico Provinciale Vaccinale Anti Sars-Cov-2,STS,Emilia-Romagna,,Italy,,
Punto Vaccinale Ambulatorio Ospedale Carpi,STS,Emilia-Romagna,,Italy,,
Punto Vaccinale Ambulatorio Presso Ospedale Vignola,STS,Emilia-Romagna,,Italy,,
Punto Vaccinale Anticovid C/O Ospedale Forli',STS,Emilia-Romagna,,Italy,,
Punto Vaccinale Anticovid Temporaneo - Alfonsine,STS,Emilia-Romagna,,Italy,,
Punto Vaccinale Anticovid Temporaneo - Bagno Di Romagna,STS,Emilia-Romagna,,Italy,,
Punto Vaccinale Anticovid Temporaneo - Bellaria-Igea Marina,STS,Emilia-Romagna,,Italy,,
Punto Vaccinale Anticovid Temporaneo - Casola Valsenio,STS,Emilia-Romagna,,Italy,,
Punto Vaccinale Anticovid Temporaneo - Castelbolognese,STS,Emilia-Romagna,,Italy,,
Punto Vaccinale Anticovid Temporaneo - Cattolica,STS,Emilia-Romagna,,Italy,,
Punto Vaccinale Anticovid Temporaneo - Cervia,STS,Emilia-Romagna,,Italy,,
Punto Vaccinale Anticovid Temporaneo - Cesenatico,STS,Emilia-Romagna,,Italy,,
Punto Vaccinale Anticovid Temporaneo - Conselice,STS,Emilia-Romagna,,Italy,,
Punto Vaccinale Anticovid Temporaneo - Faenza Fiera,STS,Emilia-Romagna,,Italy,,
Punto Vaccinale Anticovid Temporaneo - Forli' Via Colombo,STS,Emilia-Romagna,,Italy,,
Punto Vaccinale Anticovid Temporaneo - Lugo,STS,Emilia-Romagna,,Italy,,
Punto Vaccinale Anticovid Temporaneo - Massa Lombarda,STS,Emilia-Romagna,,Italy,,
Punto Vaccinale Anticovid Temporaneo - Mercato Saraceno,STS,Emilia-Romagna,,Italy,,
Punto Vaccinale Anticovid Temporaneo - Modigliana,STS,Emilia-Romagna,,Italy,,
Punto Vaccinale Anticovid Temporaneo - Morciano Di Romagna,STS,Emilia-Romagna,,Italy,,
Punto Vaccinale Anticovid Temporaneo - Novafeltria,STS,Emilia-Romagna,,Italy,,
Punto Vaccinale Anticovid Temporaneo - Poggio Torriana,STS,Emilia-Romagna,,Italy,,
Punto Vaccinale Anticovid Temporaneo - Predappio,STS,Emilia-Romagna,,Italy,,
Punto Vaccinale Anticovid Temporaneo - Riccione,STS,Emilia-Romagna,,Italy,,
Punto Vaccinale Anticovid Temporaneo - Rocca San Casciano,STS,Emilia-Romagna,,Italy,,
Punto Vaccinale Anticovid Temporaneo - Russi,STS,Emilia-Romagna,,Italy,,
Punto Vaccinale Anticovid Temporaneo - Santa Sofia,STS,Emilia-Romagna,,Italy,,
Punto Vaccinale Anticovid Temporaneo - Savignano,STS,Emilia-Romagna,,Italy,,
Punto Vaccinale Anticovid Temporaneo - Spv Ravenna,STS,Emilia-Romagna,,Italy,,
Punto Vaccinale Anticovid Temporaneo Clinica Mobile Ravenna,STS,Emilia-Romagna,,Italy,,
Punto Vaccinale Anticovid Temporaneo Clinica Mobile Rimini,STS,Emilia-Romagna,,Italy,,
Punto Vaccinale Bobbio,STS,Emilia-Romagna,,Italy,,
Punto Vaccinale Fiorenzuola D'Arda,STS,Emilia-Romagna,,Italy,,
Punto Vaccinale Palacastello,STS,Emilia-Romagna,,Italy,,
Punto Vaccinale Parma - Gazzetta Di Parma,STS,Emilia-Romagna,,Italy,,
Punto Vaccinale Parma - Hub Aziendale,STS,Emilia-Romagna,,Italy,,
Punto Vaccinale Parma - Pala Ponti,STS,Emilia-Romagna,,Italy,,
Punto Vaccinale Parma - Via Quasimodo,STS,Emilia-Romagna,,Italy,,
Punto Vaccinale Polivalente,STS,Emilia-Romagna,,Italy,,
Punto Vaccinale Presso Ambulatorio Azienda Ospedaliera Modena,STS,Emilia-Romagna,,Italy,,
Punto Vaccinale Presso Ambulatorio Ospedale Baggiovara,STS,Emilia-Romagna,,Italy,,
Punto Vaccinale Presso Ambulatorio Ospedale Di Comunita Castelfranco Emilia,STS,Emilia-Romagna,,Italy,,
Punto Vaccinale Presso Ambulatorio Ospedale Mirandola,STS,Emilia-Romagna,,Italy,,
Punto Vaccinale Presso Ambulatorio Ospedale Pavullo,STS,Emilia-Romagna,,Italy,,
Punto Vaccinale Presso Ambulatorio Ospedale Sassuolo,STS,Emilia-Romagna,,Italy,,
Punto Vaccinale Presso Ambulatorio Protetto Ospedale Baggiovara,STS,Emilia-Romagna,,Italy,,
Punto Vaccinale Presso Azienda Ospedaliera Policlinico,STS,Emilia-Romagna,,Italy,,
Punto Vaccinale Presso Centro Antidiabetico Di Carpi,STS,Emilia-Romagna,,Italy,,
Punto Vaccinale Presso Centro Antidiabetico Di Castelfranco Emilia,STS,Emilia-Romagna,,Italy,,
Punto Vaccinale Presso Centro Antidiabetico Di Mirandola,STS,Emilia-Romagna,,Italy,,
Punto Vaccinale Presso Centro Antidiabetico Di Modena,STS,Emilia-Romagna,,Italy,,
Punto Vaccinale Presso Centro Antidiabetico Di Pavullo,STS,Emilia-Romagna,,Italy,,
Punto Vaccinale Presso Centro Antidiabetico Di Sassuolo,STS,Emilia-Romagna,,Italy,,
Punto Vaccinale Presso Centro Antidiabetico Di Vignola,STS,Emilia-Romagna,,Italy,,
Punto Vaccinale Presso Dialisi Casa Della Salute Di Castelfranco Emilia,STS,Emilia-Romagna,,Italy,,
Punto Vaccinale Presso Dialisi Ospedale Di Carpi,STS,Emilia-Romagna,,Italy,,
Punto Vaccinale Presso Dialisi Ospedale Di Mirandola,STS,Emilia-Romagna,,Italy,,
Punto Vaccinale Presso Dialisi Ospedale Di Pavullo,STS,Emilia-Romagna,,Italy,,
Punto Vaccinale Presso Dialisi Ospedale Di Vignola,STS,Emilia-Romagna,,Italy,,
Punto Vaccinale Territoriale - Alta Val Nure,STS,Emilia-Romagna,,Italy,,
Punto Vaccinale Territoriale - Levante,STS,Emilia-Romagna,,Italy,,
Punto Vaccinale Territoriale Arsenale,STS,Emilia-Romagna,,Italy,,
Punto Vaccinale Territoriale Piacenza Expo,STS,Emilia-Romagna,,Italy,,
Punto Vaccinazione Anti Covid 19 - Auditorium Ex Chiesa Osservanza,STS,Emilia-Romagna,,Italy,,
Servizio Profilassi Malattie Infettive,STS,Emilia-Romagna,,Italy,,
Vaccinazione Covid - Ambulatorio Percorso Protetto  - Reggio Emilia,STS,Emilia-Romagna,,Italy,,
Vaccinazione Covid - Ex Ospedale Lazzaro Spallanzani,STS,Emilia-Romagna,,Italy,,
Vaccinazione Covid C/O Distretto Di Correggio,STS,Emilia-Romagna,,Italy,,
Vaccinazione Covid C/O Fiera Di Scandiano,STS,Emilia-Romagna,,Italy,,
Vaccinazione Covid C/O Ospedale Di Castelnovo Ne' Monti,STS,Emilia-Romagna,,Italy,,
Vaccinazione Covid C/O Ospedale Di Guastalla,STS,Emilia-Romagna,,Italy,,
Vaccinazione Covid C/O Ospedale Di Montecchio,STS,Emilia-Romagna,,Italy,,
Vaccinazioni Covid Fiera Cup,STS,Emilia-Romagna,,Italy,,
Villa Salus,RIA,Emilia-Romagna,,Italy,,
Associaz. 'La Nostra Famiglia',RIA,Friuli-Venezia Giulia,,Italy,,
Bambini E Autismo,RIA,Friuli-Venezia Giulia,,Italy,,
Centro Progetto Spilimbergo,RIA,Friuli-Venezia Giulia,,Italy,,
Centro Vaccinale Anti Covid 19  Gorizia Fiera,STS,Friuli-Venezia Giulia,,Italy,,
Centro Vaccinale Anti Covid 19 Burlo,STS,Friuli-Venezia Giulia,,Italy,,
Centro Vaccinale Anti Covid 19 Centro Anziani Monfalcone,STS,Friuli-Venezia Giulia,,Italy,,
Centro Vaccinale Anti Covid 19 Dip Prevenzione Gorizia,STS,Friuli-Venezia Giulia,,Italy,,
Centro Vaccinale Anti Covid 19 Dip Prevenzione San Giovanni,STS,Friuli-Venezia Giulia,,Italy,,
Centro Vaccinale Anti Covid 19 Molo Iv,STS,Friuli-Venezia Giulia,,Italy,,
Centro Vaccinale Anti Covid 19 Palestra Comunale Aurisina,STS,Friuli-Venezia Giulia,,Italy,,
Centro Vaccinale Anti Covid 19 Palestra Comunale Muggia,STS,Friuli-Venezia Giulia,,Italy,,
Centro Vaccinale Anti Covid 19 Porto Franco Trieste,STS,Friuli-Venezia Giulia,,Italy,,
Centro Vaccinale Anti Covid 19 Ronchi Dei Legionari,STS,Friuli-Venezia Giulia,,Italy,,
Centro Vaccinale Di Maniago - Ex Ipsia,STS,Friuli-Venezia Giulia,,Italy,,
Cittadella Della Salute,STS,Friuli-Venezia Giulia,,Italy,,
Comunita' Di Rinascita,RIA,Friuli-Venezia Giulia,,Italy,,
Comunita' Piergiorgio - Onlus,RIA,Friuli-Venezia Giulia,,Italy,,
Eutonia Sanità E Salute,RIA,Friuli-Venezia Giulia,,Italy,,
Friuli Riabilitazione S.R.L.,RIA,Friuli-Venezia Giulia,,Italy,,
Ist.Med.Pedag.'S.Maria Colli',RIA,Friuli-Venezia Giulia,,Italy,,
La Nostra Famiglia,RIA,Friuli-Venezia Giulia,,Italy,,
Ospizio Marino Di Grado,RIA,Friuli-Venezia Giulia,,Italy,,
Punto Vaccinale C/O  Residenza Polifunzionale Di Campeglio,STS,Friuli-Venezia Giulia,,Italy,,
Punto Vaccinale C/O Casa Di Accoglienza Del Clero,STS,Friuli-Venezia Giulia,,Italy,,
Punto Vaccinale C/O Comunità Alloggio Associazione Anziani,STS,Friuli-Venezia Giulia,,Italy,,
Punto Vaccinale C/O Comunità Alloggio Di Attimis,STS,Friuli-Venezia Giulia,,Italy,,
Punto Vaccinale C/O Comunità Alloggio Di Lusevera  - Villanova 110,STS,Friuli-Venezia Giulia,,Italy,,
Punto Vaccinale C/O Comunità Alloggio Di Lusevera - Pradielis 11 E 11/A,STS,Friuli-Venezia Giulia,,Italy,,
Punto Vaccinale C/O I Faggi,STS,Friuli-Venezia Giulia,,Italy,,
Punto Vaccinale C/O La Villa Rosa,STS,Friuli-Venezia Giulia,,Italy,,
Punto Vaccinale C/O Santa Maria Degli Angeli,STS,Friuli-Venezia Giulia,,Italy,,
Punto Vaccinale C/O Zaffiro Di Rivignano,STS,Friuli-Venezia Giulia,,Italy,,
Punto Vaccinale Covid Cap Mortegliano,STS,Friuli-Venezia Giulia,,Italy,,
Punto Vaccinale Covid Cap Zugliano,STS,Friuli-Venezia Giulia,,Italy,,
Punto Vaccinale Covid Centro Comm.Le Le Manifatture Gemona,STS,Friuli-Venezia Giulia,,Italy,,
Punto Vaccinale Covid Cividale Palazzetto Dello Sport,STS,Friuli-Venezia Giulia,,Italy,,
Punto Vaccinale Covid Codroipo Tensostruttura,STS,Friuli-Venezia Giulia,,Italy,,
Punto Vaccinale Covid Ente Fiera Udine,STS,Friuli-Venezia Giulia,,Italy,,
Punto Vaccinale Covid Latisana Palestra Scuola,STS,Friuli-Venezia Giulia,,Italy,,
Punto Vaccinale Covid Manzano Palazzetto Dello Sport,STS,Friuli-Venezia Giulia,,Italy,,
Punto Vaccinale Covid Modus Tennis Club Tarcento,STS,Friuli-Venezia Giulia,,Italy,,
Punto Vaccinale Covid Palasport Latisanotta,STS,Friuli-Venezia Giulia,,Italy,,
Punto Vaccinale Covid Palazzetto Dello Sport Tarvisio,STS,Friuli-Venezia Giulia,,Italy,,
Punto Vaccinale Covid Palestra Lignano Sabbiadoro,STS,Friuli-Venezia Giulia,,Italy,,
Punto Vaccinale Covid Stadio Friuli,STS,Friuli-Venezia Giulia,,Italy,,
Punto Vaccinale Covid Tolmezzo Palatennis,STS,Friuli-Venezia Giulia,,Italy,,
Punto Vaccinale Covid Universita' Di Udine - Polo Scientifico Dei Rizzi,STS,Friuli-Venezia Giulia,,Italy,,
Punto Vaccinale Covid Villa Manin,STS,Friuli-Venezia Giulia,,Italy,,
Studio Fis. Busetto & Ponte,RIA,Friuli-Venezia Giulia,,Italy,,
Uildm Sezione Di Pordenone,RIA,Friuli-Venezia Giulia,,Italy,,
' San Raffaele '  Cassino,RIA,Lazio,,Italy,,
""" Centro Benessere Srl """,RIA,Lazio,,Italy,,
A.I.R.R.I.,RIA,Lazio,,Italy,,
A.I.R.R.I. Bracciano,RIA,Lazio,,Italy,,
A.L.M.,RIA,Lazio,,Italy,,
A.L.M. - Carlo Lodi,RIA,Lazio,,Italy,,
Adm - Gruppo Audiomedical Srl,RIA,Lazio,,Italy,,
Airri Ciampino Srl,RIA,Lazio,,Italy,,
Airri Clodio,RIA,Lazio,,Italy,,
Airri Medical,RIA,Lazio,,Italy,,
Alm Ass. Laziale Motulesi,RIA,Lazio,,Italy,,
Anfas Roma Onlus,RIA,Lazio,,Italy,,
Ar Sana 2,RIA,Lazio,,Italy,,
Argos Centro Di Riabilitazione,RIA,Lazio,,Italy,,
Ars Sana,RIA,Lazio,,Italy,,
Ass. Istituto S. Cecilia,RIA,Lazio,,Italy,,
Assoc. Ne Scuola Viva Onlus,RIA,Lazio,,Italy,,
Assohandicap Art. 26,RIA,Lazio,,Italy,,
Buon Lavoro Piccoli,RIA,Lazio,,Italy,,
C. C. Villa Sandra,RIA,Lazio,,Italy,,
C. Riab.Psicomotoria Padre Pio,RIA,Lazio,,Italy,,
C.M.P.H.,RIA,Lazio,,Italy,,
C.M.P.H. - Via Livorno,RIA,Lazio,,Italy,,
C.O.E.S Onlus,RIA,Lazio,,Italy,,
C.R.C. Balbuzie,RIA,Lazio,,Italy,,
Casa Di Cura Santa Rita Da Cas,RIA,Lazio,,Italy,,
Casa Di Cura Villa Fulvia,RIA,Lazio,,Italy,,
Casa Giocosa,RIA,Lazio,,Italy,,
Casa Loic,RIA,Lazio,,Italy,,
'Casaletto' Anffas Roma Onlus,RIA,Lazio,,Italy,,
Cen. Neuro. Arcobaleno,RIA,Lazio,,Italy,,
Centr Riabilitativo Ecass,RIA,Lazio,,Italy,,
Centro 'A. Boggi',RIA,Lazio,,Italy,,
Centro Adelphi,RIA,Lazio,,Italy,,
Centro Amb Mondo Riabilitazion,RIA,Lazio,,Italy,,
Centro Amb.Le-Domic.Re Unisan,RIA,Lazio,,Italy,,
Centro Ambulatoriale,RIA,Lazio,,Italy,,
Centro Bambu',RIA,Lazio,,Italy,,
Centro Di Audiofonologopedia,RIA,Lazio,,Italy,,
Centro Di Riab.La Valle,RIA,Lazio,,Italy,,
Centro Diagnostico Arce,RIA,Lazio,,Italy,,
Centro Educazione Motoria Cem,RIA,Lazio,,Italy,,
Centro Educazione Motoria -Cem,RIA,Lazio,,Italy,,
Centro Primula Abbvie Aprilia,STS,Lazio,,Italy,,
Centro Primula Asl Roma 1 Termini,STS,Lazio,,Italy,,
Centro Primula Asl Roma1 Comprensorio S.Maria Della Pieta' Padiglione 90,STS,Lazio,,Italy,,
Centro Primula Centro Itaca,STS,Lazio,,Italy,,
Centro Primula Latina Expo,STS,Lazio,,Italy,,
Centro Regionale S.Alessio,RIA,Lazio,,Italy,,
Centro Ria H Riabilitazione Sr,RIA,Lazio,,Italy,,
Centro Riab. Poggio Mirteto,RIA,Lazio,,Italy,,
Centro Riab. Santa Rosa,RIA,Lazio,,Italy,,
Centro Riab.Ne S. Raffaele,RIA,Lazio,,Italy,,
Centro Riabilitativo Ecass,RIA,Lazio,,Italy,,
Centro Riabilitazione Al Parco,RIA,Lazio,,Italy,,
Centro Riabilitazione Dahlia,RIA,Lazio,,Italy,,
Centro S. M. Della Provvidenza,RIA,Lazio,,Italy,,
Centro Sperimentale Per L'Auti,RIA,Lazio,,Italy,,
Centro Tangram,RIA,Lazio,,Italy,,
"Centro Vaccinale ""La Vela"" Policlinico Tor Vergata",STS,Lazio,,Italy,,
Centro Vaccinale Anti-Covid19 Della Sabina Amazon,STS,Lazio,,Italy,,
Centro Vaccinale Covid 19 Asl Roma 1 - 'Acea - Ostiense',STS,Lazio,,Italy,,
Centro Vaccinale Covid 19 Asl Roma 1 - 'Porte Di Roma',STS,Lazio,,Italy,,
Comunità Capodarco,RIA,Lazio,,Italy,,
Comunita` Il Chicco,RIA,Lazio,,Italy,,
Coop Esperanto,RIA,Lazio,,Italy,,
Cooperativa C.A.R.,RIA,Lazio,,Italy,,
Crn  = Centro Riab. Neuromotor,RIA,Lazio,,Italy,,
Didasco Coop. Sociale A.R.L.,RIA,Lazio,,Italy,,
Don Orione - Centro Mutilatini,RIA,Lazio,,Italy,,
Erre-D Srl Latina,RIA,Lazio,,Italy,,
Ex Bosi Centro Vac,STS,Lazio,,Italy,,
Fondaz. Don Carlo Gnocchi,RIA,Lazio,,Italy,,
Fondazione Piccolo Rifugio,RIA,Lazio,,Italy,,
Fondazione Santa Lucia Irccs,RIA,Lazio,,Italy,,
Fondazione Uildm Lazio Onlus,RIA,Lazio,,Italy,,
Fondaziozione Roma Litorale On,RIA,Lazio,,Italy,,
Fuori Dal Tunnel,RIA,Lazio,,Italy,,
Giomi Rsa Laz- Centro Armonia,RIA,Lazio,,Italy,,
Gli Annali,RIA,Lazio,,Italy,,
Hub Vaccinale Comunita' Di Sant'Egidio,STS,Lazio,,Italy,,
I.M.P.P.I.T.  Infanzia Tardiva,RIA,Lazio,,Italy,,
Ini Divisione Villa Dante,RIA,Lazio,,Italy,,
Ist Figlie S Maria Provvidenza,RIA,Lazio,,Italy,,
Ist.Med. Psico Ped.Sacro Cuore,RIA,Lazio,,Italy,,
Istituto Calamatta,RIA,Lazio,,Italy,,
Istituto Di Ortofonologia,RIA,Lazio,,Italy,,
Istituto Filippo Smaldone,RIA,Lazio,,Italy,,
Istituto Leonarda Vaccari,RIA,Lazio,,Italy,,
Istituto Pia Casa Ambrosini,RIA,Lazio,,Italy,,
La Nostra Scuola,RIA,Lazio,,Italy,,
Medical Spuri S.R.L.,RIA,Lazio,,Italy,,
Mondo Riabilitazione Srl,RIA,Lazio,,Italy,,
Nomentana Hospital Srl,RIA,Lazio,,Italy,,
Opera Don Guanella,RIA,Lazio,,Italy,,
Opera Sante De Sanctis,RIA,Lazio,,Italy,,
Opera Sante De Sanctis-Via Pol,RIA,Lazio,,Italy,,
Parole In Movimento,RIA,Lazio,,Italy,,
Pianeta Riabilitazione,RIA,Lazio,,Italy,,
Poligest Casa Cura V. Querce,RIA,Lazio,,Italy,,
Presidio Di Riabilitazione Osa,RIA,Lazio,,Italy,,
Presidio Di Via Dionisio,RIA,Lazio,,Italy,,
Presidio Filippo Turati,RIA,Lazio,,Italy,,
Progetto Amico,RIA,Lazio,,Italy,,
Punto Di Somministrazione Vaccinale Presso Cinecitta' Studios,STS,Lazio,,Italy,,
Punto Vaccini Anti Covid-19 Fiumicino,STS,Lazio,,Italy,,
Raggio Di Sole,RIA,Lazio,,Italy,,
Rifi Srl,RIA,Lazio,,Italy,,
S.Maria Del Prato,RIA,Lazio,,Italy,,
Sa.Ni. Children S.R.L.,RIA,Lazio,,Italy,,
San Giovanni Di Dio,RIA,Lazio,,Italy,,
Soc. Coop. Sociale Nemo Onlus,RIA,Lazio,,Italy,,
Strutt. Semi-Res. A. Boggi,RIA,Lazio,,Italy,,
Studio Medico San Giorgio,RIA,Lazio,,Italy,,
Te.Ri,RIA,Lazio,,Italy,,
Vaclav Vojta,RIA,Lazio,,Italy,,
Villa Alba E Ist. Cure Fisiche,RIA,Lazio,,Italy,,
Villa Alba Srl,RIA,Lazio,,Italy,,
Villa Ardeatina Srl,RIA,Lazio,,Italy,,
Villa Buon Respiro,RIA,Lazio,,Italy,,
Villa Immacolata,RIA,Lazio,,Italy,,
Villa Santa Margherita,RIA,Lazio,,Italy,,
Villaggio Eugenio Litta Art.26,RIA,Lazio,,Italy,,
A.I.A.S. Villa Sanginetti,RIA,Liguria,,Italy,,
A.N.F.F.As - Albenga,RIA,Liguria,,Italy,,
Albatros Srl  C. Giovanna D'A,RIA,Liguria,,Italy,,
Amb. Guardia Di Finanza Cavour,STS,Liguria,,Italy,,
Ambulatorio Montebruno,STS,Liguria,,Italy,,
Ambulatorio Presso Polizia Di Stato,STS,Liguria,,Italy,,
Ambulatorio Riab. Arcipelago,RIA,Liguria,,Italy,,
Ambulatorio Vaccinale - Carcere Pontedecimo,STS,Liguria,,Italy,,
Ambulatorio Vaccinale - Caserma Polizia Bolzaneto,STS,Liguria,,Italy,,
Ambulatorio Vaccinale - Lilt (Lega Italiana Lotta Contro I Tumori),STS,Liguria,,Italy,,
Ambulatorio Vaccinale - Pieve Ligure Alta,STS,Liguria,,Italy,,
Ambulatorio Vaccinale Covid Ceparana,STS,Liguria,,Italy,,
Ambulatorio Vaccinale Covid Follo,STS,Liguria,,Italy,,
Ambulatorio Vaccinale Covid La Spezia,STS,Liguria,,Italy,,
Ambulatorio Vaccinale Presso Albergo Dei Poveri,STS,Liguria,,Italy,,
Ambulatorio Vaccinazioni Presso Villa Serena,STS,Liguria,,Italy,,
Anffas - Pres. Parini,RIA,Liguria,,Italy,,
Anffas - Pres. Rosa Gattorno,RIA,Liguria,,Italy,,
Anffas - Presidio Cesino,RIA,Liguria,,Italy,,
Anffas - Presidio Coronata,RIA,Liguria,,Italy,,
Anffas - Presidio Falchetti,RIA,Liguria,,Italy,,
Anffas - Presidio Pisacane,RIA,Liguria,,Italy,,
Anffas - Villa Galletto,RIA,Liguria,,Italy,,
Anffas -Dopo Di Noi-V. Cordano,RIA,Liguria,,Italy,,
Anffas Onlus Tigullio Ovest,RIA,Liguria,,Italy,,
Asl1 - Distr.1 Bordighera Covid Mmg,STS,Liguria,,Italy,,
Asl1 - Distr.2 Sanremese Covid Mmg,STS,Liguria,,Italy,,
Asl1 - Distr.3 Imperiese Covid Mmg,STS,Liguria,,Italy,,
Ass. Mai Soli Onlus,RIA,Liguria,,Italy,,
Ass.Tigullio Est Anffas,RIA,Liguria,,Italy,,
Avis Comunale Ronco Scrivia,STS,Liguria,,Italy,,
Badalucco - Centro Vaccinazione Covid,STS,Liguria,,Italy,,
Bajardo - Centro Vaccinazione Covid,STS,Liguria,,Italy,,
Boggiano Pico - Don Orione,RIA,Liguria,,Italy,,
Bogliasco Croce Verde,STS,Liguria,,Italy,,
C. Diurno Disab. V. Gramsci,RIA,Liguria,,Italy,,
C. Terapeutico Diurno Gaggiola,RIA,Liguria,,Italy,,
C.D. Il Girasole,RIA,Liguria,,Italy,,
C.R. Vittoria Giorni - Covid,STS,Liguria,,Italy,,
C.R.C.T.  Il Gabbiano-Segesta,RIA,Liguria,,Italy,,
Camogli Croce Rossa Italiana,STS,Liguria,,Italy,,
Camporosso - Centro Polivalente G.Falcone,STS,Liguria,,Italy,,
Cares Onlus,RIA,Liguria,,Italy,,
Casa Aperta Il Carpanedo,RIA,Liguria,,Italy,,
Casa Del Santo Bambino - Resid,RIA,Liguria,,Italy,,
Casa Del Santo Bambino-Semires,RIA,Liguria,,Italy,,
Casa Della Salute - Multedo,STS,Liguria,,Italy,,
Casa Della Salute - Sampierdarena Torre Msc,STS,Liguria,,Italy,,
Casa Di Riposo San Giuseppe - Covid,STS,Liguria,,Italy,,
Cd Riabilitativo Arcipelago,RIA,Liguria,,Italy,,
Cd Riabilitativo Arcobaleno,RIA,Liguria,,Italy,,
Centro A.I.A.S. Savona,RIA,Liguria,,Italy,,
Centro Di Riabilitazione Srl,RIA,Liguria,,Italy,,
Centro Redulco,RIA,Liguria,,Italy,,
Centro Resid. Germana Costa,RIA,Liguria,,Italy,,
Centro Residenz. La Magnolia,RIA,Liguria,,Italy,,
Centro Riab. 'Luigi Stoppani',RIA,Liguria,,Italy,,
Centro Riab. Res. L'Altalena,RIA,Liguria,,Italy,,
Centro Riab. Uildm Genova,RIA,Liguria,,Italy,,
Centro Socio Sanit Sacro Cuore,RIA,Liguria,,Italy,,
Centro Vaccinale,STS,Liguria,,Italy,,
Centro Vaccinale Auditorium,STS,Liguria,,Italy,,
Centro Vaccinale Corso Dante,STS,Liguria,,Italy,,
Centro Vaccinale Med. Penitenziaria,STS,Liguria,,Italy,,
Centro Vaccinale Stelmilit,STS,Liguria,,Italy,,
Centro Vaccinale Viale Dante,STS,Liguria,,Italy,,
Cepim - Semiresidenziale,RIA,Liguria,,Italy,,
Cepim - Volta,RIA,Liguria,,Italy,,
Cepim L'Appartamento Cent Down,RIA,Liguria,,Italy,,
Ceriana - Centro Vaccinazione Covid ,STS,Liguria,,Italy,,
Chiossone-Car Minori Gli Alber,RIA,Liguria,,Italy,,
Chiusavecchia - Centro Vaccinazione Covid,STS,Liguria,,Italy,,
Codess Sociale Vada Sabatia,RIA,Liguria,,Italy,,
Comune Rovegno,STS,Liguria,,Italy,,
Consorzio Cociv - Stanza Vaccinale Per I Propri Dipendenti,STS,Liguria,,Italy,,
Croce Verde Casella,STS,Liguria,,Italy,,
Crsd Disabili (Ex Rep.Speciale,RIA,Liguria,,Italy,,
Diano Marina - Centro Vaccinazione Covid,STS,Liguria,,Italy,,
Direzione Asl3 Liguria,STS,Liguria,,Italy,,
Distretto 1 - Vaccinazione Domiciliare Covid,STS,Liguria,,Italy,,
Distretto 2 - Vaccinazione Domiciliare Covid,STS,Liguria,,Italy,,
Distretto 3 - Vaccinazione Domiciliare Covid,STS,Liguria,,Italy,,
Ex Ferriera Formento Rossiglione,STS,Liguria,,Italy,,
Famiglia Moresco - Don Orione,RIA,Liguria,,Italy,,
Fondazione Sacra Famiglia,RIA,Liguria,,Italy,,
Gisal Cead Casa Marta,RIA,Liguria,,Italy,,
Hitachi Rail Sts Genova Hub Vaccinale,STS,Liguria,,Italy,,
Hub Sala Chiamata,STS,Liguria,,Italy,,
Hub Vaccinale Amazon Italia,STS,Liguria,,Italy,,
Hub Vaccinale Ansaldo Energia,STS,Liguria,,Italy,,
Hub Vaccinale Iplom - Busalla,STS,Liguria,,Italy,,
Hub Vaccinale Teatro Della Gioventu',STS,Liguria,,Italy,,
Il Faggio Carcare,RIA,Liguria,,Italy,,
Il Faggio Coop Soc. Onlus,RIA,Liguria,,Italy,,
Il Faggio Coop. Sociale,RIA,Liguria,,Italy,,
Il Faggio Onlus,RIA,Liguria,,Italy,,
'Il Granello' - Varazze,RIA,Liguria,,Italy,,
Il Ponte,RIA,Liguria,,Italy,,
Il Sorriso,RIA,Liguria,,Italy,,
Imperia - Palasalute Centro Vaccinazione Covid ,STS,Liguria,,Italy,,
Isah Centro Di Riab. Polivalen,RIA,Liguria,,Italy,,
Isolabona - Centro Vaccinazione Covid ,STS,Liguria,,Italy,,
Ist. Chiossone - Car Adulti,RIA,Liguria,,Italy,,
Ist. Chiossone (Car) X Minori,RIA,Liguria,,Italy,,
Ist. Riab.'Il Faggio' - Sv2,RIA,Liguria,,Italy,,
Istituto Camaldoli - Don Orion,RIA,Liguria,,Italy,,
Istituto Castagna Pcdo - Covid,STS,Liguria,,Italy,,
Istituto Medico Ped. Borghetto,RIA,Liguria,,Italy,,
Istituto Paverano - Don Orione,RIA,Liguria,,Italy,,
La Missione Sz Sez Comatosi,RIA,Liguria,,Italy,,
La Nostra Famiglia-Varazze,RIA,Liguria,,Italy,,
Magazzini Del Cotone,STS,Liguria,,Italy,,
Missione La Cometa,RIA,Liguria,,Italy,,
Molini Di Triora - Centro Vaccinazione Covid,STS,Liguria,,Italy,,
Nucci Novi Ceppellini,RIA,Liguria,,Italy,,
Nuova Assistenza Soc. Coop Soc,RIA,Liguria,,Italy,,
Opera G. Signori Ist S. Pietro,RIA,Liguria,,Italy,,
Palamare Pra,STS,Liguria,,Italy,,
Perinaldo - Centro Vaccinazione Covid ,STS,Liguria,,Italy,,
Pieve Di Teco - Centro Vaccinazione Covid,STS,Liguria,,Italy,,
Pigna - Centro Vaccinazioni Covid,STS,Liguria,,Italy,,
Pineta Marina - Covid,STS,Liguria,,Italy,,
Poliambulatorio San Siro,STS,Liguria,,Italy,,
Pres. Riab. Disabilità Ge Pra',RIA,Liguria,,Italy,,
Presidio Cri - Comitato Vallescrivia Odv,STS,Liguria,,Italy,,
Presidio Primo Levi,STS,Liguria,,Italy,,
Presidio Riabilitativo  Mons,RIA,Liguria,,Italy,,
Quarto,STS,Liguria,,Italy,,
Regione Liguria - Fieschi,STS,Liguria,,Italy,,
Residenza Ave Maria/Residenza Boccadasse - Covid,STS,Liguria,,Italy,,
Residenza Disabili Villa Perla,RIA,Liguria,,Italy,,
Rfi Fs Hub Vaccinale Ge Covid,STS,Liguria,,Italy,,
Ricovero S. Giuseppe - Covid,STS,Liguria,,Italy,,
Rinascita Vita-Villa Bracelli,RIA,Liguria,,Italy,,
Rp Casa Di Riposo Boetto Covid,STS,Liguria,,Italy,,
Rp Dott. Zunino - Covid,STS,Liguria,,Italy,,
Rp Immacolatine Quinto - Covid,STS,Liguria,,Italy,,
Rsa Campo Ligure - Covid,STS,Liguria,,Italy,,
Rsa Castelletto - Covid,STS,Liguria,,Italy,,
Rsa Doria - Covid,STS,Liguria,,Italy,,
Rsa Galliera - Covid,STS,Liguria,,Italy,,
Rsa La Benedetta Covid,STS,Liguria,,Italy,,
Rsa Nucleo Alzheimer Rossiglione - Covid,STS,Liguria,,Italy,,
Rsa Residenza Serena,STS,Liguria,,Italy,,
Rsa S. Benedetto - Don Orione - Ist. Paverano - Covid,STS,Liguria,,Italy,,
Rsa San Francesco Di Recco - Covid,STS,Liguria,,Italy,,
Rsa Villa Marta Di Betania,STS,Liguria,,Italy,,
Rsa Villa San Pietro - Covid,STS,Liguria,,Italy,,
Sacra Famiglia Mons. Pogliani,RIA,Liguria,,Italy,,
Salone Nautico Hub Vacc Covid,STS,Liguria,,Italy,,
San Giuseppe Di Boccadasse - Covid,STS,Liguria,,Italy,,
Sede Confcommercio,STS,Liguria,,Italy,,
Servizi Medici Hesperia,RIA,Liguria,,Italy,,
Servizio Riab. Aism Liguria,RIA,Liguria,,Italy,,
Sito Di Vaccinazione Covid-19 Albenga,STS,Liguria,,Italy,,
Sito Di Vaccinazione Covid-19 Arnasco,STS,Liguria,,Italy,,
Sito Di Vaccinazione Covid-19 Balestrino,STS,Liguria,,Italy,,
Sito Di Vaccinazione Covid-19 Cairo,STS,Liguria,,Italy,,
Sito Di Vaccinazione Covid-19 Calizzano,STS,Liguria,,Italy,,
Sito Di Vaccinazione Covid-19 Finale L.,STS,Liguria,,Italy,,
Sito Di Vaccinazione Covid-19 Millesimo,STS,Liguria,,Italy,,
Sito Di Vaccinazione Covid-19 Mmg Albenga,STS,Liguria,,Italy,,
Sito Di Vaccinazione Covid-19 Mmg Borghetto Ss,STS,Liguria,,Italy,,
Sito Di Vaccinazione Covid-19 Mmg Sv,STS,Liguria,,Italy,,
Sito Di Vaccinazione Covid-19 Sassello,STS,Liguria,,Italy,,
Sito Di Vaccinazione Covid-19 Spotorno,STS,Liguria,,Italy,,
Sito Di Vaccinazione Covid-19 Sv-1,STS,Liguria,,Italy,,
Sito Di Vaccinazione Covid-19 Sv-2,STS,Liguria,,Italy,,
Sito Di Vaccinazione Covid-19 Varazze,STS,Liguria,,Italy,,
Stanza Vaccinale Domiciliare Presso D.S.S. 10 Poliambulatori Via Bonghi,STS,Liguria,,Italy,,
Stanza Vaccinale Domiciliare Presso D.S.S. 11 Ambulatori Via Assarotti,STS,Liguria,,Italy,,
Stanza Vaccinale Domiciliare Presso D.S.S. 12 Ambulatori Via Archimede,STS,Liguria,,Italy,,
Stanza Vaccinale Domiciliare Presso D.S.S. 8 - Ambulatorio Camozzini,STS,Liguria,,Italy,,
Stanza Vaccinale Domiciliare Presso D.S.S. 9 Poliambulatori Fiumara,STS,Liguria,,Italy,,
Stanza Vaccinale Domiciliare Presso Dss 13 - Casa Della Salute Quarto,STS,Liguria,,Italy,,
Suore Minime Di Marassi - Covid,STS,Liguria,,Italy,,
Taggia  - Vaccinazione Covid Drive Through,STS,Liguria,,Italy,,
Taggia - Nuova Stazione Ferroviaria,STS,Liguria,,Italy,,
Ufficio Sanità Marittima Usmaf-Sasn Liguria,STS,Liguria,,Italy,,
Uscio Palestra Comunale Ambulatori Allestiti Sotto Piazza Della Resistenza,STS,Liguria,,Italy,,
Villa Bombrini,STS,Liguria,,Italy,,
Villa Delle Rose Genova - Covid,STS,Liguria,,Italy,,
Villa Delle Rose Sori - Covid,STS,Liguria,,Italy,,
Villa Maddalena,RIA,Liguria,,Italy,,
Villa Maria Teresa,RIA,Liguria,,Italy,,
Villa Pagani Carani Cress,RIA,Liguria,,Italy,,
Villa Santa Maria In Bethlem,RIA,Liguria,,Italy,,
Villaggio Del Rag.-B.Acquarone,RIA,Liguria,,Italy,,
A.I.A.S. - Milano,RIA,Lombardia,,Italy,,
A.I.A.S. - Monza,RIA,Lombardia,,Italy,,
A.S.P. Ist.Assist.E Cura S.Mar,RIA,Lombardia,,Italy,,
Aias,RIA,Lombardia,,Italy,,
Ambrosiana Medical Center - Mi,RIA,Lombardia,,Italy,,
Ass.La Nostra Famiglia-Lecco,RIA,Lombardia,,Italy,,
C.Riab.La Prateria-Paderno D.,RIA,Lombardia,,Italy,,
C.Ried.Mot.Ns.Fam.-P.Te Lambro,RIA,Lombardia,,Italy,,
Casa Di Cura E Riabilitazione,RIA,Lombardia,,Italy,,
Cdc Il Melograno,RIA,Lombardia,,Italy,,
Centro A.I.R.R.I- Milano,RIA,Lombardia,,Italy,,
Centro Di Riabil. S.Vincenzo -,RIA,Lombardia,,Italy,,
"Centro Di Riabilitazione "" E. ",RIA,Lombardia,,Italy,,
Centro Don Orione - Bergamo,RIA,Lombardia,,Italy,,
Centro Radiologia E Fisioterap,RIA,Lombardia,,Italy,,
Coop. Soc. Studio Ripamonti -,RIA,Lombardia,,Italy,,
Coop. Sociale Rieducazione - M,RIA,Lombardia,,Italy,,
Cremona Solidale - Cremona,RIA,Lombardia,,Italy,,
Don Gnocchi Centro Girola,RIA,Lombardia,,Italy,,
Fond. Benefattori Cremaschi On,RIA,Lombardia,,Italy,,
Fond. Istit. Vismara-S.Bassano,RIA,Lombardia,,Italy,,
Fond. Madonna  Del Corlo Onlus,RIA,Lombardia,,Italy,,
Fond. Osp. G.Aragona-S.Giovann,RIA,Lombardia,,Italy,,
Fond.Don Gnocchi-Inverigo,RIA,Lombardia,,Italy,,
Fond.Ist.E.Germani-Cingia De'B,RIA,Lombardia,,Italy,,
Fond.Osp.Casa Di Riposo Nob. P,RIA,Lombardia,,Italy,,
Fond.Osp.Casa Di Riposo Nob.P.,RIA,Lombardia,,Italy,,
Fondaz.Ist.Sacra Famiglia-Cesa,RIA,Lombardia,,Italy,,
Fondazione Don Carlo Gnocchi,RIA,Lombardia,,Italy,,
Fondazione Don Carlo Gnocchi -,RIA,Lombardia,,Italy,,
Fondazione Don Carlo Gnocchi O,RIA,Lombardia,,Italy,,
Fondazione Don Carlo Gnocchi-C,RIA,Lombardia,,Italy,,
Fondazione G.Brunenghi Onlus-C,RIA,Lombardia,,Italy,,
Fondazione Mons. Arrigo Mazzal,RIA,Lombardia,,Italy,,
Fondazione Osp.Caimi -Vailate,RIA,Lombardia,,Italy,,
Fondazione Ospedale Civile Di,RIA,Lombardia,,Italy,,
Idr Valsasino,RIA,Lombardia,,Italy,,
Il Dosso Verde - Milano,RIA,Lombardia,,Italy,,
Ist. La Nostra Famiglia - Veda,RIA,Lombardia,,Italy,,
Ist. Nostra Famiglia - Castigl,RIA,Lombardia,,Italy,,
Ist.Fond.Don Gnocchi-Godiasco,RIA,Lombardia,,Italy,,
Ist.Ger.Golgi-Abbiategrasso,RIA,Lombardia,,Italy,,
Ist.Ger.O.P.Colleoni-Beldosso,RIA,Lombardia,,Italy,,
Ist.Geriat.P.Redaelli-Vimodron,RIA,Lombardia,,Italy,,
Ist.Geriatrico Redaelli - Mila,RIA,Lombardia,,Italy,,
Ist.La Ns.Fam.-Bosisio Parini,RIA,Lombardia,,Italy,,
Ist.La Ns.Famiglia-Mand.Lario,RIA,Lombardia,,Italy,,
Ist.La Sacra Famiglia-Perledo,RIA,Lombardia,,Italy,,
"Istituto ""Angelo Custode""- Pre",RIA,Lombardia,,Italy,,
Istituto A.I.A.S. - Busto Arsi,RIA,Lombardia,,Italy,,
Istituto A.N.F.A.S. - Milano,RIA,Lombardia,,Italy,,
Istituto Di Riabilitazione Cas,RIA,Lombardia,,Italy,,
Istituto Don Gnocchi-Pessano,RIA,Lombardia,,Italy,,
Istituto Don Luigi Palazzolo -,RIA,Lombardia,,Italy,,
Istituto Dosso Verde-Pavia,RIA,Lombardia,,Italy,,
Istituto G.Frisia-Merate,RIA,Lombardia,,Italy,,
Istituto La Sacra Famiglia,RIA,Lombardia,,Italy,,
Istituto Opera Pia Rota - Alme,RIA,Lombardia,,Italy,,
Istituto Ospedaliero-Sospiro,RIA,Lombardia,,Italy,,
La Nostra Famiglia - Carate Br,RIA,Lombardia,,Italy,,
La Nostra Famiglia - Cislago,RIA,Lombardia,,Italy,,
La Nostra Famiglia - Como,RIA,Lombardia,,Italy,,
La Nostra Famiglia - Sesto S.G,RIA,Lombardia,,Italy,,
Luogo Pio Osp. Raimondi-Gorla,RIA,Lombardia,,Italy,,
Oo.Pp.Annesse - Bergamo,RIA,Lombardia,,Italy,,
Pia Casa Di Riposo Cardinal C.,RIA,Lombardia,,Italy,,
Pia Fond.Val Camonica-Malegno,RIA,Lombardia,,Italy,,
Piccolo Cottolengo Don Orione,RIA,Lombardia,,Italy,,
Pio Albergo Trivulzio - Milano,RIA,Lombardia,,Italy,,
Pro Juventute Don Gnocchi,RIA,Lombardia,,Italy,,
Serv. Riabilitazione Territori,RIA,Lombardia,,Italy,,
Unita¿ Geriatrica Riablitativa,RIA,Lombardia,,Italy,,
Vicardial - Istituto Medico Ri,RIA,Lombardia,,Italy,,
Villa Al Lago S.R.L.,RIA,Lombardia,,Italy,,
Centro Vaccinale - Matelica,STS,Marche,,Italy,,
Centro Vaccinale C/O Centro Sportivo Multifunzionale - Camerino,STS,Marche,,Italy,,
Centro Vaccinale C/O Croce Azzurra - Porto San Giorgio,STS,Marche,,Italy,,
Centro Vaccinale C/O Distretto - Montegranaro,STS,Marche,,Italy,,
Centro Vaccinale C/O Distretto Sanitario - Petritoli,STS,Marche,,Italy,,
Centro Vaccinale C/O Ex Scuola Elementare - Amandola,STS,Marche,,Italy,,
Centro Vaccinale C/O Iper Rossini - Pesaro,STS,Marche,,Italy,,
Centro Vaccinale C/O Nuova Palestra Fermi - Fabriano,STS,Marche,,Italy,,
Centro Vaccinale C/O Ospedale - Amandola,STS,Marche,,Italy,,
Centro Vaccinale C/O Palaprometeo - Ancona,STS,Marche,,Italy,,
Centro Vaccinale C/O Palazzetto Dello Sport - Ascoli Piceno,STS,Marche,,Italy,,
Centro Vaccinale C/O Palazzetto Dello Sport - Gradara,STS,Marche,,Italy,,
Centro Vaccinale C/O Palazzetto Dello Sport - Porto Sant'Elpidio,STS,Marche,,Italy,,
Centro Vaccinale C/O Palestra Comunale - Falerone,STS,Marche,,Italy,,
Centro Vaccinale C/O Palestre Zannoni - Jesi,STS,Marche,,Italy,,
Centro Vaccinale C/O Sala Italia - San Severino Marche,STS,Marche,,Italy,,
Centro Vaccinale C/O Scuola Mancini - Fermo,STS,Marche,,Italy,,
Centro Vaccinale C/O Vigili Del Fuoco - Senigallia,STS,Marche,,Italy,,
Centro Vaccinale Civitanova Marche,STS,Marche,,Italy,,
Centro Vaccinale Macerata,STS,Marche,,Italy,,
Centro Vaccinale P/O Bocciodromo - Urbino,STS,Marche,,Italy,,
Centro Vaccinale P/O Cetro Ortofrutticolo - Fano,STS,Marche,,Italy,,
Centro Vaccinale P/O Palazzetto Dello Sport - San Benedetto Del Tronto,STS,Marche,,Italy,,
Dt01 Car Eta' Evolutiva Pesaro,RIA,Marche,,Italy,,
Dt05 Poliambulatorio Carlo Urbani,STS,Marche,,Italy,,
Dt08 Ambulatori H Civitanova,STS,Marche,,Italy,,
Dt09 Osp. Macerata,STS,Marche,,Italy,,
Dt09 Terme Di San Giacomo - Sarnano,STS,Marche,,Italy,,
Dt09 Terme Di Santa Lucia - Tolentino,STS,Marche,,Italy,,
Dt10 Pres. Osp. Camerino,STS,Marche,,Italy,,
Dt12 Ospedale- Ambulatori Divisiona,STS,Marche,,Italy,,
Dt13 Centro Sport Life,RIA,Marche,,Italy,,
Dt13 Poliamb. Di Ascoli Piceno,STS,Marche,,Italy,,
Dt13 Poliambulatorio Ospedale Mazzoni,STS,Marche,,Italy,,
Ospedale San Salvatore - Pesaro,STS,Marche,,Italy,,
Ospedale Santa Croce - Fano,STS,Marche,,Italy,,
Presidio Ospedaliero Umberto I,STS,Marche,,Italy,,
Zt01 Riab. Intens. 'Galantara',RIA,Marche,,Italy,,
Zt02 Istituto Riab. S. Stefano,RIA,Marche,,Italy,,
Zt03 Fondazione Don Gnocchi,RIA,Marche,,Italy,,
Zt05 Centro Amb Riabilit Murri,RIA,Marche,,Italy,,
Zt05 Centro Amb S.Stefano Filo,RIA,Marche,,Italy,,
Zt06 Centro Amb. S.Stefano,RIA,Marche,,Italy,,
Zt06 Comunita La Buona Novella,RIA,Marche,,Italy,,
Zt07 Abitare Il Tempo - Loreto,RIA,Marche,,Italy,,
Zt07 Fondazione Don Gnocchi,RIA,Marche,,Italy,,
Zt07 Ist Riab Villa Adria,RIA,Marche,,Italy,,
Zt07 Lega Del Filo D'Oro Onlus,RIA,Marche,,Italy,,
Zt07Residenza Dorica S.Stefano,RIA,Marche,,Italy,,
Zt08 Istituto Paolo Ricci,RIA,Marche,,Italy,,
Zt08 Riab S.Stefano Civit Ex26,RIA,Marche,,Italy,,
Zt08 Riabilitazione S.Stefano,RIA,Marche,,Italy,,
Zt08 Villaggio Delle Ginestre,RIA,Marche,,Italy,,
Zt09 Cent. Amb Sstef -Macerata,RIA,Marche,,Italy,,
Zt09 Centro Amb Sstef Tolentin,RIA,Marche,,Italy,,
Zt10 Centro Amb S. Stefano Cam,RIA,Marche,,Italy,,
Zt10 Centro Amb S. Stefano Mat,RIA,Marche,,Italy,,
Zt11 Centro Riab. Montessori,RIA,Marche,,Italy,,
Zt11 Comunita' Capodarco Fermo,RIA,Marche,,Italy,,
Zt11 Istituto Mancinelli,RIA,Marche,,Italy,,
Zt12 Centro Amb S.Stefano,RIA,Marche,,Italy,,
Zt13 Ist.Ria. S.Stefano Ascoli,RIA,Marche,,Italy,,
C. Di Riab. Molisani S.R.L.,RIA,Molise,,Italy,,
C. Di Riab. Molisani S.R.L.-,RIA,Molise,,Italy,,
C. Di Riab.Molisani S.R.L.,RIA,Molise,,Italy,,
C. Riab. S. Stef.A.R.-Termoli,RIA,Molise,,Italy,,
Carsic S.R.L.,RIA,Molise,,Italy,,
Casa Della Salute Is Ex Art.26,RIA,Molise,,Italy,,
Casa Salute Larino - Ex Art.26,RIA,Molise,,Italy,,
Centro Fisioter - Termoli -,RIA,Molise,,Italy,,
Centro Paola Pavone,RIA,Molise,,Italy,,
Centro San Stef.Ar(Abano Term),RIA,Molise,,Italy,,
Domenico  Francesco Potito Srl,RIA,Molise,,Italy,,
Fisiomedica Loretana S.R.L.,RIA,Molise,,Italy,,
Fondaz. Padre A. Mileno Onlus,RIA,Molise,,Italy,,
Fondaz. Padre A. Mileno Onlus-,RIA,Molise,,Italy,,
Ist. Molisano Di Riabilitaz.,RIA,Molise,,Italy,,
L'Incontro Srl,RIA,Molise,,Italy,,
Logopedia Niro U.Ec. S.A.S.,RIA,Molise,,Italy,,
Riabilis,RIA,Molise,,Italy,,
Accademia Cusanus - Vaccinazioni Covid,STS,Provincia Autonoma Bolzano / Bozen,,Italy,,
Casa Culturale Campo Tures - Vaccinazioni Covid,STS,Provincia Autonoma Bolzano / Bozen,,Italy,,
Casa Culturale Rasun Di Sopra - Vaccinazioni Covid,STS,Provincia Autonoma Bolzano / Bozen,,Italy,,
Casa Dei Congressi Valdaora - Vaccinazioni Covid,STS,Provincia Autonoma Bolzano / Bozen,,Italy,,
"Casa Della Cultura ""Karl Schönherr"" - Vaccinazioni Covid",STS,Provincia Autonoma Bolzano / Bozen,,Italy,,
Casa Della Cultura Di La Villa - Vaccinazioni Covid,STS,Provincia Autonoma Bolzano / Bozen,,Italy,,
Casa Della Cultura Malles - Vaccinazioni Covid,STS,Provincia Autonoma Bolzano / Bozen,,Italy,,
Casa Delle Associazioni Cadipietra - Vaccinazioni Covid,STS,Provincia Autonoma Bolzano / Bozen,,Italy,,
Casa Ex Tribunale Di Brunico - Vaccinazioni Covid,STS,Provincia Autonoma Bolzano / Bozen,,Italy,,
Casa Michael Pacher - Vaccinazioni Covid,STS,Provincia Autonoma Bolzano / Bozen,,Italy,,
Casa Paul Troger - Vaccinazioni Covid,STS,Provincia Autonoma Bolzano / Bozen,,Italy,,
Casa Raiffeisen - Vaccinazioni Covid,STS,Provincia Autonoma Bolzano / Bozen,,Italy,,
Centro Oratorio Don Bosco - Vaccinazioni Covid,STS,Provincia Autonoma Bolzano / Bozen,,Italy,,
Centro Scolastico J. Gasser - Centro Vaccinazione Covid,STS,Provincia Autonoma Bolzano / Bozen,,Italy,,
Distretto Alta Val Venosta,STS,Provincia Autonoma Bolzano / Bozen,,Italy,,
Distretto Di Lana,STS,Provincia Autonoma Bolzano / Bozen,,Italy,,
Distretto Di Merano,STS,Provincia Autonoma Bolzano / Bozen,,Italy,,
Distretto Di Naturno,STS,Provincia Autonoma Bolzano / Bozen,,Italy,,
Distretto Media Val Venosta,STS,Provincia Autonoma Bolzano / Bozen,,Italy,,
Distretto Sanitario Alta Pusteria,STS,Provincia Autonoma Bolzano / Bozen,,Italy,,
Distretto Sanitario Val Badia,STS,Provincia Autonoma Bolzano / Bozen,,Italy,,
Distretto Sanitario Valle Di Tures - Aurina,STS,Provincia Autonoma Bolzano / Bozen,,Italy,,
Distretto Sanitario-Bassa Atesina,STS,Provincia Autonoma Bolzano / Bozen,,Italy,,
Distretto Sanitario-Oltradige,STS,Provincia Autonoma Bolzano / Bozen,,Italy,,
Distretto Val Passiria,STS,Provincia Autonoma Bolzano / Bozen,,Italy,,
Ex-Despar Vipiteno - Vaccinazioni Covid,STS,Provincia Autonoma Bolzano / Bozen,,Italy,,
Fiera Di Bolzano - Vaccinazioni Covid,STS,Provincia Autonoma Bolzano / Bozen,,Italy,,
'Kurhaus' Merano - Vaccinazioni Covid,STS,Provincia Autonoma Bolzano / Bozen,,Italy,,
Regg.Log. 'Julia'- Vaccinazioni Covid,STS,Provincia Autonoma Bolzano / Bozen,,Italy,,
Salus Center,RIA,Provincia Autonoma Bolzano / Bozen,,Italy,,
Teatro Comunale Vipiteno - Vaccinazioni Covid,STS,Provincia Autonoma Bolzano / Bozen,,Italy,,
Aeroporto Di Caselle Vaccinazi,STS,Piemonte,,Italy,,
Ambulatorio Di Pragelato,STS,Piemonte,,Italy,,
Ambulatorio Vaccinazioni Covid,STS,Piemonte,,Italy,,
Ass. Centri V.C.O. Domodossola,RIA,Piemonte,,Italy,,
Ass. Centri V.C.O. Gravellona,RIA,Piemonte,,Italy,,
Attivazione Ambulatorio Vaccin,STS,Piemonte,,Italy,,
Attivazione Sede Per Ambulator,STS,Piemonte,,Italy,,
Attivita' Distrettuale - Distr,STS,Piemonte,,Italy,,
C.A. Gibi Anteo,STS,Piemonte,,Italy,,
C.D. Dipendenze La Svolta,STS,Piemonte,,Italy,,
C.V. Pediatri Libera Scelta -,STS,Piemonte,,Italy,,
Casa Circondariale Alessandria,STS,Piemonte,,Italy,,
Casa Circondariale Di Verbania,STS,Piemonte,,Italy,,
Casa Madre Mazzarello,STS,Piemonte,,Italy,,
Casa Pratoverde Anteo,STS,Piemonte,,Italy,,
"Casa Reclusione Alessandria ""S",STS,Piemonte,,Italy,,
Casa Xenia Psich.,STS,Piemonte,,Italy,,
Cd Cossato Anteo,STS,Piemonte,,Italy,,
"Centro ""Paolo Vi""             ",RIA,Piemonte,,Italy,,
Centro Commerciale Lingotto -,STS,Piemonte,,Italy,,
Centro Di Riabil. Ferrero,RIA,Piemonte,,Italy,,
Centro Diurno Biella Anteo,STS,Piemonte,,Italy,,
Centro Eventi Multifunzionale,STS,Piemonte,,Italy,,
Centro Fieristico Museo Dei Ca,STS,Piemonte,,Italy,,
Centro Polifunzionale Piu' Spo,STS,Piemonte,,Italy,,
Centro Polivalente Covid - Pra,STS,Piemonte,,Italy,,
Centro Sportivo Bussolino Spor,STS,Piemonte,,Italy,,
Centro Sportivo Giacomo Gaigli,STS,Piemonte,,Italy,,
"Centro Vaccinale ""Il Bowling"" ",STS,Piemonte,,Italy,,
"Centro Vaccinale ""Il Globo""   ",STS,Piemonte,,Italy,,
Centro Vaccinale Banca Sella,STS,Piemonte,,Italy,,
Centro Vaccinale Castellazzo S,STS,Piemonte,,Italy,,
Centro Vaccinale Covid-19 - Bo,STS,Piemonte,,Italy,,
Centro Vaccinale Covid-19 - Ce,STS,Piemonte,,Italy,,
Centro Vaccinale Covid19 - Goz,STS,Piemonte,,Italy,,
Centro Vaccinale Covid-19 - Or,STS,Piemonte,,Italy,,
Centro Vaccinale Covid-19 - Pa,STS,Piemonte,,Italy,,
Centro Vaccinale Covid19 - Var,STS,Piemonte,,Italy,,
Centro Vaccinale Covid19 Ex Ca,STS,Piemonte,,Italy,,
Centro Vaccinale Covid19 Ipazi,STS,Piemonte,,Italy,,
Centro Vaccinale Covid19 Mmg A,STS,Piemonte,,Italy,,
Centro Vaccinale Covid19 Pala,STS,Piemonte,,Italy,,
Centro Vaccinale Covid19 Palaf,STS,Piemonte,,Italy,,
Centro Vaccinale Covid19 Salon,STS,Piemonte,,Italy,,
Centro Vaccinale Cus Torino,STS,Piemonte,,Italy,,
Centro Vaccinale Farmacie,STS,Piemonte,,Italy,,
Centro Vaccinale Ga Dsm Nord,STS,Piemonte,,Italy,,
Centro Vaccinale Ga Dsm Sud,STS,Piemonte,,Italy,,
Centro Vaccinale Mmg,STS,Piemonte,,Italy,,
Centro Vaccinale Municipio Di,STS,Piemonte,,Italy,,
Centro Vaccinale Salone Sterna,STS,Piemonte,,Italy,,
Centro Vaccinale Teatro Civico,STS,Piemonte,,Italy,,
Centro Vaccinazione Covid Cand,STS,Piemonte,,Italy,,
Centro Vaccinazioni Covid-19 P,STS,Piemonte,,Italy,,
Centromediciinsieme,STS,Piemonte,,Italy,,
Croce Rossa Italiana Centro Fe,STS,Piemonte,,Italy,,
Cv Centro Diurno Villa Marazza,STS,Piemonte,,Italy,,
Cv Centro Fiere Caresanablot,STS,Piemonte,,Italy,,
Cv Covid19 - Mmg Biandrate,STS,Piemonte,,Italy,,
Cv Covid19 - Mmg Oleggio,STS,Piemonte,,Italy,,
Cv Disabili C.I.S.A. Ovest Tic,STS,Piemonte,,Italy,,
Cv Disabili Comune Arona,STS,Piemonte,,Italy,,
Cv Disabili Comune Novara,STS,Piemonte,,Italy,,
Dipartimento Prevenzione Sisp,STS,Piemonte,,Italy,,
Domus Laetitiae Soc. Coop.Soci,RIA,Piemonte,,Italy,,
Drive Through_Le Gru Di Grugli,STS,Piemonte,,Italy,,
Drive Through_Parcheggio Avigl,STS,Piemonte,,Italy,,
Drive Through_Parcheggio Conse,STS,Piemonte,,Italy,,
Drive Through_Piazzetta Peano,STS,Piemonte,,Italy,,
Ex Comunita' Montana Monte Ros,STS,Piemonte,,Italy,,
G. A. Ponderano,STS,Piemonte,,Italy,,
G. A. Vernato Biella,STS,Piemonte,,Italy,,
G.A. Faccenda Anteo,STS,Piemonte,,Italy,,
G.A.I. I Cedri,STS,Piemonte,,Italy,,
Ga Villa Margherita Anteo,STS,Piemonte,,Italy,,
"Giovanni Xxiii Srl ""Centro Don",RIA,Piemonte,,Italy,,
Hub Nuvola Lavazza,STS,Piemonte,,Italy,,
Il Margine Cascina Castagneto,STS,Piemonte,,Italy,,
Istituto Sacra Famiglia,RIA,Piemonte,,Italy,,
J Medical Centro Vaccinale,STS,Piemonte,,Italy,,
Kongresshaus,STS,Piemonte,,Italy,,
Palalancia Chivasso Somministr,STS,Piemonte,,Italy,,
Polivalente Cossato - Mercato,STS,Piemonte,,Italy,,
Polo Logistico Protezione Civi,STS,Piemonte,,Italy,,
Privata_Castello Di Rivoli,STS,Piemonte,,Italy,,
Punto Vaccinale Biagini Castig,STS,Piemonte,,Italy,,
Punto Vaccinale C/O Casa Di Cu,STS,Piemonte,,Italy,,
Punto Vaccinale Carignano Via,STS,Piemonte,,Italy,,
Punto Vaccinale Carmagnola Ant,STS,Piemonte,,Italy,,
Punto Vaccinale Centro Incontr,STS,Piemonte,,Italy,,
Punto Vaccinale Chieri Sala Co,STS,Piemonte,,Italy,,
Punto Vaccinale Covid _Allianz,STS,Piemonte,,Italy,,
Punto Vaccinale Mmg Asl Al,STS,Piemonte,,Italy,,
Punto Vaccinale Moncalieri For,STS,Piemonte,,Italy,,
Punto Vaccinale Moncalieri Str,STS,Piemonte,,Italy,,
Punto Vaccinale Nichelino Via,STS,Piemonte,,Italy,,
Punto Vaccinale Strutture Resi,STS,Piemonte,,Italy,,
Punto Vaccinale Via Farini - V,STS,Piemonte,,Italy,,
Punto Vaccinale Via Michelange,STS,Piemonte,,Italy,,
Punto Vaccinale Via San Rocco,STS,Piemonte,,Italy,,
Punto Vaccinale Via Sesone - B,STS,Piemonte,,Italy,,
Punto Vaccinale Vinovo P.Za 2,STS,Piemonte,,Italy,,
Punto Vaccinale Vinovo Tetti R,STS,Piemonte,,Italy,,
Pvt Castelnuovo Don Bosco,STS,Piemonte,,Italy,,
Pvt Chieri Palavaccini,STS,Piemonte,,Italy,,
Reale Hub Cv 19,STS,Piemonte,,Italy,,
Scuola Media Innocenzo Ix - Ba,STS,Piemonte,,Italy,,
Scuola Nazionale Federale Di E,STS,Piemonte,,Italy,,
Sede Biverbanca Biella,STS,Piemonte,,Italy,,
Uni.To Rettorato Punto Vaccina,STS,Piemonte,,Italy,,
Unione Montana Valli Dell'Osso,STS,Piemonte,,Italy,,
Vaccini Covid - Distretto Nord,STS,Piemonte,,Italy,,
Vaccini Covid - Distretto Sud-,STS,Piemonte,,Italy,,
Vaccini Covid Distretto Nord-O,STS,Piemonte,,Italy,,
Vaccini Covid Popolazione - Si,STS,Piemonte,,Italy,,
Vaccini Covid Sisp - Saviglian,STS,Piemonte,,Italy,,
Villa Aglietta Anteo,STS,Piemonte,,Italy,,
Amb. Audiol. Foniatr. Lecce,RIA,Puglia,,Italy,,
Ambulatorio Galatina,RIA,Puglia,,Italy,,
Ambulatorio Gallipoli,RIA,Puglia,,Italy,,
Ambulatorio Martano,RIA,Puglia,,Italy,,
"Ambulatorio Medico Mobile ""Camper"" Targato Gf084Ew",STS,Puglia,,Italy,,
Ambulatorio Nardo',RIA,Puglia,,Italy,,
Ambulatorio Poggiardo,RIA,Puglia,,Italy,,
Ambulatorio Riab- Gagliano,RIA,Puglia,,Italy,,
Ambulatorio Riab. Campi Sal.,RIA,Puglia,,Italy,,
Ambulatorio Supersano,RIA,Puglia,,Italy,,
Ambulatorio Trepuzzi,RIA,Puglia,,Italy,,
Aps Angela Maria Sgobba,STS,Puglia,,Italy,,
"Associaz. ""La Nostra Famiglia""",RIA,Puglia,,Italy,,
C.R. Acquaviva Delle Fonti,RIA,Puglia,,Italy,,
C.R. Polignano A Mare,RIA,Puglia,,Italy,,
Capannone Complesso Ex Acait Tricase,STS,Puglia,,Italy,,
Car Unico,RIA,Puglia,,Italy,,
Casa Circondariale Lecce,STS,Puglia,,Italy,,
Casa Di Cura' L. De Luca2 Srl,RIA,Puglia,,Italy,,
"Casa Di Riposo ""Coniugi N. E M. Serinelli"" Squinzano",STS,Puglia,,Italy,,
"Casa Di Riposo ""Madonna Dei Fiori"" Sannicola",STS,Puglia,,Italy,,
"Casa Di Riposo ""Papa Giovanni Xxiii"" Galatone",STS,Puglia,,Italy,,
"Casa Di Riposo ""Perrone M.V. E C."" Novoli",STS,Puglia,,Italy,,
"Casa Di Riposo ""Suor Oblate Sant'Antonio Da Padova"" Novoli",STS,Puglia,,Italy,,
"Casa Di Riposo/Pensionato ""Madonna Del Pane"" Novoli",STS,Puglia,,Italy,,
Casa Per Anziani Il Sogno,STS,Puglia,,Italy,,
"Casa Per La Vita ""Villa Miry"" Cutrofiano",STS,Puglia,,Italy,,
"Casa Per La Vita Sorgente ""San Giorgio"" Santa Cesarea Terme",STS,Puglia,,Italy,,
"Caserma ""Zappala'"" Lecce",STS,Puglia,,Italy,,
Centri Riab. Pugl - Margherita,RIA,Puglia,,Italy,,
Centri Riabilitazione P. Pio,RIA,Puglia,,Italy,,
Centri Riabilitazione P.Pio,RIA,Puglia,,Italy,,
Centro  Cesarano,RIA,Puglia,,Italy,,
Centro  Riabilitazione P. Pio,RIA,Puglia,,Italy,,
Centro Aggregazioni Giovanili -Spongano,STS,Puglia,,Italy,,
"Centro Diurno Socio Educativo ""Nuova Itaca"" S.Pietro In Lama",STS,Puglia,,Italy,,
"Centro Diurno Socio Educativo E Riabilitativo ""La Bussola"" Galatina",STS,Puglia,,Italy,,
Centro Medico Riabilitaz. Vita,RIA,Puglia,,Italy,,
Centro Polivalente Comunale -Galatina,STS,Puglia,,Italy,,
"Centro Polivalente Per Disabili ""Fantasylandia Ability"" Veglie",STS,Puglia,,Italy,,
Centro Riab. Ex Cpr Andria,RIA,Puglia,,Italy,,
Centro Riab. Ex Cpr Barletta,RIA,Puglia,,Italy,,
Centro Riab. Ex Cpr Bisceglie,RIA,Puglia,,Italy,,
Centro Riab. Ex Cpr Canosa,RIA,Puglia,,Italy,,
Centro Riab. Ex Cpr Minervino,RIA,Puglia,,Italy,,
Centro Riab. Ex Cpr Spinazzola,RIA,Puglia,,Italy,,
Centro Riab. Ex Cpr Trani,RIA,Puglia,,Italy,,
Centro Riab. Fond. Turati,RIA,Puglia,,Italy,,
Centro Riab. Madonna Libera,RIA,Puglia,,Italy,,
Centro Riab. P.Pio Manfredonia,RIA,Puglia,,Italy,,
Centro Riab. Pugl. S.Ferdinand,RIA,Puglia,,Italy,,
Centro Riab. Pugl.-Trinitapoli,RIA,Puglia,,Italy,,
Centro Riab.S.Giuseppe Biscegl,RIA,Puglia,,Italy,,
Centro Riabil. Alberobello,RIA,Puglia,,Italy,,
Centro Riabil. Carbonara,RIA,Puglia,,Italy,,
Centro Riabil. Casamassima,RIA,Puglia,,Italy,,
Centro Riabil. Castellana,RIA,Puglia,,Italy,,
Centro Riabil. Conversano,RIA,Puglia,,Italy,,
Centro Riabil. Gioia Del Colle,RIA,Puglia,,Italy,,
Centro Riabil. Mola Di Bari,RIA,Puglia,,Italy,,
Centro Riabil. Monopoli,RIA,Puglia,,Italy,,
Centro Riabil. Noicattaro,RIA,Puglia,,Italy,,
Centro Riabil. P.Pio Orta Nova,RIA,Puglia,,Italy,,
Centro Riabil. Putignano,RIA,Puglia,,Italy,,
Centro Riabil. Rutigliano,RIA,Puglia,,Italy,,
Centro Riabil. S.Spirito,RIA,Puglia,,Italy,,
Centro Riabil. Sammichele,RIA,Puglia,,Italy,,
Centro Riabil. Santeram0 1,RIA,Puglia,,Italy,,
Centro Riabil. Triggiano,RIA,Puglia,,Italy,,
Centro Riabilit. Pol. S.Maria,RIA,Puglia,,Italy,,
Centro Riabilitazione Altamura,RIA,Puglia,,Italy,,
Centro Riabilitazione Bitonto,RIA,Puglia,,Italy,,
Centro Riabilitazione Bitritto,RIA,Puglia,,Italy,,
Centro Riabilitazione Cassano,RIA,Puglia,,Italy,,
Centro Riabilitazione Corato,RIA,Puglia,,Italy,,
Centro Riabilitazione D.S.S.8,RIA,Puglia,,Italy,,
Centro Riabilitazione Ex Cto,RIA,Puglia,,Italy,,
Centro Riabilitazione Giovinaz,RIA,Puglia,,Italy,,
Centro Riabilitazione Gravina,RIA,Puglia,,Italy,,
Centro Riabilitazione Molfetta,RIA,Puglia,,Italy,,
Centro Riabilitazione Noci,RIA,Puglia,,Italy,,
Centro Riabilitazione P.Pio,RIA,Puglia,,Italy,,
Centro Riabilitazione Ruvo P,RIA,Puglia,,Italy,,
Centro Riabilitazione S.Paolo,RIA,Puglia,,Italy,,
Centro Riabilitazione Terlizzi,RIA,Puglia,,Italy,,
Centro Riabilitazione Toritto,RIA,Puglia,,Italy,,
Centro Riabilitazione Turi,RIA,Puglia,,Italy,,
Centro Vaccinale C/O Centro Anziani,STS,Puglia,,Italy,,
Centro Vaccinale C/O Centro Anziani - Bozzano,STS,Puglia,,Italy,,
Centro Vaccinale C/O Centro Commerciale Conforama,STS,Puglia,,Italy,,
Centro Vaccinale C/O Centro Educazione Ambientale,STS,Puglia,,Italy,,
Centro Vaccinale C/O Chiostro Dei Frati Minori Osservanti,STS,Puglia,,Italy,,
Centro Vaccinale C/O Contenitore Culturale  ¿Don Giuseppe Vinci¿,STS,Puglia,,Italy,,
Centro Vaccinale C/O Istituto Marconi - Flacco,STS,Puglia,,Italy,,
Centro Vaccinale C/O Istituto Tecnico Commerciale Valzani,STS,Puglia,,Italy,,
Centro Vaccinale C/O Nave  Aida Blu,STS,Puglia,,Italy,,
Centro Vaccinale C/O Nave Explorer,STS,Puglia,,Italy,,
Centro Vaccinale C/O Nave Norwegian Down,STS,Puglia,,Italy,,
Centro Vaccinale C/O Nave Norwegian Spirit,STS,Puglia,,Italy,,
Centro Vaccinale C/O Palazzetto Dello Sport,STS,Puglia,,Italy,,
Centro Vaccinale C/O Palazzetto Dello Sport ¿Palagentile¿,STS,Puglia,,Italy,,
Centro Vaccinale C/O Palestra Leonardo Da Vinci,STS,Puglia,,Italy,,
Centro Vaccinale C/O Palestra Scuola De Amicis,STS,Puglia,,Italy,,
Centro Vaccinale C/O Palestra Scuola Falcone,STS,Puglia,,Italy,,
Centro Vaccinale C/O Palestra Scuola Media A. Manzoni,STS,Puglia,,Italy,,
Centro Vaccinale C/O Palestra Scuola Media G. Mazzini,STS,Puglia,,Italy,,
Centro Vaccinale C/O Palestra Scuola Primaria Valesium,STS,Puglia,,Italy,,
Centro Vaccinale C/O Plesso Scolastico,STS,Puglia,,Italy,,
Centro Vaccinale C/O Pressostatico,STS,Puglia,,Italy,,
Centro Vaccinale C/O Scuola Primaria,STS,Puglia,,Italy,,
Centro Vaccinale C/O Struttura Comunale Istituto Pio Caterina Scazzeri,STS,Puglia,,Italy,,
Centro Vaccinale C/O Truttura Tensostatica,STS,Puglia,,Italy,,
Centro Vaccinale Hub 1,STS,Puglia,,Italy,,
Centro Vaccinale Hub 10,STS,Puglia,,Italy,,
Centro Vaccinale Hub 11,STS,Puglia,,Italy,,
Centro Vaccinale Hub 12,STS,Puglia,,Italy,,
Centro Vaccinale Hub 13,STS,Puglia,,Italy,,
Centro Vaccinale Hub 14,STS,Puglia,,Italy,,
Centro Vaccinale Hub 15,STS,Puglia,,Italy,,
Centro Vaccinale Hub 16,STS,Puglia,,Italy,,
Centro Vaccinale Hub 17,STS,Puglia,,Italy,,
Centro Vaccinale Hub 18,STS,Puglia,,Italy,,
Centro Vaccinale Hub 19,STS,Puglia,,Italy,,
Centro Vaccinale Hub 2,STS,Puglia,,Italy,,
Centro Vaccinale Hub 20,STS,Puglia,,Italy,,
Centro Vaccinale Hub 21,STS,Puglia,,Italy,,
Centro Vaccinale Hub 22,STS,Puglia,,Italy,,
Centro Vaccinale Hub 23,STS,Puglia,,Italy,,
Centro Vaccinale Hub 24,STS,Puglia,,Italy,,
Centro Vaccinale Hub 25,STS,Puglia,,Italy,,
Centro Vaccinale Hub 26,STS,Puglia,,Italy,,
Centro Vaccinale Hub 3,STS,Puglia,,Italy,,
Centro Vaccinale Hub 4,STS,Puglia,,Italy,,
Centro Vaccinale Hub 6,STS,Puglia,,Italy,,
Centro Vaccinale Hub 7,STS,Puglia,,Italy,,
Centro Vaccinale Hub 8,STS,Puglia,,Italy,,
Centro Vaccinale Hub 9,STS,Puglia,,Italy,,
"Centro Vaccinaz. Centro Servizi, Lotto B - San Ferdinando Di P.",STS,Puglia,,Italy,,
Centro Vaccinaz. Pala Assi - Trani,STS,Puglia,,Italy,,
Centro Vaccinaz. Palacosmai - Bisceglie,STS,Puglia,,Italy,,
Centro Vaccinaz. Paladisfida - Barletta,STS,Puglia,,Italy,,
Centro Vaccinaz. Palazzetto Dello Sport - Canosa Di Puglia,STS,Puglia,,Italy,,
Centro Vaccinaz. Palazzetto Dello Sport - Minervino Murge,STS,Puglia,,Italy,,
Centro Vaccinaz. Palestra Scuola Elementare Don Milani -Trinitapoli,STS,Puglia,,Italy,,
Centro Vaccinaz. Sala Innocenzo Xii - Spinazzola,STS,Puglia,,Italy,,
Centro Vaccinaz. Scuola Media Pascoli - Margherita Di S.Avoia,STS,Puglia,,Italy,,
Centro Vaccinaz. Struttura Polivalente San Valentino - Andria,STS,Puglia,,Italy,,
Centro Vaccinazione -  Erchie,STS,Puglia,,Italy,,
Centro Vaccinazione -  Fasano,STS,Puglia,,Italy,,
Centro Vaccinazione -  Francavilla F.Na,STS,Puglia,,Italy,,
Centro Vaccinazione -  Latiano,STS,Puglia,,Italy,,
Centro Vaccinazione -  Mesagne,STS,Puglia,,Italy,,
Centro Vaccinazione -  Oria,STS,Puglia,,Italy,,
Centro Vaccinazione -  Ostuni,STS,Puglia,,Italy,,
Centro Vaccinazione -  San Michele S.No,STS,Puglia,,Italy,,
Centro Vaccinazione -  San Pancrazio S.No,STS,Puglia,,Italy,,
Centro Vaccinazione -  San Pietro V.Co,STS,Puglia,,Italy,,
Centro Vaccinazione -  Torchiarolo,STS,Puglia,,Italy,,
Centro Vaccinazione -  Villa Castelli,STS,Puglia,,Italy,,
Centro Vaccinazione - Carovigno,STS,Puglia,,Italy,,
Centro Vaccinazione - Ceglie M.Ca,STS,Puglia,,Italy,,
Centro Vaccinazione - Cisternino,STS,Puglia,,Italy,,
Centro Vaccinazione - Di Summa,STS,Puglia,,Italy,,
Centro Vaccinazione - Perrino,STS,Puglia,,Italy,,
Centro Vaccinazione - San Donaci,STS,Puglia,,Italy,,
Centro Vaccinazione - San Vito Dei N.,STS,Puglia,,Italy,,
Centro Vaccinazione - Torre Santa Susanna,STS,Puglia,,Italy,,
Cittadella Della Salute Presicce,STS,Puglia,,Italy,,
"Comunita' Alloggio Per Anziani ""Santa Maria"" Cocumola",STS,Puglia,,Italy,,
"Comunita' Educativa Per Minori ""Ambaraba'"" Carmiano",STS,Puglia,,Italy,,
Dart - Utr N. 1,RIA,Puglia,,Italy,,
Dart - Utr N. 2,RIA,Puglia,,Italy,,
Dart - Utr N. 7,RIA,Puglia,,Italy,,
Dart Dipart. Ass. Riab. Territ,RIA,Puglia,,Italy,,
Dart- Utr N .6,RIA,Puglia,,Italy,,
Dart- Utr N. 5,RIA,Puglia,,Italy,,
Dip. Riab. Età Adulta,RIA,Puglia,,Italy,,
Direzione Dipartimento Di Prevenzione - Ambulatorio Vaccinale,STS,Puglia,,Italy,,
"Edificio Comunale ""Mercato Delle Idee"" Muro Leccese",STS,Puglia,,Italy,,
"Edificio Scolastico ""M. Montessori"" Taurisano",STS,Puglia,,Italy,,
Euroitalia - Casarano,RIA,Puglia,,Italy,,
Ex Centro Sociale -Parabita,STS,Puglia,,Italy,,
Ex Scuola Materna -Collepasso,STS,Puglia,,Italy,,
Frangi Centro Riabilitazione,RIA,Puglia,,Italy,,
"Gruppo Appartamento ""Azalea"" Veglie",STS,Puglia,,Italy,,
"Gruppo Appartamento ""Convivendo"" Squinzano",STS,Puglia,,Italy,,
"Gruppo Appartamento ""Gli Anni D'Oro"" Copertino",STS,Puglia,,Italy,,
"Gruppo Appartamento ""La Casa Di Squinzano"" Squinzano",STS,Puglia,,Italy,,
"Gruppo Appartamento ""Mamma Maria"" Squinzano",STS,Puglia,,Italy,,
"Gruppo Appartamento ""Nuova Vita"" Squinzano ",STS,Puglia,,Italy,,
"Gruppo Appartamento ""Vivimi"" Squinzano",STS,Puglia,,Italy,,
Gruppo Appartamento 'Casa Del Nonno' Andrano,STS,Puglia,,Italy,,
Gruppo Appartamento 'Nonni A Colori' Andrano,STS,Puglia,,Italy,,
Hub Centro Commerciale 'Porte Dello Ionio' Taranto,STS,Puglia,,Italy,,
Hub Ginosa Palazzetto Dello Sport,STS,Puglia,,Italy,,
Hub Grottaglie Palazzetto Sport 'Alessandro Marinelli',STS,Puglia,,Italy,,
Hub Manduria Liceo De Sanctis Galilei,STS,Puglia,,Italy,,
Hub Massafra Palazzetto Dello Sport 'Giovanni Paolo Ii',STS,Puglia,,Italy,,
Hub Taranto Arsenale Marina Militare,STS,Puglia,,Italy,,
Hub Taranto Istituto Comprensivo 'Aldo Moro',STS,Puglia,,Italy,,
Hub Taranto Palazzetto Comunale Ex Ricciardi,STS,Puglia,,Italy,,
Hub Taranto Svam - Scuola Volontari Aeronautica Militare,STS,Puglia,,Italy,,
Ist Riab Padri Trinitari,RIA,Puglia,,Italy,,
Ist. Quarto Di Palo - Andria,RIA,Puglia,,Italy,,
Istituti Scolastici E Università Comune Bari Provincia Ba Nome Punto Policlinico,STS,Puglia,,Italy,,
Istituti Scolastici E Universita' Provincia Taranto,STS,Puglia,,Italy,,
Istituto Oblate Di Nazareth,STS,Puglia,,Italy,,
Istituto S. Agostino C.R.,RIA,Puglia,,Italy,,
Istituto Santa Chiara Srl Lecc,RIA,Puglia,,Italy,,
Kentron Srl Giovanni Paolo Ii,RIA,Puglia,,Italy,,
La Ninfea Srl,STS,Puglia,,Italy,,
La Nostra Famiglia -Lecce,RIA,Puglia,,Italy,,
Locali Ex Onmi Casarano,STS,Puglia,,Italy,,
"Museo ""Sigismondo Castromediano"" Lecce",STS,Puglia,,Italy,,
"Oasi ""Mamma Bella"" Campi Sal.Na",STS,Puglia,,Italy,,
Osmairm,RIA,Puglia,,Italy,,
P.R.D. Maglie,RIA,Puglia,,Italy,,
"Palazzetto Dello Sport ""San Giuseppe Da Copertino"" Lecce",STS,Puglia,,Italy,,
Palazzetto Dello Sport -Casarano,STS,Puglia,,Italy,,
"Palestra Del Liceo Scienze Umane ""Q.Ennio"" Gallipoli",STS,Puglia,,Italy,,
Presidio Ex Cph Cerignola,RIA,Puglia,,Italy,,
Presidio Riab. Lucera,RIA,Puglia,,Italy,,
Presidio Riabil L`Aquilone,RIA,Puglia,,Italy,,
Presidio Riabilitativo,RIA,Puglia,,Italy,,
Presidio Riabilitativo Delicet,RIA,Puglia,,Italy,,
Presidio Riabilitativo Sng,RIA,Puglia,,Italy,,
Presidio Riabilitazione Valori,RIA,Puglia,,Italy,,
Pta Di Gagliano Del Capo -Ex Dialisi-,STS,Puglia,,Italy,,
Punto Primula Vaccinale Palacarbonara-Asl Bari,STS,Puglia,,Italy,,
Punto Primula Vaccinale Palacarrassi-Asl Bari,STS,Puglia,,Italy,,
Punto Primula Vaccinale Palalaforgia-Asl Bari,STS,Puglia,,Italy,,
Punto Primula Vaccinale Palalivatino-Asl Bari,STS,Puglia,,Italy,,
Punto Primula Vaccinale Palavalenzano-Asl Bari,STS,Puglia,,Italy,,
Punto Vaccinale Acquaviva,STS,Puglia,,Italy,,
Punto Vaccinale Adelfia,STS,Puglia,,Italy,,
Punto Vaccinale Altamura,STS,Puglia,,Italy,,
Punto Vaccinale Aps Romanelli Palmieri,STS,Puglia,,Italy,,
Punto Vaccinale Bitetto,STS,Puglia,,Italy,,
Punto Vaccinale Bitonto,STS,Puglia,,Italy,,
Punto Vaccinale Capurso,STS,Puglia,,Italy,,
Punto Vaccinale Carbonara,STS,Puglia,,Italy,,
Punto Vaccinale Casa Alberta,STS,Puglia,,Italy,,
Punto Vaccinale Casa Delle Abilità Speciali-Giovanni Paolo Ii,STS,Puglia,,Italy,,
Punto Vaccinale Casamassima,STS,Puglia,,Italy,,
Punto Vaccinale Cassano,STS,Puglia,,Italy,,
Punto Vaccinale Castellana,STS,Puglia,,Italy,,
Punto Vaccinale Cavallino Hotel,STS,Puglia,,Italy,,
Punto Vaccinale Centro Aziendale Network Contacts S.R.L.-Comune Di Molfetta,STS,Puglia,,Italy,,
Punto Vaccinale Centro Sociale Educativo Del Comune,STS,Puglia,,Italy,,
Punto Vaccinale Coppi Service S.R.L.,STS,Puglia,,Italy,,
Punto Vaccinale Corato,STS,Puglia,,Italy,,
Punto Vaccinale Di Alberobello,STS,Puglia,,Italy,,
Punto Vaccinale Domus Aurea,STS,Puglia,,Italy,,
Punto Vaccinale Ex Cto,STS,Puglia,,Italy,,
Punto Vaccinale Gioia,STS,Puglia,,Italy,,
Punto Vaccinale Giovinazzo,STS,Puglia,,Italy,,
Punto Vaccinale Gravina,STS,Puglia,,Italy,,
Punto Vaccinale Grumo,STS,Puglia,,Italy,,
Punto Vaccinale Hub-Altamura,STS,Puglia,,Italy,,
Punto Vaccinale Hub-Fiera Del Levante Bari,STS,Puglia,,Italy,,
Punto Vaccinale Hub-Scuola Media Rutigliano-Bitonto,STS,Puglia,,Italy,,
Punto Vaccinale Insieme,STS,Puglia,,Italy,,
Punto Vaccinale Japigia,STS,Puglia,,Italy,,
Punto Vaccinale La Città Della Memoria,STS,Puglia,,Italy,,
Punto Vaccinale La Speranza,STS,Puglia,,Italy,,
Punto Vaccinale Modugno,STS,Puglia,,Italy,,
Punto Vaccinale Mola,STS,Puglia,,Italy,,
Punto Vaccinale Molfetta,STS,Puglia,,Italy,,
Punto Vaccinale Monopoli,STS,Puglia,,Italy,,
Punto Vaccinale Noci,STS,Puglia,,Italy,,
Punto Vaccinale Noicattaro,STS,Puglia,,Italy,,
Punto Vaccinale Oasi,STS,Puglia,,Italy,,
Punto Vaccinale Opera Casa Protetta Rssa Di Zazzera Caterina,STS,Puglia,,Italy,,
Punto Vaccinale Palo Del Colle,STS,Puglia,,Italy,,
Punto Vaccinale Piccola Casa Beata Chiara-Centro Diurno Alzheimer,STS,Puglia,,Italy,,
Punto Vaccinale Picone,STS,Puglia,,Italy,,
Punto Vaccinale Primula Catino,STS,Puglia,,Italy,,
Punto Vaccinale Putignano,STS,Puglia,,Italy,,
Punto Vaccinale Regeneration Home,STS,Puglia,,Italy,,
Punto Vaccinale Regina Pacis,STS,Puglia,,Italy,,
"Punto Vaccinale Residenza Per Anziani ""Carmela Di Briindisi Valentini""",STS,Puglia,,Italy,,
Punto Vaccinale Residenza Santa Rita,STS,Puglia,,Italy,,
Punto Vaccinale Rutigliano,STS,Puglia,,Italy,,
Punto Vaccinale Ruvo Di Puglia,STS,Puglia,,Italy,,
Punto Vaccinale Sammichele,STS,Puglia,,Italy,,
Punto Vaccinale San Paolo,STS,Puglia,,Italy,,
Punto Vaccinale Sannicandro,STS,Puglia,,Italy,,
Punto Vaccinale Santeramo,STS,Puglia,,Italy,,
Punto Vaccinale Santo Spirito,STS,Puglia,,Italy,,
Punto Vaccinale Terlizzi,STS,Puglia,,Italy,,
Punto Vaccinale Toritto,STS,Puglia,,Italy,,
Punto Vaccinale Triggiano,STS,Puglia,,Italy,,
Punto Vaccinale Turi,STS,Puglia,,Italy,,
Punto Vaccinale Valenzano,STS,Puglia,,Italy,,
Punto Vaccinale Villa Fiorita,STS,Puglia,,Italy,,
Punto Vaccinale Windsor Club Del Nonno,STS,Puglia,,Italy,,
Pvp Poggiardo Ex Asilo,STS,Puglia,,Italy,,
Residenza Per Anziani Sant'Anna,STS,Puglia,,Italy,,
Riabilia Centro Riabil.,RIA,Puglia,,Italy,,
Riabilitazione Modugno,RIA,Puglia,,Italy,,
Robinson Club Italia S.P.A. Apulia -Ugento-,STS,Puglia,,Italy,,
"Rsa ""Buon Pastore"" Lecce",STS,Puglia,,Italy,,
"Rsa ""Casa Felice"" Novoli",STS,Puglia,,Italy,,
"Rsa ""La Casa Dei Saggi"" Squinzano ",STS,Puglia,,Italy,,
"Rsa ""Sacro Cuore"" Lecce",STS,Puglia,,Italy,,
"Rsa ""Villa Antonella"" Lecce",STS,Puglia,,Italy,,
"Rsa ""Villa Elena S.R.L."" Novoli",STS,Puglia,,Italy,,
"Rsa ""Villa Immacolata"" Cutrofiano",STS,Puglia,,Italy,,
"Rsa Per Anziani ""Santa Croce"" Novoli ",STS,Puglia,,Italy,,
"Rssa ""Anni D'Oro"" Arnesano",STS,Puglia,,Italy,,
"Rssa ""Giovanni Paolo Ii"" Soleto",STS,Puglia,,Italy,,
"Rssa ""Mai Soli"" Leverano",STS,Puglia,,Italy,,
"Rssa ""Residenza Solaria"" Carmiano ",STS,Puglia,,Italy,,
"Rssa ""Tommaso Grasso"" Salice Salentino",STS,Puglia,,Italy,,
"Rssa ""Villa Antori"" Lizzanello",STS,Puglia,,Italy,,
"Rssa ""Villa Chiara"" Calimera",STS,Puglia,,Italy,,
"Rssa ""Villa Sofia"" Lecce",STS,Puglia,,Italy,,
Rssa Comunale -Martano,STS,Puglia,,Italy,,
Rssa Villa Dell'Armonia Altea Srl Novoli,STS,Puglia,,Italy,,
S. Rita Riabilitazione,RIA,Puglia,,Italy,,
S.A.R.A. Villa Maria Sanita',RIA,Puglia,,Italy,,
Sala Comunale Salve,STS,Puglia,,Italy,,
Scuola Dell'Infanzia -Supersano,STS,Puglia,,Italy,,
Scuola Elementare -Ruffano,STS,Puglia,,Italy,,
Scuole Distretto Di Campi Salentina,STS,Puglia,,Italy,,
Scuole Distretto Di Casarano,STS,Puglia,,Italy,,
Scuole Distretto Di Copertino,STS,Puglia,,Italy,,
Scuole Distretto Di Gagliano Del Capo,STS,Puglia,,Italy,,
Scuole Distretto Di Galatina,STS,Puglia,,Italy,,
Scuole Distretto Di Gallipoli,STS,Puglia,,Italy,,
Scuole Distretto Di Lecce,STS,Puglia,,Italy,,
Scuole Distretto Di Maglie,STS,Puglia,,Italy,,
Scuole Distretto Di Martano,STS,Puglia,,Italy,,
Scuole Distretto Di Nardo',STS,Puglia,,Italy,,
Scuole Distretto Di Poggiardo,STS,Puglia,,Italy,,
Scuole Distretto Di San Cesario,STS,Puglia,,Italy,,
Scuole Distretto Di Ugento,STS,Puglia,,Italy,,
Sede Lega Tumori Montesano Salentino,STS,Puglia,,Italy,,
Serv. Riabil. Ambul. Lecce,RIA,Puglia,,Italy,,
Sisp Campi Salentina,STS,Puglia,,Italy,,
Sisp Casarano,STS,Puglia,,Italy,,
Sisp Gagliano Del Capo,STS,Puglia,,Italy,,
Sisp Galatina,STS,Puglia,,Italy,,
Sisp Gallipoli,STS,Puglia,,Italy,,
Sisp Grottaglie - Ambulatorio Vaccinale,STS,Puglia,,Italy,,
Sisp Lecce,STS,Puglia,,Italy,,
Sisp Lizzano - Ambulatorio Vaccinale,STS,Puglia,,Italy,,
Sisp Maglie,STS,Puglia,,Italy,,
Sisp Martano,STS,Puglia,,Italy,,
Sisp Martina Franca - Ambulatorio Vaccinale,STS,Puglia,,Italy,,
Sisp Maruggio - Ambulatorio Vaccinale,STS,Puglia,,Italy,,
Sisp Massafra - Ambulatorio Vaccinale,STS,Puglia,,Italy,,
Sisp Monteiasi - Ambulatorio Vaccinale,STS,Puglia,,Italy,,
Sisp Montemesola - Ambulatorio Vaccinale,STS,Puglia,,Italy,,
Sisp Nardo',STS,Puglia,,Italy,,
Sisp Poggiardo,STS,Puglia,,Italy,,
Sisp San Cesario Di Lecce,STS,Puglia,,Italy,,
Sisp San Giorgio Ionico - Ambulatorio Vaccinale,STS,Puglia,,Italy,,
Sisp Taranto - Ambulatorio Vaccinale,STS,Puglia,,Italy,,
Sisp Tricase,STS,Puglia,,Italy,,
Sisp Ugento,STS,Puglia,,Italy,,
Soggiorno Per Anziani Cuore- Putignano,STS,Puglia,,Italy,,
Soggiorno Per Anziani Cuore-Noci,STS,Puglia,,Italy,,
Stabile Zona Industriale -Nardo',STS,Puglia,,Italy,,
Struttura Operativa Territoriale Della Protezione Civile Campi Sal.Na,STS,Puglia,,Italy,,
U.O. Riab. Età Evolutiva,RIA,Puglia,,Italy,,
Vivosa Apulia Resort -Ugento-,STS,Puglia,,Italy,,
Zona Industriale -Matino,STS,Puglia,,Italy,,
A.I.A.S. Centro Riabil Tempio,RIA,Sardegna,,Italy,,
A.I.A.S. Centro Riabilit. Bono,RIA,Sardegna,,Italy,,
A.I.A.S. Guspini,RIA,Sardegna,,Italy,,
Aias -Arzana-,RIA,Sardegna,,Italy,,
Aias Assemini,RIA,Sardegna,,Italy,,
Aias Cagliari,RIA,Sardegna,,Italy,,
Aias Capoterra,RIA,Sardegna,,Italy,,
Aias Centro Di Carloforte,RIA,Sardegna,,Italy,,
Aias Centro Di Cortoghiana,RIA,Sardegna,,Italy,,
Aias Centro Di Domusnovas,RIA,Sardegna,,Italy,,
Aias Centro Di Fluminimaggiore,RIA,Sardegna,,Italy,,
Aias Centro Di Iglesias,RIA,Sardegna,,Italy,,
Aias Centro Di Sant'Antioco,RIA,Sardegna,,Italy,,
Aias Centro Di Villarios,RIA,Sardegna,,Italy,,
Aias Centro Riab. Berchidda,RIA,Sardegna,,Italy,,
Aias Centro Riab. Sanluri,RIA,Sardegna,,Italy,,
Aias Centro Riab. Serramanna,RIA,Sardegna,,Italy,,
Aias Centro Riab. Villacidro,RIA,Sardegna,,Italy,,
Aias Centro Riabilitaz.Sassari,RIA,Sardegna,,Italy,,
Aias Decimomannu,RIA,Sardegna,,Italy,,
Aias Lanusei,RIA,Sardegna,,Italy,,
Aias Lotzorai,RIA,Sardegna,,Italy,,
Aias Mandas,RIA,Sardegna,,Italy,,
Aias Monastir,RIA,Sardegna,,Italy,,
Aias Perdasdefogu,RIA,Sardegna,,Italy,,
Aias Pula,RIA,Sardegna,,Italy,,
Aias Quartu S.Elena,RIA,Sardegna,,Italy,,
Aias San Vito,RIA,Sardegna,,Italy,,
Aias Serdiana,RIA,Sardegna,,Italy,,
Aias Sestu,RIA,Sardegna,,Italy,,
Aias Tertenia,RIA,Sardegna,,Italy,,
Aias Uta,RIA,Sardegna,,Italy,,
Anffas Di Cagliari,RIA,Sardegna,,Italy,,
Anffas Di Selargius,RIA,Sardegna,,Italy,,
Anffas Di Settimo San Pietro,RIA,Sardegna,,Italy,,
Anffas Onlus Di Cagliari,RIA,Sardegna,,Italy,,
Anffas Onlus Sede Di Iglesias,RIA,Sardegna,,Italy,,
C.  Sacro Cuore - Oristano,RIA,Sardegna,,Italy,,
C. Fisioterapico S.B. - Suni,RIA,Sardegna,,Italy,,
C. Riabil. Amb. Ctr - Oristano,RIA,Sardegna,,Italy,,
C. Riabilitazione - Bosa,RIA,Sardegna,,Italy,,
C. Riabilitazione - Ghilarza,RIA,Sardegna,,Italy,,
C. Riabilitazione - Oristano,RIA,Sardegna,,Italy,,
C. Riabilitazione - Terralba,RIA,Sardegna,,Italy,,
C.C.R. S.M. Bambina - Oristano,RIA,Sardegna,,Italy,,
C.M. Fkt Piria/Musso -Terralba,RIA,Sardegna,,Italy,,
C.M.S.R. Srl,RIA,Sardegna,,Italy,,
Casa Della Salute Di Villacidro,STS,Sardegna,,Italy,,
Cen. Socio Sanitario Paracelso,RIA,Sardegna,,Italy,,
Centro  A.I.A.S.  Orosei,RIA,Sardegna,,Italy,,
Centro A.I.A.S. - Ales,RIA,Sardegna,,Italy,,
Centro A.I.A.S.  Aritzo,RIA,Sardegna,,Italy,,
Centro A.I.A.S.  Oliena,RIA,Sardegna,,Italy,,
Centro A.I.A.S.  Siniscola,RIA,Sardegna,,Italy,,
Centro Aias Budduso',RIA,Sardegna,,Italy,,
Centro Card.Riab.Cardiopatici,RIA,Sardegna,,Italy,,
Centro Di Salute Serramanna,STS,Sardegna,,Italy,,
Centro Fisioterapico Tuvixeddu,RIA,Sardegna,,Italy,,
Centro Fkt Dott. Mele S.R.L.,RIA,Sardegna,,Italy,,
Centro Fkt Dr. Mele S.R.L C.D,RIA,Sardegna,,Italy,,
Centro Fkt Dr. Mele S.R.L.,RIA,Sardegna,,Italy,,
Centro Logos Gesti E Parole,RIA,Sardegna,,Italy,,
Centro Med.Fis.Riab. Cmf,RIA,Sardegna,,Italy,,
Centro Prelievi Lunamatrona,STS,Sardegna,,Italy,,
Centro Ria(Fondazione Marreri),RIA,Sardegna,,Italy,,
Centro Riab. Amb. Ctr,RIA,Sardegna,,Italy,,
Centro Riab. Globale - Macomer,RIA,Sardegna,,Italy,,
Centro Riab. Uonpia Carloforte,RIA,Sardegna,,Italy,,
Centro Riab.Uonpia Carbonia,RIA,Sardegna,,Italy,,
Centro Riab.Uonpia Iglesias,RIA,Sardegna,,Italy,,
Centro Riabi. S.Lucia Srl,RIA,Sardegna,,Italy,,
Centro Riabilitaz. Rnm S.R.L.,RIA,Sardegna,,Italy,,
Centro Riabilitazione Terranoa,RIA,Sardegna,,Italy,,
Centro San Biagio Srl,RIA,Sardegna,,Italy,,
Clinica Arborea,RIA,Sardegna,,Italy,,
Coop. Soc. Ctr Onlus,RIA,Sardegna,,Italy,,
Crn Centro Riabi. Neuropatici,RIA,Sardegna,,Italy,,
Ctr Esperienze Onlus Sanluri,RIA,Sardegna,,Italy,,
Ctr-Centro Riabilitativo Aho,RIA,Sardegna,,Italy,,
Ex Ipab Fondaz. S.G. Battista,RIA,Sardegna,,Italy,,
Nuovo Centro Fisioterapico S.R,RIA,Sardegna,,Italy,,
Opera Gesu` Nazareno Sassari,RIA,Sardegna,,Italy,,
Poliambulatorio -  Macomer,STS,Sardegna,,Italy,,
Poliambulatorio - Nuoro,STS,Sardegna,,Italy,,
Poliambulatorio - Oristano,STS,Sardegna,,Italy,,
Poliambulatorio - Orosei,STS,Sardegna,,Italy,,
Poliambulatorio Di Guspini,STS,Sardegna,,Italy,,
Poliambulatorio Di San Gavino Monreale,STS,Sardegna,,Italy,,
Poliambulatorio Di Sanluri,STS,Sardegna,,Italy,,
Poliambulatorio Ierzu,STS,Sardegna,,Italy,,
Poliambulatorio Siniscola,STS,Sardegna,,Italy,,
Poliambulatorio Tortoli',STS,Sardegna,,Italy,,
Policlinico Sassarese-Labor Sp,RIA,Sardegna,,Italy,,
Punto Vaccinale - Olbia,STS,Sardegna,,Italy,,
Punto Vaccinale - Tempio Pausania,STS,Sardegna,,Italy,,
Punto Vaccinale C/O Palazzetto Dello Sport - Macomer,STS,Sardegna,,Italy,,
Punto Vaccinale C/O Palestra Ex Poa - Siniscola,STS,Sardegna,,Italy,,
Punto Vaccinale C/O Palestra Mariotti-Alghero,STS,Sardegna,,Italy,,
Punto Vaccinale C/O Palestra Scuola Media - Orosei,STS,Sardegna,,Italy,,
Punto Vaccinale Ciusa - Nuoro,STS,Sardegna,,Italy,,
Punto Vaccinale Fiera Cagliari,STS,Sardegna,,Italy,,
Punto Vaccinale Istituto Comprensivo Pascoli Deledda - Carbonia,STS,Sardegna,,Italy,,
Punto Vaccinale Maccioni - Nuoro,STS,Sardegna,,Italy,,
Punto Vaccinale Palasport - Oristano,STS,Sardegna,,Italy,,
Punto Vaccinale Palasport - Sant'Antioco,STS,Sardegna,,Italy,,
Punto Vaccinale Quartiere Fieristico-Ozieri,STS,Sardegna,,Italy,,
Punto Vaccinale Quartu Sant'Elena,STS,Sardegna,,Italy,,
Punto Vaccinale San Gavino Monreale,STS,Sardegna,,Italy,,
Punto Vaccinale San Giovanni Suergiu (Palasport),STS,Sardegna,,Italy,,
Punto Vaccinale Territoriale-Complesso Quadrilatero Sassari,STS,Sardegna,,Italy,,
Punto Vaccinazione Territoriale Iglesias,STS,Sardegna,,Italy,,
Riabilitazione Npi Olbiatempio,RIA,Sardegna,,Italy,,
S.C. Riab.Glob.San.Socios.Ter.,RIA,Sardegna,,Italy,,
Sarrabus/Gerrei Distr.4,RIA,Sardegna,,Italy,,
Serv. Di Fisioterapia Distr. 5,RIA,Sardegna,,Italy,,
Serv. Di Neuropsichia. Distr.5,RIA,Sardegna,,Italy,,
Servizio Di N.P.I. - Ales,RIA,Sardegna,,Italy,,
Servizio Di N.P.I. - Oristano,RIA,Sardegna,,Italy,,
Servizio Di N.P.I. - Terralba,RIA,Sardegna,,Italy,,
Sisp-Sassari Covid,STS,Sardegna,,Italy,,
Sisp-Vaccini Covid-Oristano,STS,Sardegna,,Italy,,
Smeralda Rsa Di Padru Srl,RIA,Sardegna,,Italy,,
Soc.Coop.Ctr Arl-Onlus,RIA,Sardegna,,Italy,,
Studio Fkt Dr. Mele S.R.L,RIA,Sardegna,,Italy,,
Tamponi Fkt Gallura S.R.L. - O,RIA,Sardegna,,Italy,,
Tamponi Fkt Gallura Srl - A,RIA,Sardegna,,Italy,,
Tamponi Fkt Turritana S.R.L.,RIA,Sardegna,,Italy,,
U.O.N.P.I.A.,RIA,Sardegna,,Italy,,
Uoc Neur. Imf. Dis. Ca A.Vasta,RIA,Sardegna,,Italy,,
Uoc Neur. Inf. Dis. Ca A.Vasta,RIA,Sardegna,,Italy,,
Uonpia Riab. San Gavino,RIA,Sardegna,,Italy,,
Uonpia Riab. Sanluri,RIA,Sardegna,,Italy,,
Uonpia-Neuro Riabilitazione,RIA,Sardegna,,Italy,,
A.I.A.S.,RIA,Sicilia,,Italy,,
A.I.A.S. - Francofonte,RIA,Sicilia,,Italy,,
A.I.A.S. - Piazza Armerina,RIA,Sicilia,,Italy,,
A.I.A.S. - Taormina,RIA,Sicilia,,Italy,,
A.I.A.S. Onlus,RIA,Sicilia,,Italy,,
A.I.A.S. Onlus Sez Di Rosolini,RIA,Sicilia,,Italy,,
A.I.A.S. Palazzolo A.,RIA,Sicilia,,Italy,,
A.I.A.S. -Partinico,RIA,Sicilia,,Italy,,
A.I.A.S. Sez.Acirealec. Giarre,RIA,Sicilia,,Italy,,
A.I.A.S.Sez.Di Agrigento Onlus,RIA,Sicilia,,Italy,,
A.N.F.F.A.S. Onlus Di Catania,RIA,Sicilia,,Italy,,
A.N.F.F.A.S. Onlus Messina,RIA,Sicilia,,Italy,,
A.R.A. - Arcobaleno,RIA,Sicilia,,Italy,,
Aias 'G. Genovese' Sez. Barcel,RIA,Sicilia,,Italy,,
Aias Onlus Sez. Castelvetrano,RIA,Sicilia,,Italy,,
Aias Pachino,RIA,Sicilia,,Italy,,
Aias San Filippo Del Mela-Onlu,RIA,Sicilia,,Italy,,
Aias Sez. Acireale,RIA,Sicilia,,Italy,,
Aias Sez. Messina,RIA,Sicilia,,Italy,,
Aias Sez.Acireale C.Randazzo,RIA,Sicilia,,Italy,,
Ambulatorio Vaccinale Covid 19 Via Mule'  Cl,STS,Sicilia,,Italy,,
Ambulatorio Vaccinale Covid Presidio M.I.Longo-Mussomeli,STS,Sicilia,,Italy,,
Ambulatorio Vaccinale Covid Presidio S_Elia,STS,Sicilia,,Italy,,
Ambulatorio Vaccinale Covid Presidio V.E. Gela,STS,Sicilia,,Italy,,
Ambulatorio Vaccinale Covid Territoriale - Gela,STS,Sicilia,,Italy,,
Ambulatorio Vaccinale Covid Territoriale- Caltanissetta,STS,Sicilia,,Italy,,
Ambulatorio Vaccinale Covid Territoriale-Niscemi,STS,Sicilia,,Italy,,
Ass. Assistenz. 'Villa Sandra',RIA,Sicilia,,Italy,,
Ass. 'Casa Fam.Rosetta' Onilus,RIA,Sicilia,,Italy,,
Ass.Assist.Villa Sandra,RIA,Sicilia,,Italy,,
Ass.C.Fam.Rosetta Don F.Dierna,RIA,Sicilia,,Italy,,
Ass.C.Famiglia Rosetta,RIA,Sicilia,,Italy,,
Ass.Istituto Regina Virginum,RIA,Sicilia,,Italy,,
Ass.J.F.Kennedy - C.Riab.Onlus,RIA,Sicilia,,Italy,,
Ass.J.F.Kennedy Acireale,RIA,Sicilia,,Italy,,
Ass.Ne Casa Famiglia Rosetta,RIA,Sicilia,,Italy,,
Assoc. Suor Rosina La Grua,RIA,Sicilia,,Italy,,
Associazione Aress,RIA,Sicilia,,Italy,,
Associazione Asper,RIA,Sicilia,,Italy,,
Associazione Eidos - Onlus,RIA,Sicilia,,Italy,,
Associazione Maior,RIA,Sicilia,,Italy,,
Associazione Nuova Luce Onlus,RIA,Sicilia,,Italy,,
Associazione Oasi Cana Onlus,RIA,Sicilia,,Italy,,
Associazione Padre Pio,RIA,Sicilia,,Italy,,
Associazione Primavera Onlus,RIA,Sicilia,,Italy,,
Associazione Primavera Onlus -,RIA,Sicilia,,Italy,,
Auxilium C/Tro  Spastici Riab.,RIA,Sicilia,,Italy,,
Az. Osp. Univ. Paolo Giaccone,STS,Sicilia,,Italy,,
Azienda Ospedaliera Per L'Emergenza Cannizzaro,STS,Sicilia,,Italy,,
Azienda Ospedaliera Universitaria Policlinico G. Martino,STS,Sicilia,,Italy,,
C. Riab. Medical Center Srl,RIA,Sicilia,,Italy,,
C. Riab. Quoad Valitudinem,RIA,Sicilia,,Italy,,
C.Della Speranza Don Angelo G.,RIA,Sicilia,,Italy,,
C.E.P.A.I.D. Onlus,RIA,Sicilia,,Italy,,
C.M.S. Riab.In Età Evol.,RIA,Sicilia,,Italy,,
C.Riab.Oda 'Pecorino-Paterno',RIA,Sicilia,,Italy,,
C.Riabil.Impp.M.Ss.Del Carmelo,RIA,Sicilia,,Italy,,
C.S.R. - Barrafranca,RIA,Sicilia,,Italy,,
C.S.R. - Centro Di Comiso,RIA,Sicilia,,Italy,,
C.S.R. - Enna,RIA,Sicilia,,Italy,,
C.S.R. - Nicosia,RIA,Sicilia,,Italy,,
C.S.R. Centro Di Modica,RIA,Sicilia,,Italy,,
C.S.R. Centro Di Ragusa,RIA,Sicilia,,Italy,,
C.S.R. Soc. Cons.Arl - Melilli,RIA,Sicilia,,Italy,,
C.S.R. Soc.Cons.Arl - Augusta,RIA,Sicilia,,Italy,,
C.S.R.Militello Val Di Catania,RIA,Sicilia,,Italy,,
C.S.R.Soc.Cons. A.R.L.,RIA,Sicilia,,Italy,,
C/Tro Crs Aias Mazara,RIA,Sicilia,,Italy,,
Capp Cooperativa Sociale,RIA,Sicilia,,Italy,,
Cdr A.Ev.Pecorino-S.G.La Punta,RIA,Sicilia,,Italy,,
Ce. Op. A. R.Onlus,RIA,Sicilia,,Italy,,
Centro A.I.A.S. Belmonte Mezza,RIA,Sicilia,,Italy,,
Centro Amico Onlus,RIA,Sicilia,,Italy,,
Centro Diaconale Ist. Valdese,RIA,Sicilia,,Italy,,
Centro Fis. Spazio Vitale Srl,RIA,Sicilia,,Italy,,
Centro Med. Soc. Neuromotulesi,RIA,Sicilia,,Italy,,
Centro Riab. S.Teresa Di Riva,RIA,Sicilia,,Italy,,
Centro Riabil. Villa Angela,RIA,Sicilia,,Italy,,
Centro Riabil.Villa Francesca,RIA,Sicilia,,Italy,,
Centro Riabilit. Zacco - Enna,RIA,Sicilia,,Italy,,
Centro Riabilitaz.Neuromotoria,RIA,Sicilia,,Italy,,
Centro Riabilitazione Acquedol,RIA,Sicilia,,Italy,,
Centro Riabilitazione Oreto,RIA,Sicilia,,Italy,,
Centro Terapeut Riabilitat Ctr,RIA,Sicilia,,Italy,,
Centro Vaccinale - Alcamo,STS,Sicilia,,Italy,,
Centro Vaccinale - Castelvetrano,STS,Sicilia,,Italy,,
Centro Vaccinale - Favignana,STS,Sicilia,,Italy,,
Centro Vaccinale - Marsala,STS,Sicilia,,Italy,,
Centro Vaccinale - Mazara  Del Vallo,STS,Sicilia,,Italy,,
Centro Vaccinale  Pala  Atria - Partanna,STS,Sicilia,,Italy,,
Centro Vaccinale - Pantelleria,STS,Sicilia,,Italy,,
Centro Vaccinale - Salemi,STS,Sicilia,,Italy,,
Centro Vaccinale Anti Covid_19 C/O Guardia Medica Buccheri,STS,Sicilia,,Italy,,
Centro Vaccinale Anti Covid_19 Uscai Melilli,STS,Sicilia,,Italy,,
Centro Vaccinale Anti Covid-19  Ist. Scolast. Costa Augusta,STS,Sicilia,,Italy,,
Centro Vaccinale Anti Covid-19 C/O Guardia Medica Carlentini,STS,Sicilia,,Italy,,
Centro Vaccinale Anti Covid-19 C/O Guardia Medica Francofonte,STS,Sicilia,,Italy,,
Centro Vaccinale Anti Covid-19 C/O Poliamb. Sortino,STS,Sicilia,,Italy,,
Centro Vaccinale Anti Covid-19 C/O Semp Canicattini B.,STS,Sicilia,,Italy,,
Centro Vaccinale Anti Covid-19 C/O Semp Ferla,STS,Sicilia,,Italy,,
Centro Vaccinale Anti Covid-19 C/O Semp Lentini,STS,Sicilia,,Italy,,
Centro Vaccinale Anti Covid-19 C/O Semp Melilli,STS,Sicilia,,Italy,,
Centro Vaccinale Anti Covid-19 C/O Semp Pachino,STS,Sicilia,,Italy,,
Centro Vaccinale Anti Covid-19 C/O Semp Rosolini,STS,Sicilia,,Italy,,
Centro Vaccinale Anti Covid-19 C/O Semp Siracusa,STS,Sicilia,,Italy,,
Centro Vaccinale Anti Covid-19 C/O Semp Solarino,STS,Sicilia,,Italy,,
Centro Vaccinale Anti Covid-19 Consorzio Cerica Priolo,STS,Sicilia,,Italy,,
Centro Vaccinale Anti Covid-19 P.O. Avola,STS,Sicilia,,Italy,,
Centro Vaccinale Anti Covid-19 P.O. Lentini,STS,Sicilia,,Italy,,
Centro Vaccinale Anti Covid-19 Urban Center Siracusa,STS,Sicilia,,Italy,,
Centro Vaccinale Anti-Covid-19 Protezione Civile Palazzolo A.,STS,Sicilia,,Italy,,
Centro Vaccinale Antti Covid-19 P.O. Augusta,STS,Sicilia,,Italy,,
Centro Vaccinale Buseto Palizzolo,STS,Sicilia,,Italy,,
Centro Vaccinale Hub Portopalo,STS,Sicilia,,Italy,,
Centro Vaccinale Pala D'Angelo - Alcamo,STS,Sicilia,,Italy,,
Centro Vaccinale San  Michele -Erice,STS,Sicilia,,Italy,,
Centro Vaccinazioe Covid C/O Po Basilotta,STS,Sicilia,,Italy,,
Centro Vaccinazione Anti Covid-19 Agrigento,STS,Sicilia,,Italy,,
Centro Vaccinazione Anti Covid-19 Canicatti,STS,Sicilia,,Italy,,
Centro Vaccinazione Anti Covid-19 Hub Sciacca,STS,Sicilia,,Italy,,
Centro Vaccinazione Anti Covid-19 Licata,STS,Sicilia,,Italy,,
Centro Vaccinazione Anti Covid-19 Palacongressi Villaggio Mose¿,STS,Sicilia,,Italy,,
Centro Vaccinazione Anti Covid-19 Poliambulatorio Agrigento,STS,Sicilia,,Italy,,
Centro Vaccinazione Anti Covid-19 Poliambulatorio Bivona,STS,Sicilia,,Italy,,
Centro Vaccinazione Anti Covid-19 Poliambulatorio Cammarata,STS,Sicilia,,Italy,,
Centro Vaccinazione Anti Covid-19 Poliambulatorio Canicatti,STS,Sicilia,,Italy,,
Centro Vaccinazione Anti Covid-19 Poliambulatorio Favara,STS,Sicilia,,Italy,,
Centro Vaccinazione Anti Covid-19 Poliambulatorio Menfi,STS,Sicilia,,Italy,,
Centro Vaccinazione Anti Covid-19 Ribera,STS,Sicilia,,Italy,,
Centro Vaccinazione Anti Covid-19 Sciacca,STS,Sicilia,,Italy,,
Centro Vaccinazione Anticovid - Barcellona,STS,Sicilia,,Italy,,
Centro Vaccinazione Anticovid - Concattedrale Patti,STS,Sicilia,,Italy,,
Centro Vaccinazione Anticovid - Hub Capo D'Orlando,STS,Sicilia,,Italy,,
Centro Vaccinazione Anticovid - Hub Ex Fiera Di Messina,STS,Sicilia,,Italy,,
Centro Vaccinazione Anticovid - Hub Ex Ospedale Militare,STS,Sicilia,,Italy,,
Centro Vaccinazione Anticovid - Hub Lumbi Taormina,STS,Sicilia,,Italy,,
Centro Vaccinazione Anticovid - Hub Palarescifina Messina,STS,Sicilia,,Italy,,
Centro Vaccinazione Anticovid - Hub Parco Corolla Milazzo,STS,Sicilia,,Italy,,
Centro Vaccinazione Anticovid - Milazzo,STS,Sicilia,,Italy,,
Centro Vaccinazione Anticovid - Palatenda Brolo,STS,Sicilia,,Italy,,
Centro Vaccinazione Anticovid - Patti,STS,Sicilia,,Italy,,
Centro Vaccinazione Anticovid - Po Barcellona,STS,Sicilia,,Italy,,
Centro Vaccinazione Anticovid - Po Lipari,STS,Sicilia,,Italy,,
Centro Vaccinazione Anticovid - Po Milazzo,STS,Sicilia,,Italy,,
Centro Vaccinazione Anticovid - Po Mistretta,STS,Sicilia,,Italy,,
Centro Vaccinazione Anticovid - Po Patti C/O Basilica Santi Martiri,STS,Sicilia,,Italy,,
Centro Vaccinazione Anticovid - Po S. Agata M.Llo,STS,Sicilia,,Italy,,
Centro Vaccinazione Anticovid - Po Taormina,STS,Sicilia,,Italy,,
Centro Vaccinazione Anticovid - S. Alessio Siculo,STS,Sicilia,,Italy,,
Centro Vaccinazione Anticovid - S. Teresa Di Riva,STS,Sicilia,,Italy,,
Centro Vaccinazione Corleone,STS,Sicilia,,Italy,,
Centro Vaccinazione Covid C/O Po Chiello,STS,Sicilia,,Italy,,
Centro Vaccinazione Covid C/O Po Umberto I,STS,Sicilia,,Italy,,
Centrpo Vaccinazione Anti Covid-19 C/O Semp Floridia,STS,Sicilia,,Italy,,
Comunita` Della Speranza,RIA,Sicilia,,Italy,,
"Confr. S, Maria Del Soccorso",RIA,Sicilia,,Italy,,
Consorsio Siciliano Riabilitaz,RIA,Sicilia,,Italy,,
Consorzio Siciliano Riabilitaz,RIA,Sicilia,,Italy,,
Coop. Sociale Speranza 2000,RIA,Sicilia,,Italy,,
Cooperativa Capp,RIA,Sicilia,,Italy,,
Crs Alcamo,RIA,Sicilia,,Italy,,
Csr - Salemi,RIA,Sicilia,,Italy,,
Csr Aias Paceco,RIA,Sicilia,,Italy,,
Csr Cataniasez Marsala,RIA,Sicilia,,Italy,,
Cto - Centro Vaccinazione,STS,Sicilia,,Italy,,
Cts Ist.Medico Psicoped.Onlus,RIA,Sicilia,,Italy,,
Dip.Prev Ambulatorio Vaccinale 1 Ragusa,STS,Sicilia,,Italy,,
Dip.Prev Ambulatorio Vaccinale 2 Vittoria,STS,Sicilia,,Italy,,
Dip.Prev Ambulatorio Vaccinale 3 Modica,STS,Sicilia,,Italy,,
Dip.Prev Ambulatorio Vaccinale 4  Comiso Ex Osp.,STS,Sicilia,,Italy,,
Dip.Prev Ambulatorio Vaccinale 5  Ospedale Busacca,STS,Sicilia,,Italy,,
Dip.Prev Ambulatorio Vaccinale 6 Pozzallo,STS,Sicilia,,Italy,,
Dip.Prev Ambulatorio Vaccinale 7 Ispica,STS,Sicilia,,Italy,,
Dismed Onlus,RIA,Sicilia,,Italy,,
Distretto Modica Pv Territoriale,STS,Sicilia,,Italy,,
Distretto Modica Pvo Modica,STS,Sicilia,,Italy,,
Distretto Ragusa Pv Ompa,STS,Sicilia,,Italy,,
Distretto Ragusa Pvo Gpii,STS,Sicilia,,Italy,,
Distretto Vittoria Pvo Comiso,STS,Sicilia,,Italy,,
Distretto Vittoria Pvo Vittoria,STS,Sicilia,,Italy,,
Div.-Med. Fisica Riabilitativa,RIA,Sicilia,,Italy,,
Eubios,RIA,Sicilia,,Italy,,
Eubios Soc. Coop. Sociale,RIA,Sicilia,,Italy,,
Fondazione C. D'Alessandro Onl,RIA,Sicilia,,Italy,,
Fondazione O.R.T.U.S. Onlus,RIA,Sicilia,,Italy,,
Fondazione S. Merici  Siracusa,RIA,Sicilia,,Italy,,
Hub Auditorium Misterbianco Covid,STS,Sicilia,,Italy,,
Hub Bronte Covid,STS,Sicilia,,Italy,,
Hub Ex Mercato Ortofrutticolo Covid,STS,Sicilia,,Italy,,
Hub Pala Tupparello Acireale Covid,STS,Sicilia,,Italy,,
Hub Palabattiati S. Agata Lì Battiati Covid,STS,Sicilia,,Italy,,
Hub Palazzetto Del Diporto Caltagirone Covid,STS,Sicilia,,Italy,,
Hub Vaccinale Pala Cossiga-Gela,STS,Sicilia,,Italy,,
I.M.P.P. Giovanni Xxiii,RIA,Sicilia,,Italy,,
I.M.Psic.Ped. Villa Nazaret,RIA,Sicilia,,Italy,,
I.R.C.C.S. Neurolesi Bonino Pulejo P.O. Piemonte,STS,Sicilia,,Italy,,
I.R.C.C.S. Neurolesi Bonino Pulejo-P.O. Casazza,STS,Sicilia,,Italy,,
Io Comunico Srl,RIA,Sicilia,,Italy,,
Ipab Casa Del Fanciullo,RIA,Sicilia,,Italy,,
Isas Armonia Onlus,RIA,Sicilia,,Italy,,
Ist. S. A. Merici - Canicattin,RIA,Sicilia,,Italy,,
Ist.Riab.Villag. San Giuseppe,RIA,Sicilia,,Italy,,
Istituto Dei Ciechi,RIA,Sicilia,,Italy,,
Istituto M.P.P. Lucia Mangano,RIA,Sicilia,,Italy,,
Lega Del Filo D'Oro Onlus,RIA,Sicilia,,Italy,,
Madre Del Divino Amore,RIA,Sicilia,,Italy,,
Oasi Di Torretta Onlus,RIA,Sicilia,,Italy,,
Ospedale Civico,STS,Sicilia,,Italy,,
Ospedale Dei Bambini G. Di Cristina,STS,Sicilia,,Italy,,
Presidio Ospedaliero Gaspare Rodolico,STS,Sicilia,,Italy,,
Presidio Ospedaliero S.Marco,STS,Sicilia,,Italy,,
Punto Vaccinale  12 Petralia,STS,Sicilia,,Italy,,
Punto Vaccinale  14 Carini,STS,Sicilia,,Italy,,
Punto Vaccinale  15  Lampedusa E Linosas,STS,Sicilia,,Italy,,
Punto Vaccinale 11 Palermo,STS,Sicilia,,Italy,,
Punto Vaccinale 13 Po Ingrassia,STS,Sicilia,,Italy,,
Punto Vaccinale 16-Hub Misilmeri,STS,Sicilia,,Italy,,
Punto Vaccinale 17- Hub C/O Centro Commerciale 'La Torre',STS,Sicilia,,Italy,,
Punto Vaccinale 18- Hub Cefalu',STS,Sicilia,,Italy,,
Punto Vaccinale 19 -  Hub Bagheria,STS,Sicilia,,Italy,,
Punto Vaccinale 2 Partinico,STS,Sicilia,,Italy,,
Punto Vaccinale 20 -Carini C/O 'Poseidon',STS,Sicilia,,Italy,,
Punto Vaccinale 3 Corleone,STS,Sicilia,,Italy,,
Punto Vaccinale 4 Termini,STS,Sicilia,,Italy,,
Punto Vaccinale 5 Cinisi,STS,Sicilia,,Italy,,
Punto Vaccinale 6 Marineo,STS,Sicilia,,Italy,,
Punto Vaccinale 7 Petralia,STS,Sicilia,,Italy,,
Punto Vaccinale 8 Bagheria,STS,Sicilia,,Italy,,
Punto Vaccinale 9 Lercara,STS,Sicilia,,Italy,,
Pvo Acireale Covid,STS,Sicilia,,Italy,,
Pvo Biancavilla Covid,STS,Sicilia,,Italy,,
Pvo Bronte Covid,STS,Sicilia,,Italy,,
Pvo Caltagirone Covid,STS,Sicilia,,Italy,,
Pvo Giarre Covid,STS,Sicilia,,Italy,,
Pvo Militello Covid,STS,Sicilia,,Italy,,
Pvo Paternò Covid,STS,Sicilia,,Italy,,
Pvt Ambulatorio Belpasso Covid,STS,Sicilia,,Italy,,
Pvt Ambulatorio Linguaglossa Covid,STS,Sicilia,,Italy,,
Pvt Ambulatorio Mascalucia Covid,STS,Sicilia,,Italy,,
Pvt Ambulatorio Randazzo Covid,STS,Sicilia,,Italy,,
Pvt Ambulatorio Scordia Covid,STS,Sicilia,,Italy,,
Pvt Avis Ragusa,STS,Sicilia,,Italy,,
Pvt Poliambulatorio Adrano Covid,STS,Sicilia,,Italy,,
Rg Hub Palaminardi Ragusa,STS,Sicilia,,Italy,,
Rg Hub-Centro Vaccinazione Covid Ag Distribuzione Modica,STS,Sicilia,,Italy,,
Rg Hub-Centro Vaccinazione Covid Fiera Emaia Vittoria,STS,Sicilia,,Italy,,
Rg Hub-Centro Vaccinazione Covid Ospedale Civile,STS,Sicilia,,Italy,,
Rg Hubprotezione Civile Scicli,STS,Sicilia,,Italy,,
Rg Pvt - Mmg Amb Vaccini Presso Proprio Ambulatorio,STS,Sicilia,,Italy,,
Rg Pvt - Mmg Dom - Vaccini A Domicilio Dell'Assistito,STS,Sicilia,,Italy,,
Rg Pvt - Vaccinazioni Domiciliari,STS,Sicilia,,Italy,,
San Martino Coop.S.C. Isoptera,RIA,Sicilia,,Italy,,
Soc. Coop. Amica,RIA,Sicilia,,Italy,,
Soc. Serv. Riabilitativi Spa,RIA,Sicilia,,Italy,,
Societa` Polisportiva Palermo,RIA,Sicilia,,Italy,,
Stabilimento Pfizer Covid,STS,Sicilia,,Italy,,
Tre Ali Onlus,RIA,Sicilia,,Italy,,
U.O.C. Riabilit Minori A. Metr,RIA,Sicilia,,Italy,,
Un. Ital. Ciechi E Ipovedenti,RIA,Sicilia,,Italy,,
Uoc Riabilitazione Adulti E Mi,RIA,Sicilia,,Italy,,
Uoc. Med. Fis. E Riabilitativa,RIA,Sicilia,,Italy,,
Uos. Med.Fis.E Riabilitativa,RIA,Sicilia,,Italy,,
Villa Nave - Suore Teatine,RIA,Sicilia,,Italy,,
A.I.A.B.A. Onlus,RIA,Toscana,,Italy,,
A.I.A.B.A. Onlus Cd D'Annunzio,RIA,Toscana,,Italy,,
A.I.R.R.I. Grosseto,RIA,Toscana,,Italy,,
A.I.R.R.I.Santa Fiora,RIA,Toscana,,Italy,,
A.N.F.F.A.S.,RIA,Toscana,,Italy,,
Aias,RIA,Toscana,,Italy,,
Amb.Riab. Villa Ersilia,RIA,Toscana,,Italy,,
Ambulatori Ex Asl3,RIA,Toscana,,Italy,,
Ambulatori Misericordia Srl Ca,RIA,Toscana,,Italy,,
Anffas Onlus Di Firenze,RIA,Toscana,,Italy,,
Ass.Trisomia21Onlus Centro Di,RIA,Toscana,,Italy,,
Associazione Autismo Firenze O,RIA,Toscana,,Italy,,
Auditorium Comunale Loro Ciuff,STS,Toscana,,Italy,,
Autodromo Scarperia,STS,Toscana,,Italy,,
Az. Ospedaliero - Universitari,RIA,Toscana,,Italy,,
Azienda Ospedaliera Meyer,RIA,Toscana,,Italy,,
Azienda Ospedaliera Universita,RIA,Toscana,,Italy,,
Blue Clinic Srl,RIA,Toscana,,Italy,,
C.A.R.O. Ospedale S.Donato Are,RIA,Toscana,,Italy,,
C.Diurno Celebrolesi F.Primi,RIA,Toscana,,Italy,,
C.R.I. Ist.Anna Torrigiani,RIA,Toscana,,Italy,,
C.T.E. Srl Cadorna,RIA,Toscana,,Italy,,
C.T.E. Srl Cinque Vie,RIA,Toscana,,Italy,,
C.T.E. Srl Rignano,RIA,Toscana,,Italy,,
C.Tro Socio San. R.Giovannini,RIA,Toscana,,Italy,,
Casa Del Popolo Grassina,STS,Toscana,,Italy,,
Casa Di Cura Frate Sole,RIA,Toscana,,Italy,,
Casa Di Cura M.D. Barbantini,RIA,Toscana,,Italy,,
Casa Di Cura San Camillo F.Dei,RIA,Toscana,,Italy,,
Casa Verde Irccs Fondazione St,RIA,Toscana,,Italy,,
Cdr Rsa Diacceto Fondaz. Oda,RIA,Toscana,,Italy,,
Cdr Villa S.Luigi Fondaz Oda F,RIA,Toscana,,Italy,,
Cent.Riab.Terranova Bracciolin,RIA,Toscana,,Italy,,
Centro Affari E Convegni Arezz,STS,Toscana,,Italy,,
Centro Di Riabilitazione Villa,RIA,Toscana,,Italy,,
Centro Di Rieducazione Ortofon,RIA,Toscana,,Italy,,
Centro Diurno Albero Vivo,RIA,Toscana,,Italy,,
Centro Espositivo Di Scandicci,STS,Toscana,,Italy,,
Centro Integrato Educ.Ne E Ria,RIA,Toscana,,Italy,,
Centro Polifunzion. Campiglia,RIA,Toscana,,Italy,,
Centro Politano Psicotici,RIA,Toscana,,Italy,,
Centro Riab. Luigi Moni,RIA,Toscana,,Italy,,
Centro Riab. Santa Fina,RIA,Toscana,,Italy,,
Centro Riabilitaz. S.Caterina,RIA,Toscana,,Italy,,
Centro Riabilitazione,RIA,Toscana,,Italy,,
Centro Riabilitazione Montalci,RIA,Toscana,,Italy,,
Centro Rieduc.Del Linguaggio,RIA,Toscana,,Italy,,
Centro Sociale Bibbiena,STS,Toscana,,Italy,,
Centro Socio Sanitario Ex Dist,STS,Toscana,,Italy,,
Centro Vasari  Srl,RIA,Toscana,,Italy,,
Centro W.Cerrano Don Gnocchi,RIA,Toscana,,Italy,,
Cerv - Irifor Sez. Pisa,RIA,Toscana,,Italy,,
Cinema Multisala Grosseto,STS,Toscana,,Italy,,
Circolo Mcl San Biagio Pistoia,STS,Toscana,,Italy,,
Coop. Sociale P.A.M.A.P.I.,RIA,Toscana,,Italy,,
Cri Presidio Fraticini,RIA,Toscana,,Italy,,
Cte Srl Il Fortino,RIA,Toscana,,Italy,,
Cte Srl Rsd Le Torri,RIA,Toscana,,Italy,,
Discoteca Kronos Castel Del Pi,STS,Toscana,,Italy,,
Discoteca Papillon 78 Monteron,STS,Toscana,,Italy,,
Distr Certaldo Att Riab Ex Art,RIA,Toscana,,Italy,,
Distr Empoli Att Riab Ex Art 2,RIA,Toscana,,Italy,,
Distretto Quarrata,RIA,Toscana,,Italy,,
Ex Chino Chini Pontassieve,STS,Toscana,,Italy,,
Ex Dispensario Cpa,RIA,Toscana,,Italy,,
Ex Distretto Riab.  Marina C,RIA,Toscana,,Italy,,
Ex Filanda,RIA,Toscana,,Italy,,
Fisioterapia S. Jacopo,RIA,Toscana,,Italy,,
Fisioterapia Santo Stefano,RIA,Toscana,,Italy,,
Fond Modi Di Dire  Centro Logo,RIA,Toscana,,Italy,,
Fond. S. Sebastiano Misericord,RIA,Toscana,,Italy,,
Fondazione C.Ri.D.A  Sede Prat,RIA,Toscana,,Italy,,
Fondazione C.Ri.D.A. Via Ferru,RIA,Toscana,,Italy,,
Fondazione Crida Sede Montale,RIA,Toscana,,Italy,,
Fondazione Don Gnocchi,RIA,Toscana,,Italy,,
Fondazione Maria Assunta In Ci,RIA,Toscana,,Italy,,
Fondazione Raggio Verde,RIA,Toscana,,Italy,,
Fondazione Turati Gavinana,RIA,Toscana,,Italy,,
Fondazione Turati Pistoia,RIA,Toscana,,Italy,,
Fonderia 1 Sala Comunale Follo,STS,Toscana,,Italy,,
Foro Boario San Sepolcro,STS,Toscana,,Italy,,
I.R.C.C.S. Centro Di Riab. Don,RIA,Toscana,,Italy,,
Ifca Spa-Casa Di Cura Ulivella,RIA,Toscana,,Italy,,
Inail Crm - Centro Riab. Motor,RIA,Toscana,,Italy,,
Ispo,RIA,Toscana,,Italy,,
"Ist.Priv.Riabil.  ""Madre Divin",RIA,Toscana,,Italy,,
Ist.Privato Riab. Medaglia Mir,RIA,Toscana,,Italy,,
Ist.Prosperius Centro Riabilit,RIA,Toscana,,Italy,,
Ist.Riab. Villaggio Della Cons,RIA,Toscana,,Italy,,
Istituto Di Riabilitazione Di,RIA,Toscana,,Italy,,
La Badia San Miniato Att Riab,RIA,Toscana,,Italy,,
La Cupolina Srl,RIA,Toscana,,Italy,,
Lab. Aus. Apprendimento E Comu,RIA,Toscana,,Italy,,
Laboratorio Ausili Tecnologici,RIA,Toscana,,Italy,,
Le Civette,RIA,Toscana,,Italy,,
Osp Castelf.No Att Riab Ex Art,RIA,Toscana,,Italy,,
Osp Fucecchio Att Riab Ex Art,RIA,Toscana,,Italy,,
Osp S. Miniato Att Riab Ex Art,RIA,Toscana,,Italy,,
"Ospedale ""Versilia""           ",RIA,Toscana,,Italy,,
Ospedale Di Comunita' - Riabil,RIA,Toscana,,Italy,,
P.Za San Rocco Empoli Att Riab,RIA,Toscana,,Italy,,
Palasport Fucecchio,STS,Toscana,,Italy,,
Palazzetto Del Bernino Poggibo,STS,Toscana,,Italy,,
Palazzetto Sport Dicomano,STS,Toscana,,Italy,,
Palazzetto Sport Mensana Pal.G,STS,Toscana,,Italy,,
Palazzetto Sport Reggello,STS,Toscana,,Italy,,
Palestra Scuola Elementare Abb,STS,Toscana,,Italy,,
Pegaso Srl,RIA,Toscana,,Italy,,
Poliambulat.Foiano Della Chian,RIA,Toscana,,Italy,,
Poliambulatorio Bibbiena,RIA,Toscana,,Italy,,
Poliambulatorio Lucignano,RIA,Toscana,,Italy,,
Poliambulatorio Ospedale Fratt,RIA,Toscana,,Italy,,
Poliambulatorio Sansepolcro,RIA,Toscana,,Italy,,
Pres. Amb. Riabilitaz. Borgo A,RIA,Toscana,,Italy,,
Presidio  Acciaiolo,RIA,Toscana,,Italy,,
Presidio Agliana,RIA,Toscana,,Italy,,
Presidio Alfa Columbus,RIA,Toscana,,Italy,,
Presidio Barberino,RIA,Toscana,,Italy,,
Presidio Borgo San Lorenzo,RIA,Toscana,,Italy,,
Presidio Camerata,RIA,Toscana,,Italy,,
Presidio Canova,RIA,Toscana,,Italy,,
Presidio D'Annunzio,RIA,Toscana,,Italy,,
Presidio Distrett. Vaiano,RIA,Toscana,,Italy,,
Presidio Eta' Evolutiva,RIA,Toscana,,Italy,,
Presidio Fanfani,RIA,Toscana,,Italy,,
Presidio Firenzuola,RIA,Toscana,,Italy,,
Presidio Giuliani,RIA,Toscana,,Italy,,
Presidio Greve,RIA,Toscana,,Italy,,
Presidio Incisa,RIA,Toscana,,Italy,,
Presidio Ospedaliero Piero Pal,RIA,Toscana,,Italy,,
Presidio Pal. Osma,RIA,Toscana,,Italy,,
Presidio Pelago,RIA,Toscana,,Italy,,
Presidio Reggello,RIA,Toscana,,Italy,,
Presidio Riab. Abbadia S.S.,RIA,Toscana,,Italy,,
Presidio Riab. Chiusi,RIA,Toscana,,Italy,,
Presidio Riab. Montepulciano,RIA,Toscana,,Italy,,
Presidio Riab. Poggibonsi,RIA,Toscana,,Italy,,
Presidio Riab. Sinalunga,RIA,Toscana,,Italy,,
Presidio Riab. Tamburino,RIA,Toscana,,Italy,,
Presidio Riabil Ambu San Giova,RIA,Toscana,,Italy,,
Presidio Riabil Lungarno Santa,RIA,Toscana,,Italy,,
Presidio Riabilitazione Le Pia,RIA,Toscana,,Italy,,
Presidio Rignano,RIA,Toscana,,Italy,,
Presidio Rossini,RIA,Toscana,,Italy,,
Presidio Vaccinale Empoli Sesa,STS,Toscana,,Italy,,
Presidio Vaccinale Firenze Man,STS,Toscana,,Italy,,
Presidio Vaccinale Hub Caserma,STS,Toscana,,Italy,,
Presidio Vaccinale Palaterme M,STS,Toscana,,Italy,,
Presidio Vaccinale Pistoia Cat,STS,Toscana,,Italy,,
Presidio Vaccinale Prato Pegas,STS,Toscana,,Italy,,
Presidio Via Della Querciola,RIA,Toscana,,Italy,,
Riab Ex Art. 26 Castelnuovo Di,RIA,Toscana,,Italy,,
Riab Ex Art. 26 Ex Ceser Forna,RIA,Toscana,,Italy,,
Riab Ex Art. 26 Ospedale S. Fr,RIA,Toscana,,Italy,,
Riab Ex Art. 26 San Leonardo I,RIA,Toscana,,Italy,,
Riab. Aulla. Distretto/Aias,RIA,Toscana,,Italy,,
Riab. Ex Art. 26 Bagni Di Lucc,RIA,Toscana,,Italy,,
Riab. Ex Art. 26 Campo Di Mart,RIA,Toscana,,Italy,,
Riab. Ex Art. 26 Tabarracci Vi,RIA,Toscana,,Italy,,
Riab. Ex. Art. 26 Capannori,RIA,Toscana,,Italy,,
Riab. Osp. Serristori,RIA,Toscana,,Italy,,
Riabilit.  Distretto Fivizzano,RIA,Toscana,,Italy,,
Riabilit. Osped. Pontremoli,RIA,Toscana,,Italy,,
Riabilitazione Amb. San Marcel,RIA,Toscana,,Italy,,
Riabilitazione Ambulatoriale C,RIA,Toscana,,Italy,,
Riabilitazione Ambulatoriale E,RIA,Toscana,,Italy,,
Riabilitazione Ambulatoriale L,RIA,Toscana,,Italy,,
Riabilitazione Ambulatoriale P,RIA,Toscana,,Italy,,
Riabilitazione Cardiologica,RIA,Toscana,,Italy,,
Riabilitazione Casa Della Salu,RIA,Toscana,,Italy,,
Riabilitazione Penitenziario M,RIA,Toscana,,Italy,,
Riabilitazione San Casciano,RIA,Toscana,,Italy,,
Ristorante Attimi,STS,Toscana,,Italy,,
S.O.R. Fivizzano,RIA,Toscana,,Italy,,
S.Rita C.Diurno Giov.Psicotici,RIA,Toscana,,Italy,,
Sala Polivalente Exmacelli Mon,STS,Toscana,,Italy,,
Santacroce Medical Center Srl,RIA,Toscana,,Italy,,
Scuola Media Bertini Pancrazi,STS,Toscana,,Italy,,
Smia Via Degli Armeni,RIA,Toscana,,Italy,,
Spazio Comunale Calenzano,STS,Toscana,,Italy,,
Stabilimento Cisanello,RIA,Toscana,,Italy,,
Stabilimento Santa Chiara,RIA,Toscana,,Italy,,
Struttura Polivalente Certaldo,STS,Toscana,,Italy,,
Sv Amb Vaccinale Presso Prot C,STS,Toscana,,Italy,,
Sv Ca Anziani S. Remigio Fosdi,STS,Toscana,,Italy,,
Sv Hub Carrara Fiere,STS,Toscana,,Italy,,
Sv Hub Modigliani,STS,Toscana,,Italy,,
Sv Hub Vaccinale Cecina Via Am,STS,Toscana,,Italy,,
Sv Hub Vaccinale Rosignano Pes,STS,Toscana,,Italy,,
Sv Hub Vaccinazioni Pontedera,STS,Toscana,,Italy,,
Sv Hub Zona Pisana,STS,Toscana,,Italy,,
Sv Il Villaggio Della Vita,STS,Toscana,,Italy,,
Sv Ra Ist Suore Figlie Di Naza,STS,Toscana,,Italy,,
Sv Ra Oasi Sacro Cuore,STS,Toscana,,Italy,,
Sv Rsa Casa Divina Provv Cotto,STS,Toscana,,Italy,,
Sv Rsa Galli Bonaventuri,STS,Toscana,,Italy,,
Sv Rsa Il Molino,STS,Toscana,,Italy,,
Sv Rsa Istituto Iacopini,STS,Toscana,,Italy,,
Sv Rsa Phalesia,STS,Toscana,,Italy,,
Terme Di Casciana,RIA,Toscana,,Italy,,
U.F. Recup. Riab.  Funz. Adult,RIA,Toscana,,Italy,,
U.F. Sal. Ment. Infanzia  Adol,RIA,Toscana,,Italy,,
U.F. Sal. Ment. Infanzia Adol.,RIA,Toscana,,Italy,,
U.F.S.M.I.A Valdera  C/O Mis.,RIA,Toscana,,Italy,,
U.F.S.M.I.A. Pisa Via Garibald,RIA,Toscana,,Italy,,
U.F.S.M.I.A.- Volterra (Borgo,RIA,Toscana,,Italy,,
"U.O.Centro Di Riab.""Aldi Mai"" ",RIA,Toscana,,Italy,,
U.O.R.R.F Valdera C/O P.A. For,RIA,Toscana,,Italy,,
U.O.R.R.F. - Larderello,RIA,Toscana,,Italy,,
U.O.R.R.F. - Via Garibaldi,RIA,Toscana,,Italy,,
U.O.R.R.F. - Volterra,RIA,Toscana,,Italy,,
U.O.Riab.Funz.Casteldelpiano,RIA,Toscana,,Italy,,
U.O.Riab.Funz.Massa Marittima,RIA,Toscana,,Italy,,
U.O.Riab.Funz.Orbetello,RIA,Toscana,,Italy,,
U.O.Riab.Funz.Villa Pizzetti,RIA,Toscana,,Italy,,
U.O.Riab.Fuz.Follonica,RIA,Toscana,,Italy,,
Ufsmia Distretto Castelnuovo D,RIA,Toscana,,Italy,,
Valdisieve Hospital Srl,RIA,Toscana,,Italy,,
Vila Delle Terme Spa.Div Falci,RIA,Toscana,,Italy,,
Villa Il Sorriso,RIA,Toscana,,Italy,,
Villa Le Terme Spa Divisione M,RIA,Toscana,,Italy,,
Villa Monteturli,RIA,Toscana,,Italy,,
Vital Center Srl,RIA,Toscana,,Italy,,
Ambulatorio Casa Circondariale Terni - Punto Vaccinale Territoriale,STS,Umbria,,Italy,,
Ambulatorio Po Orvieto Vaccinazione Covid,STS,Umbria,,Italy,,
C.R.Sereni-Opera Don Guanella,RIA,Umbria,,Italy,,
Casa Di Reclusione Maiano - Punto Vaccinale Territoriale,STS,Umbria,,Italy,,
Casa Di Reclusione Orvieto Ambulatori - Punto Vaccinale Territoriale,STS,Umbria,,Italy,,
Casagrande Terni Punto Vaccinale Territoriale,STS,Umbria,,Italy,,
Centro Comunità Cascia - Punto Vaccinale Territoriale,STS,Umbria,,Italy,,
Centro Polifunzionale Ca' Rapillo Spello - Punto Vaccinale Territoriale,STS,Umbria,,Italy,,
Centro Polispecialistico C/O Casa Circondariale Di Capanne,STS,Umbria,,Italy,,
Centro Speranza,RIA,Umbria,,Italy,,
Comunita' Capodarco Residenz.,RIA,Umbria,,Italy,,
Comunita' Capodarco Semiresid.,RIA,Umbria,,Italy,,
Distretto Orvieto - Punto Vaccinale Territoriale,STS,Umbria,,Italy,,
Distretto Orvieto Pvt Fabro - Punto Vaccinale Territoriale,STS,Umbria,,Italy,,
Istituto Padre L. Da Casoria,RIA,Umbria,,Italy,,
Istituto Per Sovrintendenti Della Polizia Di Stato Ufficio Sanitario - Punto Vaccinale Territoriale,STS,Umbria,,Italy,,
Istituto Serafico,RIA,Umbria,,Italy,,
Palestra Istituto Geometri - Punto Vaccinale Territoriale,STS,Umbria,,Italy,,
Pes Norcia - Punto Vaccinale Territoriale,STS,Umbria,,Italy,,
Punto Vaccinazione Anti Covid-19   San Marco,STS,Umbria,,Italy,,
Punto Vaccinazione Anti Covid-19  Comando Legione Carabinieri Umbria,STS,Umbria,,Italy,,
Punto Vaccinazione Anti Covid-19  Polizia Di Stato,STS,Umbria,,Italy,,
Punto Vaccinazione Anti Covid-19 Assisano,STS,Umbria,,Italy,,
Punto Vaccinazione Anti Covid-19 Comune Todi,STS,Umbria,,Italy,,
Punto Vaccinazione Anti Covid-19 Gualdo Tadino,STS,Umbria,,Italy,,
Punto Vaccinazione Anti Covid-19 Gubbio,STS,Umbria,,Italy,,
Punto Vaccinazione Anti Covid-19 La Rocchetta Gualdo Tadino,STS,Umbria,,Italy,,
Punto Vaccinazione Anti Covid-19 Marsciano,STS,Umbria,,Italy,,
Punto Vaccinazione Anti Covid-19 Solomeo,STS,Umbria,,Italy,,
Punto Vaccinazione Anti Covid-19 Tavernelle,STS,Umbria,,Italy,,
Punto Vaccinazione Anti Covid-19 Trestina,STS,Umbria,,Italy,,
Punto Vaccinazione Anti Covid-19 Tuoro Sul Trasimeno,STS,Umbria,,Italy,,
Punto Vaccinazione Anti Covid-19 Umbertide,STS,Umbria,,Italy,,
Pvt Via Manna - Punto Vaccinale Territoriale,STS,Umbria,,Italy,,
Questura Di Terni Ufficio Sanitario - Punto Vaccinale Territoriale,STS,Umbria,,Italy,,
Zona Bocciodromo Amelia - Punto Vaccinale Territoriale,STS,Umbria,,Italy,,
Centro Polifunzionale Grand Place,STS,Valle d'Aosta / Vallée d'Aoste,,Italy,,
Poliambulatorio Di Morgex - Centro Vaccini Covid,STS,Valle d'Aosta / Vallée d'Aoste,,Italy,,
Salone Polifunzionale Sito Nel Comune Di Châtillon,STS,Valle d'Aosta / Vallée d'Aoste,,Italy,,
Salone Polifunzionale Sito Nel Comune Di Donnas,STS,Valle d'Aosta / Vallée d'Aoste,,Italy,,
A.G.B.D Onlus,RIA,Veneto,,Italy,,
A.I.S.M.,RIA,Veneto,,Italy,,
Associaz. La Nostra Famiglia,RIA,Veneto,,Italy,,
Associaz. 'La Nostra Famiglia',RIA,Veneto,,Italy,,
Associazione La Nostra Famigli,RIA,Veneto,,Italy,,
Centro Aism Rosa`,RIA,Veneto,,Italy,,
Centro Archimede Srl,RIA,Veneto,,Italy,,
Centro Civico Fabio Presca (Punto Vaccinazioni),STS,Veneto,,Italy,,
Centro Di Vaccinazione C/O Osp. Di Schiavonia,STS,Veneto,,Italy,,
"Centro Diabetologia, Casa Della Salute Schio",STS,Veneto,,Italy,,
Centro Polifunz. D.Calabria,RIA,Veneto,,Italy,,
Centro Sanitario Polifunzionale (Ex Dialisi Piano Terra),STS,Veneto,,Italy,,
Centro Vaccinale,STS,Veneto,,Italy,,
"Centro Vaccinale  ""Dogana"" - Treviso",STS,Veneto,,Italy,,
"Centro Vaccinale ""Bocciodromo"" - Villorba",STS,Veneto,,Italy,,
"Centro Vaccinale ""Castrette"" - Villorba",STS,Veneto,,Italy,,
"Centro Vaccinale ""San Martino"" - Casale Sul Sile",STS,Veneto,,Italy,,
"Centro Vaccinale ""Sanita' Penitenziaria"" - Treviso",STS,Veneto,,Italy,,
Centro Vaccinale ¿Centro Culturale Casa Riese¿ ¿ Riese Pio X,STS,Veneto,,Italy,,
Centro Vaccinale C/O Centro Culturale A. Pettenella (Rovolon),STS,Veneto,,Italy,,
Centro Vaccinale 'Castello D'Amore' - Treviso,STS,Veneto,,Italy,,
Centro Vaccinale Cortina Palaghiaccio,STS,Veneto,,Italy,,
Centro Vaccinale Covid-19 Bibione,STS,Veneto,,Italy,,
Centro Vaccinale Covid-19 Caorle,STS,Veneto,,Italy,,
Centro Vaccinale Covid-19 Cavallino-Treporti,STS,Veneto,,Italy,,
Centro Vaccinale Covid-19 Jesolo,STS,Veneto,,Italy,,
Centro Vaccinale Covid-19 Portogruaro,STS,Veneto,,Italy,,
Centro Vaccinale Covid-19 San Dona',STS,Veneto,,Italy,,
Centro Vaccinale Di Vedelago,STS,Veneto,,Italy,,
Centro Vaccinale 'Foro Boario' - Oderzo,STS,Veneto,,Italy,,
Centro Vaccinale 'Palaingresso Godega Fiere' - Godega Sant'Urbano,STS,Veneto,,Italy,,
Centro Vaccinazione Lonigo,STS,Veneto,,Italy,,
Centro Vaccinazione Noventa Vicentina,STS,Veneto,,Italy,,
Centro Vaccinazione Popolazione Covid19 Bussolengo,STS,Veneto,,Italy,,
Centro Vaccinazione Popolazione Covid19 Legnago,STS,Veneto,,Italy,,
Centro Vaccinazione Popolazione Covid19 S. Bonifacio,STS,Veneto,,Italy,,
Centro Vaccinazione Torri Di Quartesolo,STS,Veneto,,Italy,,
Centro Vaccinazione Trissino,STS,Veneto,,Italy,,
Centro Vaccinazione Valdagno,STS,Veneto,,Italy,,
Centro Vaccinazione Vicenza,STS,Veneto,,Italy,,
Centro Vaccinazioni Del Comelico,STS,Veneto,,Italy,,
Centro Vaccinazioni Drive-In Paludi,STS,Veneto,,Italy,,
Centro Vaccinazioni Palaskating Di Sedico,STS,Veneto,,Italy,,
Chiostro S. Maria Delle Consolazioni,STS,Veneto,,Italy,,
Codess Sanita' S.R.L.,RIA,Veneto,,Italy,,
Covid19-Seminario Minore Di Rubano (Punto Vaccinazioni),STS,Veneto,,Italy,,
Cvp Adria C/O Centro Commerciale Il Porto,STS,Veneto,,Italy,,
Cvp Camponogara,STS,Veneto,,Italy,,
Cvp Castelmassa C/O Mercato Coperto,STS,Veneto,,Italy,,
Cvp Cavarzere,STS,Veneto,,Italy,,
Cvp Chioggia,STS,Veneto,,Italy,,
Cvp Chioggia 2,STS,Veneto,,Italy,,
Cvp Covid - Angarano,STS,Veneto,,Italy,,
Cvp Covid - Arsiero Palazzetto Dello Sport,STS,Veneto,,Italy,,
Cvp Covid - Asiago Unione Montana Spett. Reggenza Dei 7 Comuni,STS,Veneto,,Italy,,
Cvp Covid - Bassano Del Grappa Centro Socio Ricreativo Rondò Brenta,STS,Veneto,,Italy,,
Cvp Covid - Breganze (Mmg),STS,Veneto,,Italy,,
"Cvp Covid - Centro Socio-Ricreativo Rondò Brenta, Bassano Del Grappa  (Mmg)",STS,Veneto,,Italy,,
Cvp Covid - Chiuppano (Mmg),STS,Veneto,,Italy,,
Cvp Covid - Domicilio D1,STS,Veneto,,Italy,,
Cvp Covid - Domicilio D2,STS,Veneto,,Italy,,
"Cvp Covid - Ex Eurobrico, Bassano",STS,Veneto,,Italy,,
Cvp Covid - Malo (Mmg),STS,Veneto,,Italy,,
Cvp Covid - Marano Vicentino,STS,Veneto,,Italy,,
Cvp Covid - Marostica,STS,Veneto,,Italy,,
Cvp Covid - Marostica (Mmg),STS,Veneto,,Italy,,
Cvp Covid - Roana,STS,Veneto,,Italy,,
Cvp Covid - Roana (Mmg),STS,Veneto,,Italy,,
Cvp Covid - Romano D'Ezzelino (Mmg),STS,Veneto,,Italy,,
Cvp Covid - San Giuseppe Di Cassola (Mmg),STS,Veneto,,Italy,,
Cvp Covid - San Giuseppe Di Cassola Centro Diurno Per Anziani,STS,Veneto,,Italy,,
Cvp Covid - Schio Ex Lanificio Conte,STS,Veneto,,Italy,,
Cvp Covid - Thiene Padiglione Fieristico,STS,Veneto,,Italy,,
Cvp Covid Asiago C/O Ospedale,STS,Veneto,,Italy,,
Cvp Covid Asiago Distretto,STS,Veneto,,Italy,,
Cvp Covid Marano Vicentino (Mmg),STS,Veneto,,Italy,,
Cvp Covid Schio Palestra Comunale (Mmg),STS,Veneto,,Italy,,
Cvp Covid Thiene Padiglione Fieristico (Mmg),STS,Veneto,,Italy,,
Cvp Dolo,STS,Veneto,,Italy,,
Cvp Favaro,STS,Veneto,,Italy,,
Cvp Lendinara C/O Palazzetto Dello Sport,STS,Veneto,,Italy,,
Cvp Lido Pellestrina,STS,Veneto,,Italy,,
Cvp Marcon,STS,Veneto,,Italy,,
Cvp Mestre 2,STS,Veneto,,Italy,,
Cvp Mirano,STS,Veneto,,Italy,,
Cvp Noale,STS,Veneto,,Italy,,
Cvp Occhiobello C/O C.S.R.C. Arcobaleno,STS,Veneto,,Italy,,
Cvp Palaexpo,STS,Veneto,,Italy,,
Cvp Porto Tolle C/O Palazzetto Dello Sport,STS,Veneto,,Italy,,
Cvp Porto Viro C/O Sala Eracle,STS,Veneto,,Italy,,
Cvp Rosolina C/O Palazzetto Dello Sport,STS,Veneto,,Italy,,
Cvp Rovigo C/O Censer,STS,Veneto,,Italy,,
Cvp Santa Maria Di Sala,STS,Veneto,,Italy,,
Cvp Stabilimento Fiamm Spa,STS,Veneto,,Italy,,
Cvp Stabilimento Marzotto Spa,STS,Veneto,,Italy,,
Cvp Trecenta C/O Ospedale S.Luca,STS,Veneto,,Italy,,
Cvp Venezia 1,STS,Veneto,,Italy,,
Cvp Venezia 2,STS,Veneto,,Italy,,
Cvp Venezia 3,STS,Veneto,,Italy,,
Dm Riabilita Srl,RIA,Veneto,,Italy,,
Fiera Di Padova Padiglione 6 (Punto Vaccinazione),STS,Veneto,,Italy,,
Fiera Padiglione 8 - Azienda Ospedale - Universita' Padova,STS,Veneto,,Italy,,
Fisiosport Terraglio,RIA,Veneto,,Italy,,
Fond.F.Milcovich Onlus Exuildm,RIA,Veneto,,Italy,,
Fondaz. Piu' Di Un Sogno Onlus,RIA,Veneto,,Italy,,
Fondazione Speranza Onlus,RIA,Veneto,,Italy,,
Istituto Pio Xii Misurina,RIA,Veneto,,Italy,,
La Nostra Famiglia,RIA,Veneto,,Italy,,
La Nostra Famiglia Oderzo,RIA,Veneto,,Italy,,
La Nostra Famiglia Treviso,RIA,Veneto,,Italy,,
Municipio Di Albignasego (Punto Vaccinazioni),STS,Veneto,,Italy,,
Ospedale Militare (Punto Vaccinazioni),STS,Veneto,,Italy,,
Palazzetto Dello Sport 'Borgo Rossi' (Punto Vaccinazione),STS,Veneto,,Italy,,
Palazzetto Dello Sport Di Cittadella,STS,Veneto,,Italy,,
Palazzetto Dello Sport Di Loreggia,STS,Veneto,,Italy,,
Presidio Riabilit. Villa Maria,RIA,Veneto,,Italy,,
